{"type": "FeatureCollection", "licence": "Data \u00a9 OpenStreetMap contributors, ODbL 1.0. http://osm.org/copyright", "features": [{"type": "Feature", "properties": {"name": "Acacia Reservation", "boundary_type": "park", "boundary_color": "#1F6F4A", "osm_id": "way/297396089", "operator": "Cleveland Metroparks"}, "geometry": {"type": "Polygon", "coordinates": [[[-81.488861, 41.506716], [-81.488125, 41.505994], [-81.48816, 41.505719], [-81.488257, 41.505626], [-81.488258, 41.504881], [-81.488103, 41.50477], [-81.488012, 41.504531], [-81.487934, 41.504399], [-81.486877, 41.504214], [-81.486876, 41.504205], [-81.486876, 41.504196], [-81.486875, 41.504187], [-81.486874, 41.504179], [-81.486872, 41.50417], [-81.48687, 41.504162], [-81.486868, 41.504153], [-81.486865, 41.504145], [-81.486862, 41.504136], [-81.486858, 41.504128], [-81.486854, 41.50412], [-81.48685, 41.504112], [-81.486845, 41.504104], [-81.48684, 41.504096], [-81.486834, 41.504089], [-81.486829, 41.504081], [-81.486823, 41.504074], [-81.486816, 41.504067], [-81.486809, 41.50406], [-81.486802, 41.504053], [-81.486795, 41.504047], [-81.486787, 41.50404], [-81.486779, 41.504034], [-81.48677, 41.504028], [-81.486773, 41.503903], [-81.486777, 41.503674], [-81.486778, 41.503593], [-81.48679, 41.502913], [-81.486805, 41.502029], [-81.487082, 41.502029], [-81.487463, 41.50203], [-81.487465, 41.501886], [-81.487468, 41.501735], [-81.487475, 41.501333], [-81.48765, 41.501333], [-81.48784, 41.501333], [-81.487839, 41.501217], [-81.490788, 41.501233], [-81.492019, 41.501241], [-81.492021, 41.50135], [-81.495266, 41.50137], [-81.495393, 41.501393], [-81.496459, 41.501397], [-81.49711, 41.5014], [-81.497483, 41.501425], [-81.497485, 41.501425], [-81.497488, 41.501425], [-81.49749, 41.501426], [-81.497493, 41.501426], [-81.497495, 41.501426], [-81.497498, 41.501427], [-81.4975, 41.501427], [-81.497502, 41.501428], [-81.497505, 41.501429], [-81.497507, 41.50143], [-81.497509, 41.50143], [-81.497512, 41.501431], [-81.497514, 41.501432], [-81.497516, 41.501433], [-81.497518, 41.501434], [-81.49752, 41.501435], [-81.497522, 41.501437], [-81.497524, 41.501438], [-81.497526, 41.501439], [-81.497528, 41.501441], [-81.49753, 41.501442], [-81.497531, 41.501443], [-81.497533, 41.501445], [-81.497535, 41.501446], [-81.497536, 41.501448], [-81.497538, 41.501449], [-81.497539, 41.501451], [-81.49754, 41.501453], [-81.497541, 41.501455], [-81.497542, 41.501456], [-81.497544, 41.501458], [-81.497545, 41.50146], [-81.497545, 41.501462], [-81.497546, 41.501463], [-81.497547, 41.501465], [-81.497547, 41.501467], [-81.497548, 41.501469], [-81.497548, 41.501471], [-81.497549, 41.501473], [-81.497618, 41.501902], [-81.497615, 41.50215], [-81.497611, 41.502652], [-81.497574, 41.502652], [-81.497507, 41.502844], [-81.497455, 41.503409], [-81.493627, 41.503398], [-81.491609, 41.503392], [-81.491608, 41.503696], [-81.491792, 41.504431], [-81.493563, 41.504443], [-81.494106, 41.504933], [-81.494103, 41.50528], [-81.4941, 41.505455], [-81.494089, 41.50617], [-81.497392, 41.50619], [-81.497377, 41.507397], [-81.497385, 41.50822], [-81.497384, 41.508289], [-81.497315, 41.508288], [-81.497295, 41.509915], [-81.497293, 41.510082], [-81.497358, 41.51008], [-81.49736, 41.510555], [-81.496798, 41.510551], [-81.496486, 41.510549], [-81.496488, 41.510399], [-81.496489, 41.510368], [-81.496492, 41.510212], [-81.49665, 41.510081], [-81.494001, 41.510077], [-81.49263, 41.510075], [-81.49041, 41.510071], [-81.490064, 41.51007], [-81.489546, 41.510074], [-81.489554, 41.509554], [-81.489443, 41.509287], [-81.490222, 41.508945], [-81.490221, 41.508576], [-81.489773, 41.50794], [-81.489296, 41.507242], [-81.488861, 41.506716]]]}}]}
