{"type": "FeatureCollection", "licence": "Data \u00a9 OpenStreetMap contributors, ODbL 1.0. http://osm.org/copyright", "features": [{"type": "Feature", "properties": {"name": "Bedford Reservation", "boundary_type": "park", "boundary_color": "#2E8B57", "osm_id": "relation/3956286", "operator": "Cleveland Metroparks"}, "geometry": {"type": "MultiPolygon", "coordinates": [[[[-81.575874, 41.365605], [-81.574892, 41.365607], [-81.574861, 41.361913], [-81.583738, 41.361941], [-81.58523, 41.361945], [-81.585226, 41.362458], [-81.585222, 41.362916], [-81.5852, 41.365488], [-81.585198, 41.365632], [-81.585111, 41.370837], [-81.585094, 41.371857], [-81.585023, 41.371992], [-81.584959, 41.372061], [-81.584854, 41.372174], [-81.584849, 41.372212], [-81.58471, 41.372361], [-81.584638, 41.372409], [-81.584583, 41.372471], [-81.584512, 41.372517], [-81.584349, 41.372681], [-81.584259, 41.372742], [-81.58422, 41.37276], [-81.584162, 41.372771], [-81.584112, 41.37281], [-81.583971, 41.372949], [-81.583961, 41.372963], [-81.583907, 41.373038], [-81.583859, 41.373065], [-81.58381, 41.373111], [-81.58373, 41.373158], [-81.583343, 41.373345], [-81.582819, 41.373545], [-81.58272, 41.373568], [-81.582666, 41.373598], [-81.58254, 41.37364], [-81.582492, 41.373645], [-81.582167, 41.37377], [-81.58193, 41.373831], [-81.581564, 41.373899], [-81.581417, 41.373876], [-81.581088, 41.373689], [-81.58099, 41.373585], [-81.58091, 41.373461], [-81.580734, 41.373378], [-81.580555, 41.373364], [-81.580384, 41.373369], [-81.580148, 41.37339], [-81.579991, 41.373419], [-81.579784, 41.373547], [-81.579701, 41.373358], [-81.579632, 41.373236], [-81.579387, 41.372868], [-81.579276, 41.372735], [-81.579186, 41.37249], [-81.579048, 41.371972], [-81.578752, 41.370858], [-81.575806, 41.369417], [-81.575836, 41.367717], [-81.575843, 41.367334], [-81.578261, 41.36732], [-81.579361, 41.36771], [-81.581825, 41.36773], [-81.582476, 41.367644], [-81.58318, 41.367307], [-81.583532, 41.367234], [-81.583875, 41.36728], [-81.584078, 41.367452], [-81.584491, 41.36734], [-81.584086, 41.366561], [-81.583435, 41.366363], [-81.58237, 41.366627], [-81.581165, 41.366653], [-81.579431, 41.366673], [-81.577988, 41.366541], [-81.576976, 41.366792], [-81.576519, 41.366818], [-81.57629, 41.366739], [-81.576096, 41.366455], [-81.575895, 41.366045], [-81.575871, 41.365775], [-81.575874, 41.365605]]], [[[-81.523831, 41.386061], [-81.52377, 41.386034], [-81.521448, 41.385004], [-81.520075, 41.384343], [-81.518342, 41.384294], [-81.517933, 41.384431], [-81.517872, 41.384731], [-81.517569, 41.384963], [-81.517571, 41.385112], [-81.515535, 41.38501], [-81.513052, 41.384886], [-81.513277, 41.383174], [-81.513471, 41.383092], [-81.513672, 41.381563], [-81.514123, 41.379114], [-81.5143, 41.377342], [-81.514992, 41.375049], [-81.516551, 41.376759], [-81.517462, 41.376752], [-81.517471, 41.377393], [-81.517496, 41.379243], [-81.520179, 41.37857], [-81.520117, 41.37871], [-81.517497, 41.379311], [-81.517541, 41.382754], [-81.518062, 41.382749], [-81.518242, 41.38261], [-81.51825, 41.382547], [-81.518275, 41.382487], [-81.51836, 41.382391], [-81.518426, 41.382351], [-81.5185, 41.382323], [-81.518572, 41.382313], [-81.518651, 41.382302], [-81.51865, 41.382364], [-81.518909, 41.382366], [-81.518907, 41.382616], [-81.518927, 41.382767], [-81.519072, 41.382879], [-81.518908, 41.383114], [-81.519563, 41.383109], [-81.519562, 41.383219], [-81.52075, 41.383208], [-81.522113, 41.383608], [-81.522519, 41.383727], [-81.523751, 41.383738], [-81.524347, 41.383833], [-81.524324, 41.383913], [-81.524417, 41.383937], [-81.525244, 41.384068], [-81.525892, 41.384236], [-81.525105, 41.385969], [-81.52465, 41.385932], [-81.524563, 41.385852], [-81.523834, 41.385926], [-81.523831, 41.386061]]], [[[-81.568672, 41.358115], [-81.568845, 41.357482], [-81.569291, 41.357552], [-81.569365, 41.357283], [-81.569799, 41.35679], [-81.569795, 41.356061], [-81.569475, 41.355604], [-81.569385, 41.355662], [-81.569985, 41.353487], [-81.570025, 41.353344], [-81.569989, 41.353338], [-81.570656, 41.35092], [-81.571385, 41.350925], [-81.574767, 41.350951], [-81.580741, 41.351024], [-81.589966, 41.351119], [-81.590114, 41.351093], [-81.590231, 41.351045], [-81.590341, 41.350966], [-81.590411, 41.350881], [-81.590575, 41.350518], [-81.590617, 41.350383], [-81.590717, 41.349487], [-81.590749, 41.349437], [-81.590805, 41.34939], [-81.591057, 41.349272], [-81.591484, 41.349836], [-81.59168, 41.350125], [-81.592035, 41.350717], [-81.59226, 41.351149], [-81.5924, 41.35116], [-81.592958, 41.352089], [-81.59277, 41.35216], [-81.591029, 41.352745], [-81.591209, 41.353589], [-81.588464, 41.353922], [-81.588018, 41.354509], [-81.587485, 41.355078], [-81.586832, 41.355159], [-81.585826, 41.356008], [-81.585365, 41.355783], [-81.585155, 41.355926], [-81.585078, 41.356236], [-81.584154, 41.356546], [-81.583452, 41.356319], [-81.58226, 41.356169], [-81.582045, 41.355702], [-81.582172, 41.354702], [-81.581343, 41.354715], [-81.58115, 41.354363], [-81.580672, 41.354444], [-81.580122, 41.354394], [-81.579492, 41.354385], [-81.578857, 41.354291], [-81.578369, 41.353934], [-81.578122, 41.353944], [-81.577863, 41.354097], [-81.577555, 41.354447], [-81.577044, 41.354886], [-81.576471, 41.355053], [-81.575989, 41.355175], [-81.575568, 41.355157], [-81.57551, 41.355556], [-81.575484, 41.35591], [-81.575103, 41.356566], [-81.574592, 41.356966], [-81.573979, 41.357163], [-81.572408, 41.357176], [-81.5712, 41.356891], [-81.571186, 41.35817], [-81.570612, 41.358126], [-81.568672, 41.358115]]], [[[-81.577598, 41.388824], [-81.577585, 41.387452], [-81.577948, 41.387456], [-81.578313, 41.387459], [-81.578324, 41.388559], [-81.578327, 41.388834], [-81.578332, 41.38938], [-81.580949, 41.389405], [-81.580951, 41.389208], [-81.580952, 41.389169], [-81.581251, 41.389082], [-81.581334, 41.388891], [-81.581723, 41.388733], [-81.581812, 41.388551], [-81.581728, 41.388315], [-81.581738, 41.387547], [-81.581993, 41.387549], [-81.581984, 41.388226], [-81.58265, 41.388232], [-81.582654, 41.388507], [-81.583322, 41.388501], [-81.583331, 41.388019], [-81.583961, 41.388048], [-81.584838, 41.387788], [-81.584838, 41.387557], [-81.585275, 41.387563], [-81.587133, 41.387587], [-81.587471, 41.387866], [-81.586964, 41.387859], [-81.586966, 41.387869], [-81.586968, 41.387878], [-81.58697, 41.387887], [-81.586971, 41.387897], [-81.586972, 41.387906], [-81.586973, 41.387916], [-81.586973, 41.387925], [-81.586972, 41.387935], [-81.586971, 41.387944], [-81.58697, 41.387954], [-81.586968, 41.387963], [-81.586966, 41.387972], [-81.586963, 41.387982], [-81.58696, 41.387991], [-81.586956, 41.388], [-81.586953, 41.388009], [-81.586948, 41.388018], [-81.586944, 41.388027], [-81.586939, 41.388035], [-81.586933, 41.388044], [-81.586927, 41.388052], [-81.586921, 41.38806], [-81.586914, 41.388068], [-81.586907, 41.388076], [-81.5869, 41.388084], [-81.586892, 41.388091], [-81.586884, 41.388099], [-81.586876, 41.388106], [-81.586867, 41.388112], [-81.586858, 41.388119], [-81.586722, 41.388215], [-81.586659, 41.388522], [-81.586575, 41.388514], [-81.586655, 41.388188], [-81.586808, 41.388079], [-81.586815, 41.388074], [-81.586822, 41.388069], [-81.586829, 41.388063], [-81.586835, 41.388057], [-81.586841, 41.388051], [-81.586847, 41.388045], [-81.586853, 41.388039], [-81.586858, 41.388032], [-81.586863, 41.388026], [-81.586868, 41.388019], [-81.586872, 41.388013], [-81.586876, 41.388006], [-81.58688, 41.387999], [-81.586883, 41.387992], [-81.586887, 41.387985], [-81.586889, 41.387977], [-81.586892, 41.38797], [-81.586894, 41.387963], [-81.586896, 41.387955], [-81.586897, 41.387948], [-81.586898, 41.38794], [-81.586899, 41.387933], [-81.5869, 41.387925], [-81.5869, 41.387918], [-81.5869, 41.38791], [-81.586899, 41.387903], [-81.586898, 41.387895], [-81.586897, 41.387888], [-81.586895, 41.38788], [-81.586893, 41.387873], [-81.586891, 41.387866], [-81.586888, 41.387858], [-81.586335, 41.387851], [-81.585942, 41.388137], [-81.584959, 41.388851], [-81.584867, 41.388918], [-81.584819, 41.388954], [-81.584782, 41.391177], [-81.584017, 41.390951], [-81.583414, 41.391023], [-81.58329, 41.391165], [-81.580926, 41.391146], [-81.577937, 41.391121], [-81.576162, 41.391107], [-81.575069, 41.391098], [-81.575068, 41.391029], [-81.575942, 41.391036], [-81.575941, 41.390832], [-81.576159, 41.390834], [-81.57614, 41.38881], [-81.577598, 41.388824]]], [[[-81.543702, 41.391135], [-81.544882, 41.390405], [-81.544527, 41.389911], [-81.544176, 41.389907], [-81.543825, 41.38991], [-81.543474, 41.389921], [-81.543124, 41.389939], [-81.541358, 41.389956], [-81.540993, 41.389612], [-81.540156, 41.388824], [-81.54002, 41.388439], [-81.537307, 41.388817], [-81.536894, 41.387996], [-81.536886, 41.387519], [-81.536136, 41.387522], [-81.535257, 41.385791], [-81.535658, 41.385166], [-81.535459, 41.384813], [-81.535047, 41.384516], [-81.534392, 41.384316], [-81.534447, 41.384086], [-81.534492, 41.383854], [-81.534529, 41.383622], [-81.533173, 41.380947], [-81.533042, 41.380688], [-81.534556, 41.379731], [-81.537456, 41.377896], [-81.540106, 41.376221], [-81.541482, 41.37535], [-81.541883, 41.375098], [-81.545543, 41.372794], [-81.546974, 41.371927], [-81.548875, 41.370633], [-81.5492, 41.369344], [-81.549493, 41.368796], [-81.55832, 41.368805], [-81.558349, 41.370162], [-81.560267, 41.370158], [-81.56027, 41.370332], [-81.5605, 41.370329], [-81.560512, 41.370981], [-81.565362, 41.37097], [-81.565278, 41.365589], [-81.565275, 41.364981], [-81.565271, 41.363884], [-81.558699, 41.36388], [-81.558678, 41.362902], [-81.558667, 41.362369], [-81.558658, 41.361942], [-81.558637, 41.360925], [-81.560155, 41.360927], [-81.56012, 41.359076], [-81.560115, 41.358802], [-81.56029, 41.358802], [-81.56028, 41.358257], [-81.560278, 41.358147], [-81.560357, 41.358147], [-81.560421, 41.358147], [-81.561337, 41.358148], [-81.563523, 41.358151], [-81.565246, 41.358188], [-81.568082, 41.358191], [-81.568052, 41.358303], [-81.567724, 41.359509], [-81.567606, 41.359976], [-81.567509, 41.360445], [-81.567433, 41.360917], [-81.567379, 41.36139], [-81.567347, 41.361864], [-81.567594, 41.362086], [-81.567479, 41.362158], [-81.56746, 41.362171], [-81.567441, 41.362184], [-81.567423, 41.362198], [-81.567406, 41.362212], [-81.567389, 41.362226], [-81.567373, 41.362241], [-81.567358, 41.362256], [-81.567343, 41.362272], [-81.567329, 41.362288], [-81.567316, 41.362304], [-81.567304, 41.362321], [-81.567292, 41.362338], [-81.567281, 41.362355], [-81.567271, 41.362373], [-81.567262, 41.362391], [-81.567254, 41.362409], [-81.567246, 41.362427], [-81.56724, 41.362446], [-81.567234, 41.362465], [-81.567229, 41.362483], [-81.567225, 41.362502], [-81.567222, 41.362521], [-81.56722, 41.36254], [-81.566933, 41.365592], [-81.567634, 41.365594], [-81.567784, 41.36603], [-81.567952, 41.366462], [-81.568139, 41.36689], [-81.568344, 41.367313], [-81.568567, 41.367731], [-81.568808, 41.368143], [-81.569067, 41.36855], [-81.569343, 41.368949], [-81.569636, 41.369342], [-81.569946, 41.369727], [-81.570272, 41.370105], [-81.570614, 41.370474], [-81.571318, 41.371207], [-81.573387, 41.373364], [-81.57461, 41.374639], [-81.574876, 41.374494], [-81.574926, 41.374548], [-81.574919, 41.373556], [-81.575561, 41.374224], [-81.576125, 41.374091], [-81.578064, 41.373473], [-81.578743, 41.373257], [-81.578906, 41.372834], [-81.579173, 41.372793], [-81.579298, 41.373074], [-81.579214, 41.373102], [-81.579439, 41.373612], [-81.579515, 41.373567], [-81.579724, 41.374039], [-81.579774, 41.374038], [-81.579778, 41.375077], [-81.578715, 41.375894], [-81.578275, 41.376081], [-81.577772, 41.376389], [-81.57745, 41.376623], [-81.577096, 41.376815], [-81.576723, 41.376904], [-81.576611, 41.377015], [-81.576775, 41.377393], [-81.576802, 41.377681], [-81.576739, 41.377954], [-81.576504, 41.378335], [-81.57553, 41.380205], [-81.574962, 41.380201], [-81.574592, 41.380199], [-81.574605, 41.380891], [-81.574955, 41.380892], [-81.57496, 41.381195], [-81.574845, 41.381465], [-81.574846, 41.381508], [-81.574852, 41.38185], [-81.574973, 41.381849], [-81.574981, 41.382303], [-81.573536, 41.382298], [-81.573538, 41.382614], [-81.574983, 41.382619], [-81.574988, 41.383388], [-81.568847, 41.383366], [-81.568814, 41.383414], [-81.568287, 41.384177], [-81.567596, 41.385177], [-81.566217, 41.385183], [-81.565503, 41.385186], [-81.565504, 41.385361], [-81.565513, 41.387394], [-81.564055, 41.387399], [-81.564046, 41.385001], [-81.56147, 41.385011], [-81.561467, 41.384765], [-81.561457, 41.384043], [-81.561431, 41.382124], [-81.557289, 41.384346], [-81.553703, 41.389501], [-81.551465, 41.390537], [-81.549604, 41.391399], [-81.549458, 41.391219], [-81.548274, 41.391211], [-81.546685, 41.3912], [-81.546492, 41.391199], [-81.546488, 41.390946], [-81.545455, 41.391255], [-81.542589, 41.392111], [-81.542215, 41.391398], [-81.542726, 41.391227], [-81.543702, 41.391135]]], [[[-81.50673, 41.383319], [-81.504249, 41.383195], [-81.503269, 41.383146], [-81.503272, 41.384398], [-81.502774, 41.384373], [-81.501004, 41.384285], [-81.50073, 41.384264], [-81.500324, 41.384206], [-81.500059, 41.384151], [-81.499799, 41.384082], [-81.499546, 41.384], [-81.499182, 41.383852], [-81.498952, 41.383739], [-81.498732, 41.383614], [-81.498424, 41.383406], [-81.498147, 41.383176], [-81.494846, 41.38013], [-81.494657, 41.379938], [-81.494303, 41.379543], [-81.493461, 41.378487], [-81.493184, 41.378216], [-81.492979, 41.378048], [-81.492759, 41.37789], [-81.492525, 41.377746], [-81.492277, 41.377613], [-81.492019, 41.377494], [-81.491749, 41.377389], [-81.491056, 41.377161], [-81.490732, 41.377069], [-81.490071, 41.376909], [-81.490525, 41.37688], [-81.489452, 41.376509], [-81.489365, 41.376776], [-81.488931, 41.376702], [-81.489024, 41.374031], [-81.489056, 41.374028], [-81.492742, 41.375626], [-81.493345, 41.375011], [-81.493652, 41.374562], [-81.493644, 41.374538], [-81.493641, 41.373929], [-81.493823, 41.373931], [-81.493825, 41.374342], [-81.494592, 41.374349], [-81.49458, 41.376421], [-81.495779, 41.376939], [-81.496693, 41.377334], [-81.49723, 41.377566], [-81.498431, 41.377569], [-81.502705, 41.378954], [-81.504929, 41.380038], [-81.50583, 41.379373], [-81.506077, 41.379166], [-81.506317, 41.378965], [-81.506143, 41.378847], [-81.505715, 41.378557], [-81.505232, 41.378231], [-81.504815, 41.378582], [-81.504252, 41.379054], [-81.503348, 41.378613], [-81.503368, 41.377181], [-81.504185, 41.377352], [-81.504495, 41.376718], [-81.505444, 41.376925], [-81.505807, 41.377022], [-81.506096, 41.377183], [-81.50618, 41.377351], [-81.5067, 41.377774], [-81.507932, 41.376916], [-81.507953, 41.376441], [-81.508082, 41.376382], [-81.508083, 41.375908], [-81.50797, 41.375984], [-81.507646, 41.375828], [-81.507695, 41.375788], [-81.505608, 41.375786], [-81.503823, 41.374572], [-81.503675, 41.373447], [-81.503685, 41.37276], [-81.508177, 41.372796], [-81.508176, 41.374212], [-81.508169, 41.380078], [-81.508506, 41.380081], [-81.51088, 41.380101], [-81.512362, 41.380113], [-81.511974, 41.383063], [-81.512065, 41.383147], [-81.512181, 41.383156], [-81.511961, 41.384832], [-81.511844, 41.384826], [-81.508185, 41.384643], [-81.508183, 41.384094], [-81.50673, 41.383319]]], [[[-81.526219, 41.384336], [-81.526363, 41.384384], [-81.526522, 41.384444], [-81.526675, 41.38451], [-81.526824, 41.384583], [-81.526968, 41.384661], [-81.526916, 41.384696], [-81.52702, 41.384853], [-81.52698, 41.385036], [-81.526699, 41.385279], [-81.526352, 41.385412], [-81.525987, 41.385638], [-81.525856, 41.385698], [-81.525918, 41.385749], [-81.525599, 41.385894], [-81.525515, 41.385914], [-81.526219, 41.384336]]], [[[-81.565257, 41.357211], [-81.565172, 41.350878], [-81.570285, 41.350917], [-81.569666, 41.3531], [-81.569417, 41.35398], [-81.56898, 41.355521], [-81.568864, 41.355932], [-81.568491, 41.355908], [-81.567376, 41.355834], [-81.566995, 41.356092], [-81.566998, 41.356407], [-81.566255, 41.356447], [-81.565257, 41.357211]]], [[[-81.488922, 41.378286], [-81.488944, 41.377068], [-81.48905, 41.377078], [-81.489479, 41.37715], [-81.490013, 41.377265], [-81.490517, 41.377394], [-81.490827, 41.37749], [-81.491115, 41.37759], [-81.491327, 41.377672], [-81.491535, 41.377759], [-81.491738, 41.377852], [-81.491938, 41.37795], [-81.492132, 41.378053], [-81.492322, 41.378161], [-81.492507, 41.378274], [-81.492687, 41.378392], [-81.492861, 41.378514], [-81.49303, 41.378641], [-81.493193, 41.378771], [-81.493349, 41.378906], [-81.493777, 41.379288], [-81.493829, 41.379366], [-81.493931, 41.379496], [-81.494036, 41.37961], [-81.494143, 41.379717], [-81.4943, 41.37987], [-81.494492, 41.380076], [-81.494693, 41.380277], [-81.492307, 41.38027], [-81.488933, 41.379582], [-81.488915, 41.379578], [-81.488915, 41.379557], [-81.488919, 41.378733], [-81.488922, 41.378286]]], [[[-81.526458, 41.382991], [-81.526458, 41.382991], [-81.525968, 41.38407], [-81.524888, 41.383746], [-81.524118, 41.383364], [-81.524249, 41.383096], [-81.524712, 41.382997], [-81.524928, 41.382898], [-81.52589, 41.382832], [-81.526458, 41.382991]]], [[[-81.529549, 41.382993], [-81.53002, 41.382495], [-81.530075, 41.382539], [-81.530084, 41.383102], [-81.53042, 41.383738], [-81.53061, 41.383819], [-81.530208, 41.384352], [-81.529872, 41.384145], [-81.52961, 41.383983], [-81.529557, 41.383951], [-81.529183, 41.383689], [-81.52942, 41.383239], [-81.529549, 41.382993]]], [[[-81.53365, 41.385039], [-81.532846, 41.384602], [-81.532014, 41.38415], [-81.531655, 41.384341], [-81.531625, 41.384289], [-81.531507, 41.384085], [-81.531549, 41.383876], [-81.531684, 41.383698], [-81.531819, 41.383641], [-81.531722, 41.383295], [-81.53159, 41.383337], [-81.531039, 41.383724], [-81.530995, 41.38428], [-81.530531, 41.38409], [-81.530713, 41.383848], [-81.530523, 41.383488], [-81.530389, 41.383235], [-81.530302, 41.38307], [-81.530296, 41.382696], [-81.530293, 41.382508], [-81.530475, 41.382377], [-81.530997, 41.382002], [-81.531018, 41.381987], [-81.531458, 41.381799], [-81.531403, 41.381724], [-81.531725, 41.381521], [-81.531741, 41.38151], [-81.532141, 41.381258], [-81.533143, 41.383235], [-81.533167, 41.383282], [-81.533222, 41.383392], [-81.533401, 41.383744], [-81.533428, 41.38377], [-81.533584, 41.38407], [-81.533488, 41.384534], [-81.534032, 41.384803], [-81.534271, 41.384846], [-81.534291, 41.384886], [-81.534518, 41.385333], [-81.534629, 41.385551], [-81.534073, 41.385711], [-81.534227, 41.386076], [-81.534122, 41.3861], [-81.534031, 41.385884], [-81.533971, 41.38574], [-81.533877, 41.385517], [-81.533683, 41.385056], [-81.53365, 41.385039]], [[-81.532833, 41.383363], [-81.532617, 41.38332], [-81.532573, 41.383395], [-81.532857, 41.383485], [-81.532901, 41.383409], [-81.532908, 41.383397], [-81.53289, 41.383388], [-81.532833, 41.383363]]], [[[-81.530067, 41.386274], [-81.529439, 41.385746], [-81.529562, 41.385663], [-81.529081, 41.385236], [-81.528925, 41.384876], [-81.528309, 41.3846], [-81.528077, 41.384602], [-81.527752, 41.384417], [-81.52738, 41.384672], [-81.526995, 41.384352], [-81.52631, 41.384164], [-81.526774, 41.383142], [-81.527388, 41.383597], [-81.528769, 41.384035], [-81.529021, 41.3838], [-81.530088, 41.384491], [-81.529698, 41.384927], [-81.52994, 41.38506], [-81.530032, 41.385187], [-81.530684, 41.385622], [-81.531078, 41.385765], [-81.530777, 41.386396], [-81.530067, 41.386274]], [[-81.528873, 41.384513], [-81.529059, 41.384582], [-81.529542, 41.384828], [-81.529553, 41.384815], [-81.529417, 41.384731], [-81.529261, 41.384635], [-81.528949, 41.384442], [-81.528873, 41.384513]]], [[[-81.534636, 41.38705], [-81.53532, 41.38691], [-81.535387, 41.387037], [-81.534691, 41.387181], [-81.534636, 41.38705]]]]}}]}
