{"type": "FeatureCollection", "licence": "Data \u00a9 OpenStreetMap contributors, ODbL 1.0. http://osm.org/copyright", "features": [{"type": "Feature", "properties": {"name": "Big Creek Reservation", "boundary_type": "park", "boundary_color": "#3CB371", "osm_id": "relation/3956339", "operator": "Cleveland Metroparks"}, "geometry": {"type": "MultiPolygon", "coordinates": [[[[-81.753593, 41.417895], [-81.753664, 41.417655], [-81.753694, 41.417439], [-81.753706, 41.417222], [-81.753698, 41.417005], [-81.753671, 41.416789], [-81.753626, 41.416574], [-81.753579, 41.416422], [-81.753445, 41.416126], [-81.753308, 41.415916], [-81.752637, 41.415124], [-81.752478, 41.4149], [-81.752315, 41.414585], [-81.752256, 41.414421], [-81.752195, 41.414171], [-81.752167, 41.413834], [-81.752201, 41.413496], [-81.752241, 41.413329], [-81.752346, 41.413003], [-81.752469, 41.41262], [-81.752519, 41.412294], [-81.752526, 41.411934], [-81.752503, 41.411574], [-81.75245, 41.411216], [-81.752326, 41.410669], [-81.752481, 41.410685], [-81.752241, 41.409663], [-81.752115, 41.40965], [-81.75212, 41.409462], [-81.75215, 41.409274], [-81.751942, 41.408387], [-81.752156, 41.408265], [-81.7522, 41.408212], [-81.752219, 41.408158], [-81.753424, 41.408115], [-81.753447, 41.408072], [-81.753507, 41.408058], [-81.75354, 41.408068], [-81.753732, 41.408178], [-81.75394, 41.408259], [-81.754327, 41.408606], [-81.754708, 41.408665], [-81.755604, 41.407912], [-81.755783, 41.407761], [-81.755476, 41.407429], [-81.755085, 41.407006], [-81.755091, 41.406473], [-81.75511, 41.404854], [-81.755114, 41.404547], [-81.755115, 41.404434], [-81.755784, 41.403347], [-81.754631, 41.402858], [-81.754195, 41.402285], [-81.754017, 41.401647], [-81.754021, 41.401286], [-81.754296, 41.401345], [-81.754437, 41.401375], [-81.754522, 41.401387], [-81.754642, 41.401404], [-81.75485, 41.401418], [-81.755128, 41.401412], [-81.75547, 41.401364], [-81.756529, 41.40109], [-81.756756, 41.401043], [-81.756986, 41.401008], [-81.757336, 41.400979], [-81.757688, 41.400977], [-81.757922, 41.400991], [-81.758449, 41.401046], [-81.758567, 41.401025], [-81.758663, 41.400969], [-81.758715, 41.400904], [-81.758733, 41.400836], [-81.758742, 41.400123], [-81.758715, 41.399902], [-81.758669, 41.399738], [-81.758601, 41.399579], [-81.758512, 41.399426], [-81.758359, 41.399209], [-81.758276, 41.399041], [-81.758217, 41.398822], [-81.758209, 41.398598], [-81.758239, 41.39842], [-81.758284, 41.39829], [-81.758653, 41.398763], [-81.759115, 41.398926], [-81.759313, 41.398996], [-81.759342, 41.398895], [-81.759308, 41.398822], [-81.759102, 41.398377], [-81.759156, 41.398264], [-81.759436, 41.397671], [-81.759171, 41.397303], [-81.758941, 41.396983], [-81.759456, 41.396987], [-81.75999, 41.39684], [-81.760628, 41.395885], [-81.761053, 41.395702], [-81.762142, 41.395415], [-81.762642, 41.395349], [-81.763471, 41.395223], [-81.763694, 41.394802], [-81.764033, 41.394804], [-81.764034, 41.394649], [-81.764269, 41.394544], [-81.764667, 41.394508], [-81.765133, 41.394146], [-81.765139, 41.393543], [-81.765303, 41.393545], [-81.765685, 41.392745], [-81.766148, 41.392495], [-81.76711, 41.392244], [-81.768017, 41.391777], [-81.768065, 41.39174], [-81.768119, 41.391698], [-81.767495, 41.39124], [-81.767576, 41.391178], [-81.769779, 41.389479], [-81.769698, 41.389403], [-81.769519, 41.389236], [-81.769894, 41.389002], [-81.770714, 41.388621], [-81.770799, 41.388705], [-81.770906, 41.388773], [-81.771029, 41.388824], [-81.771164, 41.388854], [-81.771304, 41.388863], [-81.771443, 41.38885], [-81.771576, 41.388816], [-81.771696, 41.388762], [-81.771784, 41.388703], [-81.771856, 41.388634], [-81.772379, 41.387942], [-81.772587, 41.387703], [-81.772815, 41.387474], [-81.773062, 41.387257], [-81.773327, 41.387053], [-81.773609, 41.386862], [-81.773908, 41.386685], [-81.773997, 41.386836], [-81.774083, 41.386948], [-81.774162, 41.386984], [-81.774254, 41.38698], [-81.774618, 41.386784], [-81.775178, 41.386483], [-81.775898, 41.386138], [-81.77672, 41.385791], [-81.777517, 41.385503], [-81.777923, 41.385373], [-81.778734, 41.385147], [-81.779137, 41.38505], [-81.780068, 41.384851], [-81.78053, 41.384752], [-81.781179, 41.384594], [-81.78182, 41.384422], [-81.782454, 41.384234], [-81.78308, 41.384031], [-81.783697, 41.383813], [-81.784331, 41.383569], [-81.784384, 41.383535], [-81.784425, 41.383491], [-81.784451, 41.383442], [-81.78446, 41.38339], [-81.784642, 41.383392], [-81.784645, 41.383261], [-81.784757, 41.383262], [-81.784769, 41.383301], [-81.784807, 41.383332], [-81.784857, 41.383345], [-81.784909, 41.383339], [-81.785984, 41.382907], [-81.786394, 41.382759], [-81.78702, 41.382533], [-81.787609, 41.382343], [-81.788206, 41.382165], [-81.790141, 41.381628], [-81.79078, 41.381414], [-81.791092, 41.381295], [-81.791701, 41.381035], [-81.794683, 41.379661], [-81.79494, 41.379535], [-81.795003, 41.379501], [-81.795228, 41.379377], [-81.795541, 41.379181], [-81.795834, 41.378969], [-81.796108, 41.378743], [-81.797109, 41.377804], [-81.797434, 41.377539], [-81.797782, 41.377292], [-81.798153, 41.377064], [-81.798544, 41.376856], [-81.798954, 41.376669], [-81.799916, 41.376262], [-81.800192, 41.376128], [-81.800456, 41.375979], [-81.800702, 41.375822], [-81.800934, 41.375653], [-81.801791, 41.37491], [-81.802293, 41.374531], [-81.802789, 41.374218], [-81.803255, 41.37396], [-81.803624, 41.373756], [-81.804015, 41.37354], [-81.804591, 41.373176], [-81.804866, 41.372983], [-81.805351, 41.372606], [-81.807599, 41.370632], [-81.807807, 41.370765], [-81.807977, 41.370874], [-81.805728, 41.372849], [-81.805276, 41.373203], [-81.805035, 41.373376], [-81.804532, 41.373706], [-81.804272, 41.373862], [-81.803045, 41.37454], [-81.802674, 41.374774], [-81.802332, 41.375022], [-81.802169, 41.375152], [-81.801529, 41.375714], [-81.801268, 41.375929], [-81.80084, 41.376225], [-81.800441, 41.376452], [-81.80016, 41.376587], [-81.799195, 41.376995], [-81.798815, 41.377168], [-81.798453, 41.377361], [-81.798109, 41.377572], [-81.797786, 41.377802], [-81.797485, 41.378047], [-81.796495, 41.378977], [-81.79622, 41.379206], [-81.795926, 41.379422], [-81.795614, 41.379623], [-81.795378, 41.379753], [-81.795115, 41.379897], [-81.791969, 41.381349], [-81.791661, 41.381486], [-81.791029, 41.381738], [-81.790705, 41.381852], [-81.79016, 41.382023], [-81.788331, 41.382528], [-81.787711, 41.382715], [-81.7871, 41.382916], [-81.786497, 41.383131], [-81.78577, 41.383413], [-81.784881, 41.38378], [-81.784828, 41.383819], [-81.78478, 41.383874], [-81.784751, 41.383935], [-81.784742, 41.383991], [-81.784631, 41.38399], [-81.784629, 41.384085], [-81.784544, 41.384084], [-81.784447, 41.384082], [-81.784435, 41.384044], [-81.7844, 41.384014], [-81.784354, 41.384], [-81.784301, 41.384003], [-81.783667, 41.384238], [-81.783037, 41.384453], [-81.782399, 41.384653], [-81.781753, 41.384838], [-81.781099, 41.385008], [-81.780438, 41.385162], [-81.779219, 41.385421], [-81.778771, 41.385531], [-81.777944, 41.385771], [-81.77719, 41.38603], [-81.776821, 41.386173], [-81.776326, 41.386381], [-81.775592, 41.386724], [-81.775171, 41.386939], [-81.77476, 41.387165], [-81.774238, 41.387473], [-81.774029, 41.387611], [-81.773832, 41.38776], [-81.773563, 41.388001], [-81.773403, 41.388172], [-81.773258, 41.388351], [-81.771387, 41.390851], [-81.771164, 41.391125], [-81.770917, 41.391386], [-81.770646, 41.391634], [-81.770353, 41.391867], [-81.769875, 41.392186], [-81.769868, 41.393192], [-81.769866, 41.393585], [-81.769776, 41.393584], [-81.769407, 41.393581], [-81.769407, 41.393403], [-81.769383, 41.393226], [-81.769334, 41.393052], [-81.769233, 41.392827], [-81.769164, 41.392721], [-81.769062, 41.39263], [-81.768949, 41.392571], [-81.7688, 41.39253], [-81.768682, 41.392521], [-81.768584, 41.392527], [-81.768488, 41.392546], [-81.768382, 41.392584], [-81.768152, 41.392698], [-81.767932, 41.392823], [-81.767624, 41.39303], [-81.767434, 41.39318], [-81.767258, 41.393339], [-81.767095, 41.393507], [-81.767095, 41.393561], [-81.767048, 41.39356], [-81.76699, 41.393629], [-81.766361, 41.394484], [-81.766156, 41.394739], [-81.764481, 41.396515], [-81.764084, 41.396905], [-81.763873, 41.397093], [-81.76351, 41.397382], [-81.763196, 41.397573], [-81.762531, 41.39791], [-81.76232, 41.398056], [-81.762135, 41.398222], [-81.761912, 41.3981], [-81.76191, 41.39815], [-81.761665, 41.398524], [-81.76161, 41.398639], [-81.761547, 41.398816], [-81.761501, 41.399059], [-81.761478, 41.39961], [-81.761438, 41.3998], [-81.761373, 41.399986], [-81.76037, 41.401921], [-81.760281, 41.402071], [-81.760089, 41.402303], [-81.75985, 41.402508], [-81.759491, 41.402736], [-81.758673, 41.403257], [-81.758422, 41.403439], [-81.758257, 41.403592], [-81.758158, 41.403701], [-81.75807, 41.403815], [-81.757957, 41.403993], [-81.75787, 41.404179], [-81.757808, 41.40437], [-81.757773, 41.404566], [-81.757764, 41.404697], [-81.757767, 41.404873], [-81.757768, 41.404921], [-81.757768, 41.404947], [-81.757878, 41.404948], [-81.757924, 41.406854], [-81.757926, 41.406943], [-81.757954, 41.40808], [-81.757611, 41.408719], [-81.756415, 41.408708], [-81.755461, 41.410486], [-81.755537, 41.413132], [-81.755552, 41.413657], [-81.755564, 41.414059], [-81.755189, 41.41482], [-81.755198, 41.415681], [-81.755224, 41.417889], [-81.755791, 41.417886], [-81.755795, 41.418415], [-81.755137, 41.418417], [-81.754774, 41.418421], [-81.754611, 41.418421], [-81.7545, 41.418421], [-81.753962, 41.418429], [-81.753549, 41.418433], [-81.752935, 41.418438], [-81.752934, 41.418396], [-81.753072, 41.418382], [-81.753185, 41.418351], [-81.753302, 41.418294], [-81.753385, 41.418229], [-81.753499, 41.418078], [-81.753593, 41.417895]]], [[[-81.826268, 41.35072], [-81.826266, 41.350759], [-81.826265, 41.350788], [-81.826231, 41.351543], [-81.827283, 41.351545], [-81.827268, 41.351955], [-81.827633, 41.351954], [-81.827625, 41.352123], [-81.827589, 41.352915], [-81.82843, 41.352914], [-81.828431, 41.352885], [-81.833295, 41.353137], [-81.83327, 41.354543], [-81.831978, 41.355587], [-81.831155, 41.355583], [-81.831126, 41.356673], [-81.830629, 41.357091], [-81.830151, 41.357523], [-81.829694, 41.357967], [-81.829258, 41.358423], [-81.828616, 41.359156], [-81.828205, 41.359173], [-81.828207, 41.359139], [-81.828213, 41.358952], [-81.828236, 41.358322], [-81.82763, 41.358346], [-81.827642, 41.358563], [-81.827369, 41.358574], [-81.827403, 41.359168], [-81.827405, 41.359204], [-81.827583, 41.359197], [-81.827581, 41.359232], [-81.827514, 41.360427], [-81.827342, 41.360626], [-81.827619, 41.360934], [-81.827849, 41.36067], [-81.828399, 41.360681], [-81.829307, 41.360701], [-81.829132, 41.359219], [-81.829175, 41.359217], [-81.829246, 41.359815], [-81.829333, 41.360545], [-81.829351, 41.360701], [-81.829353, 41.360756], [-81.829226, 41.360754], [-81.829228, 41.361232], [-81.830129, 41.361961], [-81.830058, 41.361992], [-81.82959, 41.362204], [-81.830062, 41.362782], [-81.830452, 41.362735], [-81.830499, 41.36297], [-81.830573, 41.363338], [-81.830465, 41.36335], [-81.830521, 41.36363], [-81.830895, 41.36431], [-81.830991, 41.364755], [-81.831179, 41.364972], [-81.831466, 41.365235], [-81.831888, 41.365769], [-81.831886, 41.365797], [-81.831873, 41.365933], [-81.83183, 41.366405], [-81.831782, 41.366709], [-81.831701, 41.366791], [-81.831452, 41.367042], [-81.831357, 41.367233], [-81.830913, 41.367454], [-81.830704, 41.367666], [-81.830658, 41.368164], [-81.830715, 41.368541], [-81.830632, 41.36854], [-81.830577, 41.37166], [-81.830761, 41.371735], [-81.830839, 41.371912], [-81.830331, 41.371885], [-81.830056, 41.371884], [-81.82914, 41.371848], [-81.828132, 41.37183], [-81.828154, 41.370534], [-81.827073, 41.370524], [-81.82708, 41.370075], [-81.827114, 41.368042], [-81.827122, 41.367549], [-81.826718, 41.367543], [-81.826722, 41.367463], [-81.826748, 41.366904], [-81.826763, 41.366579], [-81.826487, 41.366575], [-81.826327, 41.365973], [-81.826881, 41.365981], [-81.827394, 41.365988], [-81.827431, 41.365179], [-81.827438, 41.365033], [-81.82678, 41.365024], [-81.826424, 41.365019], [-81.826112, 41.365015], [-81.82534, 41.365004], [-81.825215, 41.365002], [-81.825229, 41.364702], [-81.825278, 41.363643], [-81.827404, 41.361184], [-81.827303, 41.361072], [-81.827127, 41.360875], [-81.827135, 41.360866], [-81.826875, 41.36086], [-81.826884, 41.360655], [-81.826664, 41.36065], [-81.826721, 41.359314], [-81.827286, 41.359292], [-81.827289, 41.359249], [-81.827291, 41.359209], [-81.825712, 41.359271], [-81.825713, 41.359248], [-81.825738, 41.358616], [-81.825416, 41.358629], [-81.825436, 41.358234], [-81.824338, 41.358203], [-81.824329, 41.358263], [-81.824296, 41.358469], [-81.824231, 41.358732], [-81.824142, 41.358992], [-81.824038, 41.359221], [-81.82399, 41.359327], [-81.825271, 41.359364], [-81.825269, 41.359389], [-81.823962, 41.359381], [-81.823615, 41.359992], [-81.823213, 41.360584], [-81.822804, 41.361097], [-81.822585, 41.361347], [-81.822114, 41.361829], [-81.821865, 41.362055], [-81.821605, 41.362289], [-81.82137, 41.362471], [-81.821321, 41.362294], [-81.821281, 41.362148], [-81.821235, 41.361979], [-81.821422, 41.361863], [-81.821548, 41.361764], [-81.82204, 41.361282], [-81.822456, 41.360814], [-81.822844, 41.360314], [-81.823199, 41.359781], [-81.82336, 41.359508], [-81.82351, 41.359223], [-81.823566, 41.359116], [-81.82367, 41.35888], [-81.823752, 41.358638], [-81.823832, 41.358269], [-81.823857, 41.358021], [-81.823859, 41.357771], [-81.823741, 41.356763], [-81.823731, 41.356589], [-81.823734, 41.356267], [-81.823792, 41.355786], [-81.823868, 41.355469], [-81.82405, 41.354807], [-81.82409, 41.35462], [-81.824143, 41.354244], [-81.824162, 41.353865], [-81.824148, 41.353517], [-81.824146, 41.353487], [-81.824047, 41.35272], [-81.824031, 41.3526], [-81.823987, 41.352262], [-81.82398, 41.352205], [-81.823956, 41.351848], [-81.823968, 41.351609], [-81.824001, 41.351371], [-81.824056, 41.351136], [-81.824136, 41.350876], [-81.824103, 41.350822], [-81.824068, 41.350805], [-81.824028, 41.350799], [-81.824028, 41.35074], [-81.824028, 41.350717], [-81.823189, 41.350716], [-81.823189, 41.350634], [-81.823136, 41.35062], [-81.823102, 41.350584], [-81.823101, 41.350471], [-81.823132, 41.350189], [-81.823174, 41.350003], [-81.823225, 41.34985], [-81.823283, 41.349753], [-81.823381, 41.349648], [-81.823483, 41.349575], [-81.82368, 41.349477], [-81.823802, 41.3494], [-81.823905, 41.349309], [-81.823985, 41.349207], [-81.824042, 41.349095], [-81.824074, 41.348954], [-81.824072, 41.348835], [-81.824031, 41.348636], [-81.824057, 41.348599], [-81.824106, 41.348596], [-81.824939, 41.348849], [-81.825308, 41.348973], [-81.825389, 41.349], [-81.825559, 41.348845], [-81.825637, 41.348773], [-81.825923, 41.348573], [-81.826241, 41.348403], [-81.826411, 41.348331], [-81.826677, 41.348239], [-81.827248, 41.34795], [-81.82778, 41.347623], [-81.828111, 41.347384], [-81.828356, 41.347462], [-81.828588, 41.347287], [-81.828739, 41.347141], [-81.828908, 41.346929], [-81.829037, 41.346701], [-81.829122, 41.346463], [-81.829163, 41.346218], [-81.829208, 41.345621], [-81.829251, 41.34504], [-81.829298, 41.344408], [-81.829324, 41.344052], [-81.829348, 41.343854], [-81.829418, 41.343559], [-81.82951, 41.343295], [-81.829531, 41.343237], [-81.829556, 41.34324], [-81.829687, 41.342892], [-81.829797, 41.342682], [-81.829884, 41.342547], [-81.830512, 41.342701], [-81.831151, 41.342826], [-81.831095, 41.342914], [-81.831042, 41.343344], [-81.830507, 41.34335], [-81.830074, 41.3433], [-81.829996, 41.343517], [-81.830032, 41.343466], [-81.830088, 41.343434], [-81.830157, 41.343422], [-81.830247, 41.343431], [-81.830241, 41.343503], [-81.830214, 41.34386], [-81.830213, 41.34387], [-81.829899, 41.343857], [-81.829869, 41.344076], [-81.829829, 41.344617], [-81.829709, 41.346241], [-81.829691, 41.346387], [-81.829641, 41.346604], [-81.829591, 41.346747], [-81.829494, 41.346955], [-81.829321, 41.347218], [-81.829103, 41.347462], [-81.828844, 41.347682], [-81.829089, 41.347834], [-81.82938, 41.348064], [-81.829702, 41.348359], [-81.829723, 41.348409], [-81.829711, 41.348461], [-81.829683, 41.348493], [-81.829646, 41.348513], [-81.8292, 41.348666], [-81.828746, 41.348794], [-81.828516, 41.348849], [-81.828371, 41.348874], [-81.828183, 41.348879], [-81.828111, 41.348881], [-81.827856, 41.348842], [-81.827653, 41.348773], [-81.827446, 41.348655], [-81.82737, 41.348715], [-81.82718, 41.348917], [-81.82714, 41.348971], [-81.827019, 41.349131], [-81.826886, 41.349357], [-81.826784, 41.349592], [-81.826729, 41.349839], [-81.826676, 41.350079], [-81.826675, 41.350152], [-81.82667, 41.350672], [-81.82667, 41.350686], [-81.826669, 41.350719], [-81.826268, 41.35072]], [[-81.824472, 41.351552], [-81.825762, 41.351539], [-81.825802, 41.350719], [-81.824828, 41.350718], [-81.824827, 41.3508], [-81.824771, 41.350807], [-81.82472, 41.350827], [-81.82468, 41.350857], [-81.824654, 41.350895], [-81.824543, 41.351206], [-81.824472, 41.351552]], [[-81.825673, 41.352201], [-81.824478, 41.352207], [-81.824534, 41.352632], [-81.824726, 41.352633], [-81.824947, 41.352633], [-81.825709, 41.352636], [-81.825673, 41.352201]]], [[[-81.752146, 41.409821], [-81.75214, 41.409782], [-81.752193, 41.409787], [-81.752213, 41.409873], [-81.752263, 41.410087], [-81.752366, 41.410525], [-81.752306, 41.410519], [-81.752219, 41.41015], [-81.752157, 41.409883], [-81.752151, 41.40985], [-81.752146, 41.409821]]], [[[-81.83179, 41.342001], [-81.831497, 41.341956], [-81.83063, 41.341781], [-81.82999, 41.341599], [-81.830889, 41.340515], [-81.83369, 41.340455], [-81.833585, 41.342139], [-81.832811, 41.341416], [-81.832618, 41.341431], [-81.832081, 41.341747], [-81.83179, 41.342001]]], [[[-81.839716, 41.357351], [-81.840112, 41.356102], [-81.839987, 41.356102], [-81.839683, 41.357053], [-81.836424, 41.357008], [-81.834374, 41.356968], [-81.833228, 41.356946], [-81.833241, 41.356193], [-81.833257, 41.355288], [-81.834815, 41.354028], [-81.83729, 41.354156], [-81.840186, 41.353827], [-81.840276, 41.353816], [-81.842727, 41.355005], [-81.842683, 41.355056], [-81.843737, 41.355565], [-81.843667, 41.357138], [-81.843059, 41.357127], [-81.842854, 41.357], [-81.842645, 41.356785], [-81.84236, 41.357093], [-81.8422, 41.357054], [-81.842069, 41.357185], [-81.841848, 41.357213], [-81.841448, 41.357138], [-81.841329, 41.357219], [-81.841282, 41.357326], [-81.841103, 41.357411], [-81.840781, 41.357469], [-81.840536, 41.357471], [-81.840217, 41.357542], [-81.840058, 41.357534], [-81.839899, 41.357392], [-81.839716, 41.357351]]], [[[-81.818909, 41.362468], [-81.818888, 41.362304], [-81.820322, 41.362232], [-81.820328, 41.362389], [-81.820598, 41.362347], [-81.820731, 41.362831], [-81.82024, 41.363013], [-81.819718, 41.363137], [-81.819003, 41.363242], [-81.818986, 41.363105], [-81.818338, 41.363242], [-81.817718, 41.363439], [-81.8169, 41.363803], [-81.816815, 41.363782], [-81.816358, 41.363367], [-81.81673, 41.363126], [-81.817462, 41.362759], [-81.817831, 41.362637], [-81.818007, 41.36259], [-81.818132, 41.362574], [-81.818292, 41.362547], [-81.818909, 41.362468]]], [[[-81.816151, 41.363491], [-81.816189, 41.363496], [-81.816222, 41.363513], [-81.816535, 41.363778], [-81.816642, 41.363887], [-81.816653, 41.363921], [-81.816643, 41.363956], [-81.816619, 41.363983], [-81.816227, 41.364261], [-81.815878, 41.364563], [-81.81557, 41.364888], [-81.815134, 41.365443], [-81.814957, 41.365618], [-81.814826, 41.365727], [-81.814687, 41.36583], [-81.814462, 41.36597], [-81.813742, 41.366349], [-81.813684, 41.366367], [-81.813617, 41.366365], [-81.813557, 41.366341], [-81.813081, 41.366008], [-81.813059, 41.365968], [-81.813079, 41.365931], [-81.815817, 41.363715], [-81.816091, 41.363509], [-81.816151, 41.363491]]], [[[-81.80767, 41.37057], [-81.807933, 41.370338], [-81.810474, 41.368298], [-81.811205, 41.367625], [-81.811656, 41.367055], [-81.811824, 41.367166], [-81.812335, 41.366574], [-81.812925, 41.366096], [-81.813437, 41.366445], [-81.813441, 41.366509], [-81.812678, 41.367082], [-81.812152, 41.367384], [-81.812292, 41.367478], [-81.811578, 41.367911], [-81.810435, 41.368896], [-81.809694, 41.369469], [-81.809749, 41.369505], [-81.810017, 41.369681], [-81.809062, 41.370529], [-81.809039, 41.370514], [-81.808784, 41.370351], [-81.808175, 41.370893], [-81.80767, 41.37057]]], [[[-81.833916, 41.376196], [-81.833785, 41.376192], [-81.833626, 41.376188], [-81.833644, 41.375691], [-81.833656, 41.375336], [-81.833176, 41.375192], [-81.833078, 41.375163], [-81.832641, 41.37515], [-81.832506, 41.375146], [-81.832393, 41.375223], [-81.831803, 41.375206], [-81.831806, 41.37511], [-81.832407, 41.375127], [-81.83241, 41.375026], [-81.832637, 41.375033], [-81.833991, 41.375072], [-81.836792, 41.375154], [-81.837534, 41.375176], [-81.837854, 41.375026], [-81.837911, 41.374211], [-81.837818, 41.374185], [-81.83788, 41.37263], [-81.838072, 41.37261], [-81.838276, 41.372655], [-81.838398, 41.372997], [-81.838289, 41.373664], [-81.838566, 41.373661], [-81.838565, 41.374128], [-81.838202, 41.374195], [-81.838218, 41.375087], [-81.838432, 41.375059], [-81.838417, 41.374587], [-81.838863, 41.374581], [-81.838912, 41.374049], [-81.838937, 41.373145], [-81.839416, 41.373078], [-81.839481, 41.373183], [-81.839359, 41.373284], [-81.839295, 41.374395], [-81.840536, 41.37438], [-81.840474, 41.37528], [-81.840701, 41.375276], [-81.840653, 41.37556], [-81.840028, 41.375572], [-81.839997, 41.376157], [-81.840112, 41.376425], [-81.840622, 41.376395], [-81.840589, 41.377001], [-81.840543, 41.377863], [-81.839788, 41.377829], [-81.839452, 41.377813], [-81.839984, 41.378829], [-81.83996, 41.379283], [-81.840415, 41.379302], [-81.840387, 41.379837], [-81.840933, 41.37986], [-81.840915, 41.380202], [-81.843116, 41.380293], [-81.843134, 41.37995], [-81.843225, 41.379953], [-81.8432, 41.380462], [-81.84319, 41.380626], [-81.843299, 41.38063], [-81.843282, 41.380958], [-81.843173, 41.380953], [-81.843184, 41.380732], [-81.843166, 41.380731], [-81.843162, 41.380805], [-81.843137, 41.381279], [-81.842478, 41.381251], [-81.841569, 41.381213], [-81.841139, 41.381195], [-81.840499, 41.381168], [-81.840448, 41.382137], [-81.838576, 41.382085], [-81.838218, 41.382257], [-81.838187, 41.382608], [-81.83829, 41.382935], [-81.838133, 41.383094], [-81.838093, 41.383231], [-81.838021, 41.383615], [-81.838008, 41.384078], [-81.837507, 41.384275], [-81.837369, 41.384388], [-81.837145, 41.384559], [-81.837073, 41.384786], [-81.837406, 41.385084], [-81.837402, 41.385084], [-81.837278, 41.385291], [-81.836539, 41.386522], [-81.836542, 41.387287], [-81.836185, 41.387276], [-81.836105, 41.387273], [-81.836195, 41.38629], [-81.836208, 41.38616], [-81.83634, 41.385774], [-81.836469, 41.385399], [-81.836587, 41.385056], [-81.834971, 41.385006], [-81.835012, 41.383459], [-81.835033, 41.382655], [-81.834305, 41.382644], [-81.834386, 41.379591], [-81.833689, 41.379562], [-81.833781, 41.378187], [-81.833835, 41.377392], [-81.833852, 41.377142], [-81.833916, 41.376196]]], [[[-81.753119, 41.446075], [-81.753139, 41.445097], [-81.753294, 41.444554], [-81.753543, 41.444241], [-81.753958, 41.443881], [-81.754554, 41.443479], [-81.75465, 41.443337], [-81.754734, 41.443056], [-81.75478, 41.442754], [-81.754607, 41.442362], [-81.754471, 41.442102], [-81.754347, 41.441969], [-81.753596, 41.441456], [-81.752525, 41.441069], [-81.752056, 41.440671], [-81.75172, 41.440273], [-81.751721, 41.440187], [-81.751722, 41.440111], [-81.752776, 41.440121], [-81.753831, 41.440131], [-81.753994, 41.440132], [-81.754378, 41.440136], [-81.754411, 41.440136], [-81.754824, 41.44014], [-81.754986, 41.440142], [-81.755404, 41.440147], [-81.755474, 41.440148], [-81.755621, 41.440149], [-81.755798, 41.440151], [-81.75579, 41.440171], [-81.755782, 41.440192], [-81.755775, 41.440213], [-81.755769, 41.440233], [-81.756144, 41.440238], [-81.75614, 41.440247], [-81.756137, 41.440255], [-81.756134, 41.440264], [-81.756131, 41.440273], [-81.755761, 41.440269], [-81.755758, 41.44029], [-81.755756, 41.440311], [-81.755755, 41.440332], [-81.755754, 41.440353], [-81.755755, 41.440374], [-81.755757, 41.440395], [-81.755759, 41.440416], [-81.755763, 41.440436], [-81.755768, 41.440457], [-81.755773, 41.440478], [-81.75578, 41.440498], [-81.755787, 41.440519], [-81.755795, 41.440539], [-81.755804, 41.440559], [-81.755815, 41.440578], [-81.755826, 41.440597], [-81.755838, 41.440616], [-81.75585, 41.440635], [-81.755864, 41.440654], [-81.755879, 41.440671], [-81.755894, 41.440689], [-81.756449, 41.441302], [-81.757744, 41.441339], [-81.757113, 41.442205], [-81.756866, 41.442507], [-81.756662, 41.442864], [-81.75647, 41.443225], [-81.756289, 41.443589], [-81.755139, 41.446002], [-81.755136, 41.446007], [-81.755135, 41.446009], [-81.754321, 41.44585], [-81.753987, 41.445651], [-81.753807, 41.445292], [-81.753534, 41.445369], [-81.754005, 41.446466], [-81.753932, 41.446945], [-81.753913, 41.446961], [-81.75385, 41.446937], [-81.753624, 41.446734], [-81.753454, 41.446466], [-81.753272, 41.446325], [-81.753119, 41.446075]]]]}}]}
