{"type": "FeatureCollection", "licence": "Data \u00a9 OpenStreetMap contributors, ODbL 1.0. http://osm.org/copyright", "features": [{"type": "Feature", "properties": {"name": "Bradley Woods Reservation", "boundary_type": "park", "boundary_color": "#228B22", "osm_id": "relation/11230155", "operator": "Cleveland Metroparks"}, "geometry": {"type": "MultiPolygon", "coordinates": [[[[-81.950535, 41.409572], [-81.950557, 41.409185], [-81.950571, 41.409167], [-81.950595, 41.409162], [-81.950622, 41.409173], [-81.951022, 41.409587], [-81.950535, 41.409572]]], [[[-81.962978, 41.406098], [-81.963015, 41.406098], [-81.966023, 41.406105], [-81.966511, 41.406106], [-81.966528, 41.405145], [-81.967023, 41.405146], [-81.967011, 41.405832], [-81.96793, 41.405833], [-81.968165, 41.405833], [-81.968117, 41.408576], [-81.969554, 41.408578], [-81.970242, 41.408579], [-81.97025, 41.407966], [-81.973859, 41.409975], [-81.973328, 41.410516], [-81.97286, 41.410991], [-81.971921, 41.410468], [-81.971863, 41.413782], [-81.970164, 41.414623], [-81.97014, 41.4159], [-81.97008, 41.41591], [-81.970004, 41.415891], [-81.969967, 41.415867], [-81.969838, 41.415784], [-81.969756, 41.415763], [-81.969404, 41.41578], [-81.969178, 41.415858], [-81.968849, 41.416127], [-81.968546, 41.416375], [-81.968402, 41.41629], [-81.968401, 41.41629], [-81.967384, 41.41712], [-81.967404, 41.417406], [-81.966853, 41.417712], [-81.964977, 41.418752], [-81.964756, 41.418874], [-81.964756, 41.418869], [-81.96484, 41.415702], [-81.962229, 41.415639], [-81.962269, 41.414705], [-81.962383, 41.412056], [-81.962943, 41.408573], [-81.962943, 41.408568], [-81.965992, 41.408572], [-81.966002, 41.407477], [-81.962958, 41.407468], [-81.962978, 41.406098]]], [[[-81.943248, 41.419306], [-81.942726, 41.418811], [-81.943267, 41.418819], [-81.943252, 41.419309], [-81.943248, 41.419306]]], [[[-81.969084, 41.43588], [-81.969794, 41.43588], [-81.969714, 41.441459], [-81.969713, 41.441513], [-81.969068, 41.441509], [-81.969003, 41.441508], [-81.969003, 41.441504], [-81.969007, 41.441242], [-81.969019, 41.440382], [-81.96905, 41.438225], [-81.969059, 41.437596], [-81.969075, 41.436512], [-81.969084, 41.43588]]], [[[-81.949585, 41.411083], [-81.949593, 41.410946], [-81.950382, 41.41097], [-81.950414, 41.410366], [-81.951125, 41.410388], [-81.951133, 41.410235], [-81.951047, 41.410232], [-81.950423, 41.410212], [-81.950426, 41.410136], [-81.949633, 41.410112], [-81.94964, 41.409975], [-81.950434, 41.409999], [-81.950449, 41.409707], [-81.951258, 41.409732], [-81.951231, 41.409704], [-81.951794, 41.409395], [-81.951427, 41.409016], [-81.950864, 41.409324], [-81.950742, 41.409198], [-81.951305, 41.408889], [-81.950448, 41.408004], [-81.949885, 41.408313], [-81.949763, 41.408186], [-81.950326, 41.407878], [-81.949997, 41.407538], [-81.950445, 41.407311], [-81.948796, 41.40547], [-81.948176, 41.404777], [-81.948738, 41.404422], [-81.949449, 41.405216], [-81.949809, 41.405033], [-81.950416, 41.405712], [-81.950751, 41.4055], [-81.951362, 41.406183], [-81.951538, 41.406072], [-81.950548, 41.404912], [-81.950727, 41.404799], [-81.951395, 41.40562], [-81.951909, 41.405296], [-81.951665, 41.404947], [-81.951382, 41.404543], [-81.953711, 41.40307], [-81.956441, 41.401345], [-81.959997, 41.404214], [-81.959954, 41.406135], [-81.962757, 41.40614], [-81.962724, 41.408562], [-81.962165, 41.412043], [-81.96201, 41.415633], [-81.959722, 41.415578], [-81.959711, 41.415577], [-81.95961, 41.41889], [-81.959525, 41.421692], [-81.959511, 41.422174], [-81.95944, 41.422187], [-81.959358, 41.422267], [-81.959357, 41.42258], [-81.959332, 41.422587], [-81.95912, 41.422652], [-81.957633, 41.423102], [-81.957594, 41.424044], [-81.95752, 41.424064], [-81.957559, 41.423121], [-81.95682, 41.423318], [-81.956845, 41.422702], [-81.955809, 41.422682], [-81.954924, 41.422664], [-81.954563, 41.422657], [-81.953956, 41.422645], [-81.953096, 41.422629], [-81.95308, 41.423111], [-81.952185, 41.423103], [-81.95219, 41.422833], [-81.95208, 41.422832], [-81.952076, 41.423102], [-81.94721, 41.423058], [-81.945816, 41.421738], [-81.943588, 41.419628], [-81.943613, 41.418825], [-81.944902, 41.418845], [-81.944908, 41.41879], [-81.943615, 41.41877], [-81.943618, 41.418689], [-81.943551, 41.418687], [-81.943605, 41.417355], [-81.943628, 41.417121], [-81.943612, 41.41712], [-81.943637, 41.416336], [-81.94364, 41.416213], [-81.94372, 41.416217], [-81.94375, 41.415916], [-81.94365, 41.415911], [-81.943672, 41.415206], [-81.943728, 41.413423], [-81.943737, 41.413109], [-81.94374, 41.412871], [-81.943739, 41.412838], [-81.943733, 41.412633], [-81.943717, 41.412395], [-81.943708, 41.412313], [-81.943692, 41.412158], [-81.943706, 41.412157], [-81.943703, 41.412129], [-81.94413, 41.412154], [-81.944129, 41.412159], [-81.945577, 41.412165], [-81.945536, 41.412564], [-81.946322, 41.412609], [-81.946287, 41.413265], [-81.945466, 41.413262], [-81.945455, 41.413372], [-81.946166, 41.413374], [-81.946105, 41.413972], [-81.946837, 41.413976], [-81.949427, 41.41399], [-81.949424, 41.414031], [-81.950219, 41.414035], [-81.950221, 41.413994], [-81.950752, 41.413998], [-81.951133, 41.414002], [-81.951138, 41.413337], [-81.951053, 41.413337], [-81.951054, 41.413282], [-81.951069, 41.412998], [-81.950761, 41.412988], [-81.950275, 41.412974], [-81.950317, 41.412193], [-81.949523, 41.412169], [-81.949531, 41.412032], [-81.950324, 41.412056], [-81.950375, 41.411108], [-81.949585, 41.411083]], [[-81.944714, 41.413536], [-81.943995, 41.413495], [-81.943964, 41.413796], [-81.944684, 41.413837], [-81.944714, 41.413536]], [[-81.951917, 41.409521], [-81.951354, 41.40983], [-81.951383, 41.40986], [-81.950967, 41.409847], [-81.950956, 41.410055], [-81.951056, 41.410058], [-81.95159, 41.410074], [-81.951476, 41.409957], [-81.952039, 41.409648], [-81.951917, 41.409521]]], [[[-81.945148, 41.412108], [-81.945153, 41.411387], [-81.946269, 41.411393], [-81.94623, 41.412112], [-81.94623, 41.412112], [-81.945148, 41.412108]]], [[[-81.94368, 41.411976], [-81.943567, 41.411379], [-81.944208, 41.411382], [-81.944146, 41.411999], [-81.944145, 41.412003], [-81.94368, 41.411976]]]]}}]}
