{"type": "FeatureCollection", "licence": "Data \u00a9 OpenStreetMap contributors, ODbL 1.0. http://osm.org/copyright", "features": [{"type": "Feature", "properties": {"name": "Brecksville Reservation", "boundary_type": "park", "boundary_color": "#006400", "osm_id": "relation/7081545", "operator": "Cleveland Metroparks"}, "geometry": {"type": "MultiPolygon", "coordinates": [[[[-81.569021, 41.289923], [-81.568866, 41.289884], [-81.568628, 41.289842], [-81.568467, 41.289824], [-81.568223, 41.289813], [-81.567979, 41.289822], [-81.566977, 41.28992], [-81.566687, 41.289919], [-81.56647, 41.289899], [-81.566179, 41.289842], [-81.566064, 41.289806], [-81.565921, 41.289744], [-81.565791, 41.289667], [-81.565703, 41.2896], [-81.565601, 41.289502], [-81.565538, 41.289422], [-81.565319, 41.289067], [-81.565295, 41.288979], [-81.565274, 41.288793], [-81.565271, 41.28876], [-81.565238, 41.288665], [-81.565188, 41.288573], [-81.565438, 41.288573], [-81.565392, 41.288312], [-81.56539, 41.287998], [-81.565429, 41.287889], [-81.565487, 41.287801], [-81.565542, 41.287578], [-81.565567, 41.287352], [-81.565567, 41.287153], [-81.565531, 41.286816], [-81.566586, 41.286819], [-81.566566, 41.286906], [-81.56658, 41.286953], [-81.566708, 41.286996], [-81.56697, 41.287033], [-81.567143, 41.287088], [-81.567397, 41.287256], [-81.567479, 41.28728], [-81.567539, 41.28727], [-81.567633, 41.287171], [-81.567737, 41.286934], [-81.56778, 41.286819], [-81.56792, 41.286272], [-81.567905, 41.285655], [-81.567591, 41.28504], [-81.567156, 41.284635], [-81.566494, 41.28424], [-81.566298, 41.284155], [-81.56612, 41.284118], [-81.565975, 41.284109], [-81.565464, 41.284114], [-81.565264, 41.284101], [-81.565105, 41.284079], [-81.564962, 41.284047], [-81.564852, 41.28401], [-81.564753, 41.28396], [-81.564679, 41.283904], [-81.564624, 41.28384], [-81.564593, 41.283771], [-81.564587, 41.283699], [-81.564608, 41.283609], [-81.564702, 41.283433], [-81.56502, 41.28296], [-81.565076, 41.282846], [-81.565105, 41.282747], [-81.565114, 41.282627], [-81.565095, 41.28247], [-81.56506, 41.282341], [-81.565001, 41.282221], [-81.564898, 41.282098], [-81.564762, 41.282016], [-81.564611, 41.281962], [-81.56426, 41.281871], [-81.564092, 41.281818], [-81.563881, 41.281735], [-81.563684, 41.281639], [-81.563499, 41.281531], [-81.562832, 41.28108], [-81.562699, 41.280973], [-81.562618, 41.28086], [-81.562569, 41.280722], [-81.56255, 41.280524], [-81.562557, 41.280374], [-81.562587, 41.280212], [-81.562636, 41.280086], [-81.562722, 41.279947], [-81.562994, 41.279593], [-81.563138, 41.279432], [-81.563306, 41.279298], [-81.563467, 41.279222], [-81.563576, 41.279195], [-81.563702, 41.279182], [-81.563832, 41.279184], [-81.56398, 41.279205], [-81.564087, 41.279232], [-81.564615, 41.279455], [-81.564777, 41.279494], [-81.56495, 41.279517], [-81.565313, 41.279539], [-81.565505, 41.279534], [-81.565653, 41.279502], [-81.565767, 41.279437], [-81.565823, 41.279382], [-81.565875, 41.279309], [-81.565947, 41.279133], [-81.565974, 41.27894], [-81.565961, 41.278711], [-81.565919, 41.27855], [-81.565857, 41.278423], [-81.565754, 41.278278], [-81.565562, 41.27804], [-81.565768, 41.278038], [-81.566367, 41.278031], [-81.568785, 41.278002], [-81.56893, 41.278], [-81.568985, 41.278126], [-81.569364, 41.278984], [-81.570561, 41.282058], [-81.57138, 41.284626], [-81.571676, 41.285578], [-81.572063, 41.28682], [-81.571318, 41.28682], [-81.571806, 41.288576], [-81.571276, 41.288576], [-81.569986, 41.288575], [-81.57001, 41.288618], [-81.570758, 41.289918], [-81.572179, 41.289919], [-81.572208, 41.290025], [-81.572479, 41.291002], [-81.571892, 41.290504], [-81.570435, 41.290457], [-81.570235, 41.290371], [-81.569755, 41.290222], [-81.569317, 41.290024], [-81.569021, 41.289923]]], [[[-81.61429, 41.289341], [-81.612468, 41.289334], [-81.612487, 41.286169], [-81.615263, 41.286184], [-81.614635, 41.288223], [-81.61865, 41.289353], [-81.618545, 41.294131], [-81.619731, 41.296387], [-81.619943, 41.29679], [-81.619943, 41.296844], [-81.614143, 41.296858], [-81.61428, 41.289883], [-81.614283, 41.289712], [-81.61429, 41.289341]]], [[[-81.701914, 41.300576], [-81.701011, 41.300575], [-81.700539, 41.300398], [-81.700556, 41.297637], [-81.701008, 41.297639], [-81.701007, 41.297645], [-81.701007, 41.297651], [-81.701007, 41.297657], [-81.701007, 41.297663], [-81.701008, 41.297669], [-81.701009, 41.297675], [-81.70101, 41.297681], [-81.701011, 41.297687], [-81.701013, 41.297693], [-81.701015, 41.297699], [-81.701017, 41.297705], [-81.701019, 41.297711], [-81.701022, 41.297716], [-81.701025, 41.297722], [-81.701028, 41.297728], [-81.701032, 41.297733], [-81.701035, 41.297738], [-81.701039, 41.297744], [-81.701043, 41.297749], [-81.701048, 41.297754], [-81.701053, 41.297759], [-81.701057, 41.297764], [-81.701063, 41.297768], [-81.701068, 41.297773], [-81.701073, 41.297778], [-81.701079, 41.297782], [-81.701085, 41.297786], [-81.701091, 41.29779], [-81.701097, 41.297794], [-81.701104, 41.297798], [-81.70111, 41.297801], [-81.701038, 41.29788], [-81.701036, 41.298265], [-81.7014, 41.298266], [-81.701401, 41.298137], [-81.701765, 41.298138], [-81.701768, 41.297644], [-81.701932, 41.297644], [-81.701914, 41.300576]]], [[[-81.572693, 41.292649], [-81.572913, 41.292514], [-81.572928, 41.292568], [-81.573705, 41.295296], [-81.573539, 41.295295], [-81.573198, 41.295294], [-81.571811, 41.29529], [-81.571898, 41.295159], [-81.571975, 41.294988], [-81.571984, 41.294743], [-81.571976, 41.294328], [-81.571927, 41.29422], [-81.571794, 41.293929], [-81.5716, 41.293769], [-81.571437, 41.293635], [-81.572272, 41.29297], [-81.572693, 41.292649]]], [[[-81.742371, 41.308432], [-81.744345, 41.307947], [-81.744977, 41.30832], [-81.747282, 41.308939], [-81.745967, 41.308993], [-81.744812, 41.309024], [-81.744813, 41.309498], [-81.744814, 41.309791], [-81.744815, 41.310024], [-81.744815, 41.310258], [-81.744816, 41.310491], [-81.744817, 41.310724], [-81.744817, 41.310961], [-81.744818, 41.311199], [-81.744819, 41.311487], [-81.74482, 41.31199], [-81.744456, 41.312043], [-81.744092, 41.312096], [-81.744094, 41.312584], [-81.744094, 41.312658], [-81.744094, 41.312667], [-81.744086, 41.312667], [-81.743865, 41.312664], [-81.743865, 41.31265], [-81.743864, 41.312582], [-81.743863, 41.31195], [-81.7435, 41.312044], [-81.743501, 41.312628], [-81.743501, 41.31272], [-81.74332, 41.312789], [-81.743301, 41.312705], [-81.743186, 41.312213], [-81.742936, 41.312267], [-81.742699, 41.312319], [-81.742692, 41.31232], [-81.742606, 41.311776], [-81.741842, 41.311493], [-81.742237, 41.31096], [-81.742658, 41.310578], [-81.742428, 41.310144], [-81.74278, 41.309472], [-81.742789, 41.309247], [-81.742799, 41.309017], [-81.742371, 41.308432]]], [[[-81.589182, 41.343562], [-81.588038, 41.342066], [-81.58862, 41.339579], [-81.588515, 41.339579], [-81.588402, 41.339352], [-81.588366, 41.338745], [-81.588127, 41.338364], [-81.588115, 41.337654], [-81.588112, 41.337495], [-81.588107, 41.337209], [-81.58814, 41.337015], [-81.588261, 41.336787], [-81.588233, 41.336964], [-81.5882, 41.337319], [-81.588199, 41.337676], [-81.58823, 41.338031], [-81.588257, 41.338208], [-81.588292, 41.338384], [-81.588385, 41.338733], [-81.588443, 41.338906], [-81.588582, 41.339246], [-81.588752, 41.339579], [-81.588851, 41.339747], [-81.589072, 41.340077], [-81.589323, 41.340394], [-81.589459, 41.340547], [-81.589753, 41.340843], [-81.590072, 41.341122], [-81.590242, 41.341256], [-81.590579, 41.341496], [-81.591123, 41.341824], [-81.591708, 41.34211], [-81.59241, 41.342386], [-81.592463, 41.342467], [-81.593619, 41.342903], [-81.593982, 41.343061], [-81.593814, 41.34308], [-81.593708, 41.34313], [-81.593607, 41.343222], [-81.593425, 41.343451], [-81.593385, 41.343485], [-81.593345, 41.343501], [-81.593295, 41.343491], [-81.593239, 41.343451], [-81.592987, 41.343149], [-81.592833, 41.343028], [-81.592957, 41.343216], [-81.592673, 41.343475], [-81.592277, 41.343552], [-81.589395, 41.343645], [-81.589182, 41.343562]]], [[[-81.58848, 41.32605], [-81.589102, 41.32581], [-81.589314, 41.326033], [-81.589455, 41.326226], [-81.589588, 41.326482], [-81.58964, 41.326685], [-81.58969, 41.326958], [-81.589715, 41.327232], [-81.589742, 41.327505], [-81.589762, 41.327779], [-81.589704, 41.327799], [-81.589105, 41.328], [-81.588827, 41.326628], [-81.58848, 41.32605]]], [[[-81.588886, 41.330375], [-81.589169, 41.329537], [-81.589925, 41.329697], [-81.589918, 41.329924], [-81.589893, 41.330198], [-81.589831, 41.330469], [-81.589773, 41.330692], [-81.589655, 41.330951], [-81.589526, 41.331208], [-81.589394, 41.331464], [-81.589256, 41.331718], [-81.589191, 41.331849], [-81.588992, 41.332228], [-81.588848, 41.33248], [-81.588722, 41.332738], [-81.588582, 41.332991], [-81.588444, 41.333245], [-81.58841, 41.333311], [-81.588313, 41.333501], [-81.588235, 41.333507], [-81.587873, 41.333535], [-81.587953, 41.333248], [-81.587969, 41.333192], [-81.588131, 41.332614], [-81.588534, 41.331487], [-81.588818, 41.330819], [-81.588886, 41.330375]]], [[[-81.587747, 41.319354], [-81.587799, 41.319344], [-81.587684, 41.320788], [-81.587679, 41.320861], [-81.587662, 41.321065], [-81.587657, 41.321147], [-81.587649, 41.321355], [-81.587651, 41.32154], [-81.587661, 41.321726], [-81.58768, 41.321911], [-81.587707, 41.322095], [-81.587743, 41.322279], [-81.587787, 41.322461], [-81.587839, 41.322643], [-81.587899, 41.322823], [-81.587968, 41.323001], [-81.588044, 41.323177], [-81.588124, 41.323343], [-81.588211, 41.323506], [-81.588305, 41.323667], [-81.588406, 41.323826], [-81.588514, 41.323982], [-81.588628, 41.324136], [-81.58873, 41.324262], [-81.58875, 41.324287], [-81.58944, 41.324906], [-81.588158, 41.324285], [-81.587961, 41.324162], [-81.587364, 41.32357], [-81.587097, 41.323172], [-81.586962, 41.322592], [-81.587323, 41.321309], [-81.587352, 41.321207], [-81.587585, 41.32094], [-81.587659, 41.320788], [-81.587682, 41.320332], [-81.587701, 41.320003], [-81.587744, 41.31955], [-81.587761, 41.319383], [-81.587747, 41.319354]]], [[[-81.589756, 41.325529], [-81.589843, 41.325529], [-81.590002, 41.325529], [-81.590026, 41.325542], [-81.590417, 41.325909], [-81.590555, 41.326043], [-81.590687, 41.32618], [-81.590812, 41.326321], [-81.590932, 41.326465], [-81.591045, 41.326611], [-81.591151, 41.32676], [-81.591251, 41.326912], [-81.591344, 41.327067], [-81.59143, 41.327223], [-81.591509, 41.327382], [-81.591484, 41.327382], [-81.591386, 41.327224], [-81.591196, 41.326927], [-81.59101, 41.32666], [-81.590811, 41.326403], [-81.590607, 41.326159], [-81.590493, 41.326028], [-81.5904, 41.32592], [-81.590295, 41.325858], [-81.590104, 41.325743], [-81.589943, 41.325645], [-81.589828, 41.325574], [-81.589756, 41.325529]]], [[[-81.587246, 41.31937], [-81.587256, 41.319367], [-81.587266, 41.319393], [-81.587315, 41.319441], [-81.5874, 41.319826], [-81.587198, 41.320456], [-81.587069, 41.320569], [-81.586789, 41.320706], [-81.58667, 41.320987], [-81.586648, 41.321101], [-81.586972, 41.321147], [-81.586944, 41.321247], [-81.586843, 41.321528], [-81.586794, 41.32178], [-81.586705, 41.322065], [-81.586667, 41.322345], [-81.586624, 41.322554], [-81.586726, 41.323115], [-81.586473, 41.322896], [-81.586381, 41.322628], [-81.586342, 41.322375], [-81.586214, 41.322111], [-81.586184, 41.321837], [-81.586153, 41.321566], [-81.586115, 41.321018], [-81.586066, 41.320564], [-81.586058, 41.320467], [-81.58606, 41.320191], [-81.585986, 41.319928], [-81.586107, 41.319919], [-81.586712, 41.319638], [-81.587246, 41.31937]]], [[[-81.584816, 41.320559], [-81.585045, 41.320069], [-81.585234, 41.32012], [-81.585676, 41.320027], [-81.585709, 41.320211], [-81.585712, 41.320486], [-81.585756, 41.320758], [-81.58519, 41.321065], [-81.585206, 41.321339], [-81.585383, 41.321605], [-81.585885, 41.322137], [-81.585903, 41.322412], [-81.585954, 41.322754], [-81.586171, 41.322984], [-81.585532, 41.323417], [-81.585424, 41.323211], [-81.585195, 41.322982], [-81.585126, 41.322707], [-81.584731, 41.321995], [-81.584564, 41.321496], [-81.584515, 41.321349], [-81.584594, 41.321033], [-81.584692, 41.320823], [-81.584816, 41.320559]]], [[[-81.583464, 41.313832], [-81.583586, 41.313664], [-81.583686, 41.313516], [-81.583799, 41.313313], [-81.583886, 41.313079], [-81.58392, 41.312864], [-81.58391, 41.312663], [-81.583858, 41.312475], [-81.583786, 41.312319], [-81.583725, 41.312199], [-81.583659, 41.312054], [-81.583609, 41.311894], [-81.583581, 41.311755], [-81.58356, 41.311586], [-81.583545, 41.311414], [-81.583531, 41.311224], [-81.583513, 41.311013], [-81.583509, 41.310881], [-81.583527, 41.310705], [-81.583619, 41.310511], [-81.58378, 41.310344], [-81.584024, 41.310162], [-81.584195, 41.310044], [-81.584422, 41.309881], [-81.584615, 41.30972], [-81.584759, 41.30957], [-81.584846, 41.309455], [-81.584904, 41.309367], [-81.584967, 41.309264], [-81.585014, 41.309185], [-81.586257, 41.309185], [-81.586324, 41.309354], [-81.586384, 41.309524], [-81.586435, 41.309696], [-81.586479, 41.309869], [-81.58673, 41.310955], [-81.587276, 41.313821], [-81.583464, 41.313832]]], [[[-81.597388, 41.34653], [-81.597346, 41.346356], [-81.597297, 41.346184], [-81.59724, 41.346014], [-81.597175, 41.345845], [-81.597103, 41.345677], [-81.597024, 41.345512], [-81.596938, 41.345348], [-81.596844, 41.345187], [-81.596744, 41.345028], [-81.596636, 41.344872], [-81.596522, 41.344718], [-81.596401, 41.344568], [-81.596273, 41.34442], [-81.596139, 41.344276], [-81.595999, 41.344136], [-81.595853, 41.343998], [-81.5957, 41.343865], [-81.595534, 41.343729], [-81.595361, 41.343597], [-81.595182, 41.343469], [-81.594997, 41.343347], [-81.594807, 41.343229], [-81.594612, 41.343117], [-81.594411, 41.343009], [-81.594206, 41.342907], [-81.593996, 41.34281], [-81.593781, 41.342719], [-81.593563, 41.342634], [-81.593029, 41.342434], [-81.592751, 41.34233], [-81.592866, 41.342284], [-81.593807, 41.341911], [-81.594566, 41.341649], [-81.594687, 41.341487], [-81.594942, 41.341462], [-81.595755, 41.341312], [-81.596633, 41.341431], [-81.597179, 41.34167], [-81.597671, 41.342268], [-81.597812, 41.342854], [-81.597578, 41.343617], [-81.597797, 41.345194], [-81.598743, 41.346093], [-81.598725, 41.346479], [-81.598964, 41.346478], [-81.598873, 41.346803], [-81.598804, 41.347793], [-81.59878, 41.348141], [-81.598764, 41.349089], [-81.598831, 41.349255], [-81.598996, 41.349664], [-81.598869, 41.349664], [-81.598365, 41.349664], [-81.598216, 41.349367], [-81.598163, 41.349257], [-81.598061, 41.349034], [-81.597969, 41.34881], [-81.597886, 41.348583], [-81.597811, 41.348355], [-81.597746, 41.348125], [-81.59769, 41.347894], [-81.597668, 41.34779], [-81.597496, 41.347011], [-81.597388, 41.34653]]], [[[-81.591758, 41.349761], [-81.59174, 41.349714], [-81.591724, 41.349666], [-81.59171, 41.349618], [-81.591698, 41.34957], [-81.591689, 41.349521], [-81.591681, 41.349472], [-81.591676, 41.349423], [-81.591673, 41.349373], [-81.591673, 41.349324], [-81.591674, 41.349275], [-81.591678, 41.349226], [-81.591684, 41.349177], [-81.591693, 41.349128], [-81.591703, 41.349079], [-81.591716, 41.349031], [-81.591731, 41.348983], [-81.591748, 41.348935], [-81.591767, 41.348888], [-81.591789, 41.348841], [-81.591812, 41.348795], [-81.591837, 41.34875], [-81.591865, 41.348705], [-81.591895, 41.348661], [-81.591926, 41.348618], [-81.59196, 41.348576], [-81.591995, 41.348534], [-81.592033, 41.348494], [-81.592072, 41.348454], [-81.592372, 41.34816], [-81.593373, 41.34718], [-81.593713, 41.347187], [-81.593797, 41.347083], [-81.594176, 41.346914], [-81.594097, 41.346582], [-81.594253, 41.346334], [-81.594424, 41.346092], [-81.594645, 41.345919], [-81.594913, 41.345732], [-81.595165, 41.345534], [-81.595344, 41.345243], [-81.595309, 41.344908], [-81.595061, 41.344638], [-81.594781, 41.344461], [-81.594475, 41.344312], [-81.594129, 41.344163], [-81.593796, 41.344049], [-81.593453, 41.343958], [-81.593069, 41.34389], [-81.592804, 41.343825], [-81.593361, 41.343819], [-81.593828, 41.34373], [-81.594184, 41.343537], [-81.594765, 41.343663], [-81.595332, 41.344273], [-81.595689, 41.344537], [-81.596116, 41.345018], [-81.59665, 41.345958], [-81.596904, 41.346577], [-81.596842, 41.346799], [-81.597182, 41.346958], [-81.597232, 41.346819], [-81.597446, 41.34779], [-81.597475, 41.347921], [-81.597537, 41.348177], [-81.59761, 41.348431], [-81.597694, 41.348683], [-81.597789, 41.348933], [-81.597895, 41.34918], [-81.598012, 41.349425], [-81.598131, 41.349664], [-81.598071, 41.349664], [-81.597796, 41.34909], [-81.597632, 41.349072], [-81.597326, 41.348825], [-81.59683, 41.348877], [-81.596614, 41.349229], [-81.596515, 41.349555], [-81.596089, 41.349801], [-81.595508, 41.349978], [-81.594882, 41.349913], [-81.594476, 41.349778], [-81.593624, 41.349454], [-81.593399, 41.349435], [-81.593113, 41.349244], [-81.593024, 41.348881], [-81.593126, 41.348577], [-81.593319, 41.348315], [-81.593391, 41.34806], [-81.593441, 41.347882], [-81.593617, 41.347779], [-81.593847, 41.347735], [-81.59393, 41.347562], [-81.593488, 41.347622], [-81.593167, 41.347962], [-81.592772, 41.348915], [-81.593092, 41.349499], [-81.594484, 41.350006], [-81.595403, 41.350164], [-81.59657, 41.349811], [-81.596946, 41.349185], [-81.597417, 41.349128], [-81.598177, 41.350267], [-81.598143, 41.350689], [-81.592958, 41.352089], [-81.5924, 41.35116], [-81.591758, 41.349761]]], [[[-81.610683, 41.359556], [-81.611137, 41.360068], [-81.61086, 41.360109], [-81.608782, 41.359803], [-81.608729, 41.359777], [-81.608711, 41.359735], [-81.608712, 41.359725], [-81.610683, 41.359556]]], [[[-81.623387, 41.371152], [-81.622815, 41.371364], [-81.621196, 41.37186], [-81.620848, 41.371924], [-81.618995, 41.371801], [-81.618817, 41.369697], [-81.619162, 41.367536], [-81.622407, 41.367522], [-81.623387, 41.371152]]], [[[-81.601315, 41.353042], [-81.601545, 41.352587], [-81.601607, 41.352369], [-81.601629, 41.352202], [-81.601627, 41.352035], [-81.601604, 41.351869], [-81.601447, 41.351381], [-81.601417, 41.351219], [-81.601936, 41.351213], [-81.602634, 41.352058], [-81.602749, 41.353037], [-81.601315, 41.353042]]], [[[-81.605898, 41.357622], [-81.604648, 41.358514], [-81.604292, 41.358516], [-81.603373, 41.357798], [-81.604433, 41.357387], [-81.60475, 41.357746], [-81.605898, 41.357622]]], [[[-81.669934, 41.30781], [-81.669969, 41.302004], [-81.66922, 41.302048], [-81.66847, 41.302073], [-81.66772, 41.302078], [-81.666969, 41.302065], [-81.666219, 41.302032], [-81.665472, 41.30198], [-81.664727, 41.301909], [-81.661843, 41.301597], [-81.66154, 41.301565], [-81.661538, 41.301729], [-81.660082, 41.301722], [-81.660076, 41.302361], [-81.659171, 41.302357], [-81.659161, 41.303492], [-81.658627, 41.30381], [-81.658225, 41.303856], [-81.658224, 41.303941], [-81.658222, 41.304139], [-81.657987, 41.304112], [-81.657369, 41.304041], [-81.655702, 41.303722], [-81.655708, 41.301626], [-81.655599, 41.301651], [-81.655598, 41.301856], [-81.653975, 41.301856], [-81.650185, 41.301857], [-81.648449, 41.301857], [-81.647525, 41.301858], [-81.64556, 41.301858], [-81.645435, 41.301682], [-81.645263, 41.301473], [-81.645129, 41.301309], [-81.647966, 41.301309], [-81.650188, 41.301308], [-81.65082, 41.301308], [-81.650822, 41.301006], [-81.651453, 41.301226], [-81.651453, 41.301308], [-81.653014, 41.301318], [-81.653983, 41.301307], [-81.653988, 41.300466], [-81.655547, 41.300463], [-81.655675, 41.300463], [-81.655677, 41.300275], [-81.656203, 41.300274], [-81.656205, 41.299531], [-81.655677, 41.299522], [-81.655672, 41.298609], [-81.655672, 41.297756], [-81.655677, 41.297286], [-81.655679, 41.297123], [-81.657918, 41.297131], [-81.657944, 41.296448], [-81.657332, 41.296444], [-81.655701, 41.296431], [-81.655704, 41.295618], [-81.655796, 41.295557], [-81.670011, 41.295575], [-81.681342, 41.295598], [-81.684146, 41.295604], [-81.684673, 41.295756], [-81.684736, 41.295774], [-81.684711, 41.30044], [-81.684783, 41.300451], [-81.685507, 41.300561], [-81.68602, 41.300633], [-81.686535, 41.300692], [-81.687052, 41.300738], [-81.687572, 41.300772], [-81.687757, 41.300779], [-81.688092, 41.300792], [-81.688613, 41.3008], [-81.690034, 41.300805], [-81.69032, 41.300806], [-81.691028, 41.300808], [-81.691581, 41.300809], [-81.691603, 41.300809], [-81.69281, 41.300813], [-81.694862, 41.300817], [-81.694871, 41.299098], [-81.694926, 41.299119], [-81.698562, 41.300571], [-81.697713, 41.30057], [-81.697711, 41.300828], [-81.698448, 41.30083], [-81.699204, 41.300832], [-81.699644, 41.301008], [-81.700175, 41.301215], [-81.700712, 41.301413], [-81.700707, 41.304274], [-81.700706, 41.305106], [-81.700342, 41.305105], [-81.700348, 41.301385], [-81.698443, 41.301379], [-81.697707, 41.301377], [-81.696939, 41.301375], [-81.696971, 41.303205], [-81.693596, 41.303165], [-81.693609, 41.301364], [-81.689155, 41.301351], [-81.68861, 41.301349], [-81.688074, 41.301341], [-81.687538, 41.30132], [-81.686991, 41.301285], [-81.686445, 41.301237], [-81.685903, 41.301175], [-81.685363, 41.301099], [-81.685132, 41.301064], [-81.684707, 41.301063], [-81.684703, 41.301621], [-81.677701, 41.301614], [-81.677689, 41.30363], [-81.677665, 41.307777], [-81.677664, 41.307848], [-81.669934, 41.30781]]], [[[-81.588978, 41.33495], [-81.589012, 41.334915], [-81.588783, 41.334916], [-81.589953, 41.33338], [-81.590221, 41.33283], [-81.590213, 41.332627], [-81.590428, 41.332627], [-81.590381, 41.332409], [-81.590343, 41.331975], [-81.590665, 41.331615], [-81.590945, 41.331447], [-81.590548, 41.331448], [-81.590942, 41.331043], [-81.591348, 41.33061], [-81.591518, 41.330253], [-81.591638, 41.33], [-81.591671, 41.329277], [-81.591894, 41.329278], [-81.591885, 41.329411], [-81.591855, 41.329693], [-81.591811, 41.329973], [-81.591755, 41.330253], [-81.591696, 41.330495], [-81.591627, 41.330735], [-81.591548, 41.330974], [-81.59146, 41.331211], [-81.591362, 41.331446], [-81.591251, 41.331688], [-81.591129, 41.331927], [-81.590998, 41.332163], [-81.590857, 41.332396], [-81.590706, 41.332626], [-81.59063, 41.332736], [-81.589027, 41.335002], [-81.588925, 41.335152], [-81.58883, 41.335303], [-81.588741, 41.335457], [-81.588658, 41.335613], [-81.588606, 41.33572], [-81.588582, 41.335771], [-81.588587, 41.335728], [-81.588593, 41.335672], [-81.588599, 41.335616], [-81.588605, 41.335564], [-81.588617, 41.335488], [-81.588642, 41.335397], [-81.588671, 41.335332], [-81.588696, 41.335285], [-81.58875, 41.335205], [-81.58882, 41.335117], [-81.588859, 41.335074], [-81.588932, 41.334997], [-81.588978, 41.33495]]], [[[-81.592422, 41.345665], [-81.592108, 41.345402], [-81.591863, 41.345501], [-81.591524, 41.345518], [-81.591197, 41.345488], [-81.590966, 41.345558], [-81.590536, 41.345601], [-81.589597, 41.345786], [-81.588947, 41.345641], [-81.588053, 41.345536], [-81.587799, 41.345468], [-81.58747, 41.345445], [-81.586856, 41.344931], [-81.586743, 41.344833], [-81.586635, 41.344732], [-81.586531, 41.344629], [-81.586432, 41.344523], [-81.586338, 41.344414], [-81.586249, 41.344304], [-81.586165, 41.344191], [-81.586086, 41.344075], [-81.586012, 41.343958], [-81.585944, 41.343839], [-81.58486, 41.341857], [-81.584977, 41.341079], [-81.584989, 41.339886], [-81.584763, 41.33965], [-81.5846, 41.339301], [-81.584735, 41.338992], [-81.585516, 41.338455], [-81.586107, 41.339056], [-81.586365, 41.339145], [-81.586399, 41.339286], [-81.586399, 41.339286], [-81.586399, 41.339287], [-81.586432, 41.339423], [-81.58642, 41.339692], [-81.58642, 41.339999], [-81.586431, 41.340275], [-81.586473, 41.340548], [-81.586536, 41.340818], [-81.586637, 41.341127], [-81.586755, 41.341387], [-81.586899, 41.341639], [-81.587081, 41.34191], [-81.587253, 41.342153], [-81.587435, 41.34239], [-81.58762, 41.342627], [-81.587806, 41.342863], [-81.587989, 41.3431], [-81.588168, 41.343339], [-81.588339, 41.343582], [-81.588581, 41.343836], [-81.58898, 41.344036], [-81.589414, 41.344107], [-81.589778, 41.344121], [-81.590142, 41.344123], [-81.590506, 41.344126], [-81.590894, 41.34412], [-81.591257, 41.344107], [-81.591622, 41.3441], [-81.591942, 41.344088], [-81.592308, 41.344094], [-81.592658, 41.344207], [-81.593019, 41.344245], [-81.593295, 41.3443], [-81.593667, 41.344329], [-81.594, 41.344444], [-81.594239, 41.344558], [-81.594511, 41.344742], [-81.594804, 41.344906], [-81.594901, 41.345015], [-81.594919, 41.345141], [-81.594862, 41.345306], [-81.594638, 41.345526], [-81.59437, 41.345712], [-81.594089, 41.345972], [-81.593918, 41.346215], [-81.593761, 41.346463], [-81.593607, 41.346711], [-81.59345, 41.346959], [-81.593218, 41.347085], [-81.593111, 41.347174], [-81.592976, 41.347287], [-81.592783, 41.347524], [-81.592671, 41.347667], [-81.592594, 41.347764], [-81.592384, 41.348012], [-81.592273, 41.34812], [-81.592161, 41.348229], [-81.591936, 41.348476], [-81.591741, 41.348708], [-81.591586, 41.348957], [-81.591489, 41.349311], [-81.591383, 41.349613], [-81.591307, 41.349534], [-81.590966, 41.34918], [-81.591245, 41.348717], [-81.590907, 41.34784], [-81.590944, 41.34713], [-81.590952, 41.346982], [-81.591273, 41.346567], [-81.59172, 41.346107], [-81.5923, 41.345779], [-81.592422, 41.345665]]], [[[-81.750628, 41.303294], [-81.747733, 41.303122], [-81.747672, 41.303118], [-81.747435, 41.303104], [-81.747353, 41.303099], [-81.747111, 41.303239], [-81.746945, 41.303075], [-81.746401, 41.303049], [-81.745856, 41.303036], [-81.745311, 41.303035], [-81.744766, 41.303046], [-81.744431, 41.30306], [-81.743731, 41.303846], [-81.742996, 41.304173], [-81.742824, 41.304145], [-81.742149, 41.303925], [-81.741465, 41.303722], [-81.740772, 41.303537], [-81.740071, 41.30337], [-81.739363, 41.303221], [-81.738649, 41.30309], [-81.737929, 41.302977], [-81.737204, 41.302883], [-81.736476, 41.302807], [-81.735745, 41.30275], [-81.735155, 41.302719], [-81.735011, 41.302711], [-81.735012, 41.302674], [-81.735015, 41.302574], [-81.734599, 41.30256], [-81.734526, 41.302559], [-81.734452, 41.302557], [-81.734379, 41.302555], [-81.734305, 41.302553], [-81.73423, 41.302551], [-81.734155, 41.30255], [-81.73408, 41.302548], [-81.734005, 41.302547], [-81.733929, 41.302546], [-81.733852, 41.302545], [-81.731915, 41.302522], [-81.731284, 41.302436], [-81.73095, 41.302293], [-81.730438, 41.302075], [-81.73013, 41.301944], [-81.730035, 41.301905], [-81.729939, 41.301868], [-81.729841, 41.301833], [-81.729741, 41.3018], [-81.729641, 41.30177], [-81.729527, 41.301739], [-81.729413, 41.301711], [-81.729297, 41.301685], [-81.72918, 41.301663], [-81.729062, 41.301643], [-81.728943, 41.301626], [-81.728824, 41.301613], [-81.728704, 41.301602], [-81.728584, 41.301595], [-81.728464, 41.30159], [-81.728343, 41.301588], [-81.724447, 41.301585], [-81.723171, 41.301584], [-81.714424, 41.301576], [-81.713512, 41.301575], [-81.711422, 41.301551], [-81.710551, 41.301527], [-81.708398, 41.30146], [-81.707842, 41.301442], [-81.705372, 41.3014], [-81.704716, 41.301398], [-81.704352, 41.301397], [-81.704352, 41.301717], [-81.703988, 41.301624], [-81.703988, 41.301395], [-81.703564, 41.301394], [-81.702654, 41.301129], [-81.702139, 41.300963], [-81.702086, 41.300946], [-81.701756, 41.30084], [-81.70255, 41.300842], [-81.703211, 41.300844], [-81.704717, 41.300849], [-81.705175, 41.30085], [-81.705375, 41.300851], [-81.706169, 41.300864], [-81.706493, 41.30087], [-81.706686, 41.300873], [-81.707873, 41.300894], [-81.708238, 41.300905], [-81.708408, 41.300911], [-81.709099, 41.300932], [-81.709783, 41.300954], [-81.710058, 41.300962], [-81.710582, 41.300979], [-81.711299, 41.300998], [-81.711436, 41.301002], [-81.712004, 41.301009], [-81.712814, 41.301018], [-81.713513, 41.301026], [-81.714438, 41.301027], [-81.715955, 41.301029], [-81.717441, 41.30103], [-81.717835, 41.30103], [-81.719665, 41.301032], [-81.721615, 41.301034], [-81.721777, 41.301034], [-81.72286, 41.301035], [-81.724386, 41.301036], [-81.724444, 41.301036], [-81.724536, 41.301036], [-81.7247, 41.301037], [-81.727209, 41.301039], [-81.728344, 41.30104], [-81.728489, 41.301041], [-81.728634, 41.301047], [-81.728778, 41.301056], [-81.728922, 41.301069], [-81.729065, 41.301085], [-81.729208, 41.301105], [-81.729349, 41.301129], [-81.72949, 41.301156], [-81.729629, 41.301186], [-81.730139, 41.30131], [-81.730442, 41.301383], [-81.730471, 41.30139], [-81.730677, 41.30144], [-81.730949, 41.301505], [-81.733087, 41.302022], [-81.73424, 41.302029], [-81.734973, 41.302034], [-81.73506, 41.302051], [-81.735438, 41.302125], [-81.737122, 41.30062], [-81.737178, 41.30062], [-81.737375, 41.30062], [-81.738426, 41.300623], [-81.740626, 41.300627], [-81.740794, 41.300628], [-81.743651, 41.300627], [-81.744754, 41.300627], [-81.74476, 41.301743], [-81.746673, 41.301993], [-81.747571, 41.302111], [-81.748604, 41.302246], [-81.748719, 41.302261], [-81.748793, 41.30227], [-81.749131, 41.302076], [-81.749161, 41.302105], [-81.749187, 41.302131], [-81.749418, 41.302359], [-81.753125, 41.302847], [-81.754008, 41.302845], [-81.75406, 41.302845], [-81.754117, 41.302845], [-81.754181, 41.302845], [-81.755653, 41.302841], [-81.756848, 41.302838], [-81.75968, 41.302832], [-81.759679, 41.302556], [-81.760072, 41.30262], [-81.76048, 41.302677], [-81.76072, 41.30262], [-81.761031, 41.302547], [-81.761363, 41.302596], [-81.761513, 41.302538], [-81.761822, 41.302419], [-81.762016, 41.302299], [-81.762132, 41.302227], [-81.762419, 41.302095], [-81.763137, 41.301765], [-81.763509, 41.301749], [-81.764055, 41.301725], [-81.764504, 41.301705], [-81.76468, 41.301705], [-81.765229, 41.301707], [-81.76559, 41.301778], [-81.76602, 41.301821], [-81.766218, 41.301743], [-81.766565, 41.301725], [-81.766738, 41.301872], [-81.767017, 41.301976], [-81.767848, 41.301833], [-81.768437, 41.302011], [-81.76854, 41.301917], [-81.768585, 41.301877], [-81.76864, 41.301826], [-81.769887, 41.302594], [-81.769827, 41.30265], [-81.769587, 41.302872], [-81.76922, 41.302876], [-81.768054, 41.302889], [-81.767992, 41.30289], [-81.766673, 41.302905], [-81.765575, 41.302918], [-81.764666, 41.302869], [-81.764063, 41.302838], [-81.763517, 41.302808], [-81.763132, 41.302788], [-81.763135, 41.30304], [-81.763138, 41.303321], [-81.76314, 41.303458], [-81.762338, 41.30346], [-81.762324, 41.303582], [-81.762297, 41.303803], [-81.762239, 41.304284], [-81.760871, 41.304287], [-81.760151, 41.304288], [-81.760155, 41.304491], [-81.760195, 41.30643], [-81.760195, 41.306443], [-81.754736, 41.306456], [-81.754154, 41.304497], [-81.754154, 41.3045], [-81.754163, 41.304896], [-81.754167, 41.305085], [-81.75258, 41.305085], [-81.752584, 41.305277], [-81.750694, 41.305276], [-81.750628, 41.303294]], [[-81.736671, 41.302366], [-81.736928, 41.301934], [-81.736324, 41.301649], [-81.735861, 41.302207], [-81.736671, 41.302366], [-81.736671, 41.302366]]], [[[-81.596112, 41.29952], [-81.596964, 41.299022], [-81.598066, 41.299514], [-81.598498, 41.299707], [-81.598679, 41.299344], [-81.599098, 41.298684], [-81.601189, 41.297872], [-81.602258, 41.297764], [-81.604542, 41.297166], [-81.605969, 41.297112], [-81.61237, 41.296871], [-81.612348, 41.298076], [-81.61233, 41.29905], [-81.617153, 41.299049], [-81.617551, 41.299051], [-81.621589, 41.299073], [-81.622166, 41.299076], [-81.62272, 41.299079], [-81.623236, 41.299078], [-81.625118, 41.299074], [-81.625107, 41.299781], [-81.625103, 41.300002], [-81.626904, 41.300032], [-81.626903, 41.300156], [-81.626084, 41.300142], [-81.626081, 41.300362], [-81.626901, 41.300359], [-81.626888, 41.301253], [-81.641553, 41.301311], [-81.641807, 41.301094], [-81.642048, 41.30131], [-81.643944, 41.30131], [-81.644035, 41.301465], [-81.6442, 41.301746], [-81.64428, 41.301858], [-81.643556, 41.301859], [-81.643109, 41.301859], [-81.641332, 41.301859], [-81.640912, 41.301857], [-81.637711, 41.301845], [-81.634131, 41.301831], [-81.626882, 41.301802], [-81.626878, 41.30228], [-81.62685, 41.306136], [-81.626845, 41.306809], [-81.626839, 41.30761], [-81.626838, 41.307783], [-81.626815, 41.310965], [-81.624081, 41.310981], [-81.623891, 41.310983], [-81.623902, 41.31112], [-81.623895, 41.312047], [-81.623892, 41.312509], [-81.623889, 41.312874], [-81.623884, 41.313561], [-81.623882, 41.313838], [-81.623881, 41.313972], [-81.623879, 41.314335], [-81.623873, 41.31507], [-81.623862, 41.316676], [-81.623852, 41.317974], [-81.624129, 41.317975], [-81.624474, 41.317976], [-81.624302, 41.318195], [-81.624294, 41.318205], [-81.624017, 41.318244], [-81.623954, 41.318425], [-81.623952, 41.318645], [-81.623848, 41.318645], [-81.623644, 41.318645], [-81.623598, 41.318638], [-81.62317, 41.318939], [-81.623172, 41.319787], [-81.62334, 41.319888], [-81.623401, 41.319925], [-81.623104, 41.319955], [-81.622779, 41.320002], [-81.621903, 41.320168], [-81.621398, 41.32032], [-81.620594, 41.320658], [-81.620477, 41.320164], [-81.620096, 41.320216], [-81.62018, 41.320486], [-81.619835, 41.320978], [-81.616735, 41.322283], [-81.615836, 41.322549], [-81.612102, 41.324664], [-81.611894, 41.324728], [-81.61097, 41.32501], [-81.610568, 41.325134], [-81.609701, 41.325399], [-81.609147, 41.325291], [-81.609173, 41.325216], [-81.609189, 41.325169], [-81.608872, 41.32488], [-81.608775, 41.324734], [-81.608521, 41.324103], [-81.608453, 41.323418], [-81.608339, 41.323234], [-81.607708, 41.322886], [-81.606993, 41.3228], [-81.606043, 41.322457], [-81.605186, 41.321589], [-81.603999, 41.321247], [-81.602238, 41.319882], [-81.600601, 41.319209], [-81.599779, 41.318956], [-81.599629, 41.318973], [-81.599603, 41.319218], [-81.599547, 41.319251], [-81.598545, 41.319837], [-81.597195, 41.320422], [-81.596992, 41.320537], [-81.596992, 41.320816], [-81.596495, 41.320816], [-81.596007, 41.321091], [-81.594868, 41.321092], [-81.593535, 41.321135], [-81.59314, 41.321319], [-81.592776, 41.321671], [-81.592597, 41.321743], [-81.592487, 41.321787], [-81.592398, 41.321118], [-81.592265, 41.320954], [-81.592076, 41.320818], [-81.591818, 41.320632], [-81.591663, 41.32052], [-81.591224, 41.320203], [-81.591048, 41.320342], [-81.590889, 41.320325], [-81.590551, 41.320289], [-81.590226, 41.320297], [-81.590015, 41.320302], [-81.589421, 41.320317], [-81.589298, 41.320381], [-81.589137, 41.320586], [-81.588909, 41.3213], [-81.588684, 41.321437], [-81.588596, 41.32149], [-81.588695, 41.321587], [-81.589153, 41.322038], [-81.589538, 41.3222], [-81.589847, 41.322484], [-81.590464, 41.322899], [-81.590749, 41.323039], [-81.591065, 41.323194], [-81.591385, 41.323195], [-81.592296, 41.323539], [-81.592299, 41.323561], [-81.592308, 41.323641], [-81.593027, 41.324061], [-81.593633, 41.324628], [-81.593672, 41.324676], [-81.593854, 41.3249], [-81.594064, 41.325133], [-81.594158, 41.325394], [-81.594235, 41.325528], [-81.594324, 41.325683], [-81.594385, 41.32609], [-81.594395, 41.326636], [-81.594466, 41.327078], [-81.594538, 41.327078], [-81.5944, 41.327389], [-81.594833, 41.32739], [-81.594579, 41.328082], [-81.594651, 41.328437], [-81.594841, 41.328905], [-81.594824, 41.329289], [-81.594741, 41.329604], [-81.594355, 41.330112], [-81.594143, 41.330249], [-81.593851, 41.330473], [-81.593522, 41.330613], [-81.593369, 41.330889], [-81.593089, 41.331109], [-81.593082, 41.331441], [-81.592263, 41.332623], [-81.592122, 41.332827], [-81.591539, 41.33373], [-81.591791, 41.333965], [-81.591778, 41.334412], [-81.591455, 41.33491], [-81.590646, 41.336159], [-81.590586, 41.336253], [-81.590105, 41.336996], [-81.590102, 41.337204], [-81.590101, 41.337357], [-81.590093, 41.338094], [-81.59009, 41.338382], [-81.59069, 41.339007], [-81.590736, 41.339574], [-81.59018, 41.339575], [-81.589808, 41.340629], [-81.589671, 41.340488], [-81.589541, 41.340344], [-81.589417, 41.340197], [-81.5893, 41.340046], [-81.589189, 41.339893], [-81.589085, 41.339737], [-81.588989, 41.339578], [-81.5889, 41.339418], [-81.588819, 41.339256], [-81.588744, 41.339091], [-81.588677, 41.338925], [-81.588618, 41.338758], [-81.588566, 41.338589], [-81.588521, 41.338418], [-81.588485, 41.338247], [-81.588455, 41.338075], [-81.588434, 41.337902], [-81.58842, 41.337729], [-81.588414, 41.337555], [-81.588416, 41.337382], [-81.588426, 41.337208], [-81.588442, 41.337037], [-81.588467, 41.336867], [-81.588499, 41.336697], [-81.588538, 41.336529], [-81.588585, 41.336361], [-81.58864, 41.336194], [-81.588701, 41.336029], [-81.588761, 41.335887], [-81.58877, 41.335866], [-81.588846, 41.335704], [-81.588929, 41.335545], [-81.589019, 41.335388], [-81.589116, 41.335232], [-81.589219, 41.33508], [-81.590823, 41.332813], [-81.590988, 41.33257], [-81.591143, 41.332323], [-81.591287, 41.332072], [-81.59142, 41.331818], [-81.591542, 41.331561], [-81.591652, 41.3313], [-81.591752, 41.331038], [-81.591839, 41.330772], [-81.591915, 41.330505], [-81.59198, 41.330236], [-81.592033, 41.329966], [-81.592074, 41.329695], [-81.592103, 41.329422], [-81.592115, 41.329246], [-81.592118, 41.32907], [-81.592113, 41.328893], [-81.592101, 41.328717], [-81.59208, 41.328541], [-81.592052, 41.328366], [-81.592016, 41.328192], [-81.591972, 41.328019], [-81.591921, 41.327847], [-81.591862, 41.327676], [-81.591795, 41.327507], [-81.591721, 41.32734], [-81.591639, 41.327174], [-81.59155, 41.327011], [-81.591454, 41.32685], [-81.59135, 41.326692], [-81.59124, 41.326537], [-81.591122, 41.326384], [-81.590998, 41.326235], [-81.590868, 41.326088], [-81.590731, 41.325946], [-81.590587, 41.325806], [-81.590292, 41.325529], [-81.589405, 41.324697], [-81.589267, 41.324564], [-81.589136, 41.324427], [-81.58901, 41.324288], [-81.588884, 41.324138], [-81.588765, 41.323985], [-81.588653, 41.323828], [-81.588548, 41.32367], [-81.58845, 41.323508], [-81.588359, 41.323344], [-81.588276, 41.323178], [-81.588199, 41.323007], [-81.58813, 41.322833], [-81.588068, 41.322658], [-81.588015, 41.322481], [-81.58797, 41.322303], [-81.587933, 41.322124], [-81.587904, 41.321944], [-81.587883, 41.321764], [-81.587871, 41.321582], [-81.587869, 41.321494], [-81.587867, 41.321401], [-81.587869, 41.321322], [-81.58787, 41.321238], [-81.58788, 41.321076], [-81.587903, 41.320792], [-81.587981, 41.319813], [-81.588, 41.319781], [-81.58802, 41.31975], [-81.588042, 41.319718], [-81.588065, 41.319688], [-81.58809, 41.319658], [-81.588116, 41.319629], [-81.588144, 41.3196], [-81.588172, 41.319572], [-81.588202, 41.319545], [-81.588233, 41.319519], [-81.588266, 41.319494], [-81.588299, 41.319469], [-81.588334, 41.319445], [-81.588369, 41.319423], [-81.588406, 41.319401], [-81.588443, 41.31938], [-81.588482, 41.31936], [-81.588521, 41.319341], [-81.588562, 41.319323], [-81.588603, 41.319306], [-81.588645, 41.319291], [-81.588687, 41.319276], [-81.58873, 41.319263], [-81.588774, 41.31925], [-81.588793, 41.319245], [-81.588813, 41.319241], [-81.588833, 41.319237], [-81.588853, 41.319233], [-81.588873, 41.319231], [-81.588893, 41.319228], [-81.588913, 41.319226], [-81.588934, 41.319225], [-81.588954, 41.319224], [-81.588975, 41.319224], [-81.588995, 41.319224], [-81.589016, 41.319225], [-81.589036, 41.319226], [-81.589056, 41.319228], [-81.589076, 41.319231], [-81.589096, 41.319234], [-81.589116, 41.319237], [-81.589136, 41.319241], [-81.589156, 41.319246], [-81.589175, 41.319251], [-81.589194, 41.319256], [-81.589213, 41.319262], [-81.589796, 41.319456], [-81.589069, 41.319192], [-81.588805, 41.31921], [-81.588369, 41.319375], [-81.587959, 41.319743], [-81.588032, 41.319167], [-81.58832, 41.319043], [-81.588736, 41.318985], [-81.588741, 41.318763], [-81.588745, 41.318595], [-81.588751, 41.318358], [-81.588756, 41.318167], [-81.588759, 41.318049], [-81.588762, 41.317931], [-81.588766, 41.317757], [-81.588772, 41.31749], [-81.588788, 41.316852], [-81.588803, 41.316228], [-81.589819, 41.316222], [-81.589816, 41.316389], [-81.590495, 41.316279], [-81.591225, 41.316606], [-81.591435, 41.316701], [-81.591754, 41.316918], [-81.592084, 41.316992], [-81.592178, 41.316206], [-81.592552, 41.315345], [-81.592926, 41.314484], [-81.592678, 41.313846], [-81.592667, 41.313804], [-81.587497, 41.31382], [-81.586945, 41.31093], [-81.586694, 41.30984], [-81.586653, 41.309675], [-81.586604, 41.30951], [-81.586548, 41.309347], [-81.586486, 41.309185], [-81.586875, 41.309185], [-81.588568, 41.309186], [-81.585815, 41.306888], [-81.583633, 41.30502], [-81.583348, 41.304146], [-81.583303, 41.304009], [-81.583, 41.303314], [-81.583806, 41.303113], [-81.583451, 41.30222], [-81.587387, 41.302229], [-81.587423, 41.299876], [-81.583936, 41.299856], [-81.58199, 41.297626], [-81.579851, 41.297624], [-81.578539, 41.297622], [-81.578532, 41.297614], [-81.577953, 41.296403], [-81.576278, 41.295986], [-81.576024, 41.295517], [-81.576064, 41.295302], [-81.575058, 41.295299], [-81.574673, 41.295298], [-81.57411, 41.29331], [-81.573981, 41.293051], [-81.573875, 41.292674], [-81.573544, 41.291285], [-81.57313, 41.289823], [-81.573568, 41.288752], [-81.573649, 41.288696], [-81.573657, 41.288576], [-81.573688, 41.288133], [-81.572647, 41.288112], [-81.572282, 41.28682], [-81.571604, 41.284627], [-81.570773, 41.28202], [-81.570139, 41.280389], [-81.569595, 41.278992], [-81.570258, 41.278887], [-81.570372, 41.278869], [-81.571697, 41.28188], [-81.571719, 41.281933], [-81.571739, 41.281985], [-81.571756, 41.282038], [-81.571772, 41.282092], [-81.571786, 41.282146], [-81.572334, 41.284462], [-81.572336, 41.284471], [-81.572339, 41.28448], [-81.572342, 41.284489], [-81.572346, 41.284498], [-81.57235, 41.284507], [-81.572354, 41.284515], [-81.572359, 41.284524], [-81.572364, 41.284532], [-81.57237, 41.284541], [-81.572376, 41.284549], [-81.572382, 41.284557], [-81.572388, 41.284565], [-81.572395, 41.284573], [-81.572403, 41.28458], [-81.57241, 41.284587], [-81.572418, 41.284594], [-81.572426, 41.284601], [-81.572435, 41.284608], [-81.572444, 41.284614], [-81.572453, 41.284621], [-81.572462, 41.284627], [-81.572472, 41.284632], [-81.572482, 41.284637], [-81.572493, 41.284642], [-81.572503, 41.284646], [-81.573238, 41.284937], [-81.573268, 41.284949], [-81.573298, 41.284962], [-81.573327, 41.284976], [-81.573355, 41.284991], [-81.573383, 41.285007], [-81.57341, 41.285023], [-81.573436, 41.28504], [-81.573462, 41.285057], [-81.573486, 41.285075], [-81.57351, 41.285094], [-81.573533, 41.285114], [-81.573555, 41.285134], [-81.573576, 41.285154], [-81.573596, 41.285176], [-81.573615, 41.285197], [-81.573633, 41.285219], [-81.57365, 41.285242], [-81.573667, 41.285265], [-81.573682, 41.285289], [-81.573695, 41.285312], [-81.573708, 41.285336], [-81.57372, 41.285361], [-81.573731, 41.285386], [-81.57374, 41.285411], [-81.573748, 41.285436], [-81.573756, 41.285461], [-81.573761, 41.285487], [-81.573766, 41.285513], [-81.57377, 41.285539], [-81.573772, 41.285565], [-81.573774, 41.285591], [-81.573774, 41.285617], [-81.573774, 41.285601], [-81.573776, 41.285585], [-81.573778, 41.28557], [-81.57378, 41.285554], [-81.573784, 41.285539], [-81.573788, 41.285523], [-81.573793, 41.285508], [-81.573798, 41.285493], [-81.573805, 41.285477], [-81.573812, 41.285463], [-81.573819, 41.285448], [-81.573827, 41.285434], [-81.573836, 41.285419], [-81.573846, 41.285405], [-81.573856, 41.285391], [-81.573866, 41.285378], [-81.573878, 41.285365], [-81.57389, 41.285352], [-81.573902, 41.285339], [-81.573915, 41.285327], [-81.573929, 41.285315], [-81.573943, 41.285303], [-81.573957, 41.285292], [-81.573972, 41.285281], [-81.573988, 41.285271], [-81.574004, 41.28526], [-81.57457, 41.284917], [-81.574616, 41.284889], [-81.574664, 41.284863], [-81.574713, 41.284838], [-81.574762, 41.284815], [-81.574813, 41.284793], [-81.574865, 41.284772], [-81.574918, 41.284752], [-81.574971, 41.284734], [-81.575026, 41.284717], [-81.575081, 41.284701], [-81.575136, 41.284687], [-81.575193, 41.284674], [-81.575249, 41.284663], [-81.575307, 41.284653], [-81.575365, 41.284645], [-81.575423, 41.284638], [-81.575481, 41.284633], [-81.57554, 41.284629], [-81.575598, 41.284626], [-81.575657, 41.284625], [-81.577695, 41.284619], [-81.59027, 41.284581], [-81.589574, 41.282802], [-81.591578, 41.282897], [-81.592009, 41.282908], [-81.592741, 41.286229], [-81.591146, 41.28682], [-81.591179, 41.286905], [-81.591865, 41.288657], [-81.594495, 41.29535], [-81.595383, 41.297642], [-81.596112, 41.29952]]]]}}]}
