{"type": "FeatureCollection", "licence": "Data \u00a9 OpenStreetMap contributors, ODbL 1.0. http://osm.org/copyright", "features": [{"type": "Feature", "properties": {"name": "Brookside Reservation", "boundary_type": "park", "boundary_color": "#556B2F", "osm_id": "relation/3956352", "operator": "Cleveland Metroparks"}, "geometry": {"type": "MultiPolygon", "coordinates": [[[[-81.715764, 41.452683], [-81.716139, 41.451994], [-81.715908, 41.452737], [-81.715764, 41.452683]]], [[[-81.715783, 41.451139], [-81.715661, 41.451072], [-81.715534, 41.451081], [-81.71546, 41.450877], [-81.715192, 41.450105], [-81.715292, 41.450139], [-81.71539, 41.450176], [-81.715485, 41.450216], [-81.71544, 41.450275], [-81.715985, 41.450511], [-81.716239, 41.450146], [-81.716397, 41.450215], [-81.716143, 41.45058], [-81.716525, 41.450745], [-81.716252, 41.451622], [-81.716258, 41.451492], [-81.71614, 41.451388], [-81.715783, 41.451139]]], [[[-81.734943, 41.447175], [-81.735089, 41.446713], [-81.735099, 41.44748], [-81.734808, 41.4476], [-81.734943, 41.447175]]], [[[-81.717371, 41.453226], [-81.71664, 41.452963], [-81.716617, 41.453001], [-81.716241, 41.452861], [-81.716855, 41.450888], [-81.717511, 41.451173], [-81.717539, 41.451137], [-81.719683, 41.452083], [-81.719427, 41.452812], [-81.718424, 41.452618], [-81.718276, 41.453047], [-81.717991, 41.453146], [-81.717856, 41.453364], [-81.717371, 41.453226]]], [[[-81.721558, 41.451791], [-81.721443, 41.45043], [-81.721393, 41.450425], [-81.721172, 41.450424], [-81.720859, 41.450422], [-81.720225, 41.450444], [-81.720183, 41.450186], [-81.720197, 41.450114], [-81.720237, 41.449991], [-81.720308, 41.449905], [-81.720345, 41.449732], [-81.719807, 41.449145], [-81.71976, 41.449145], [-81.719761, 41.449053], [-81.719837, 41.448976], [-81.719905, 41.448764], [-81.719872, 41.448347], [-81.719521, 41.447886], [-81.719409, 41.447814], [-81.719485, 41.447751], [-81.71946, 41.447539], [-81.719373, 41.447701], [-81.719195, 41.447707], [-81.718904, 41.447663], [-81.718529, 41.447646], [-81.718087, 41.447678], [-81.717844, 41.447709], [-81.717956, 41.447339], [-81.717972, 41.447302], [-81.717994, 41.447268], [-81.718024, 41.447236], [-81.718059, 41.447208], [-81.718099, 41.447184], [-81.718144, 41.447165], [-81.718191, 41.447151], [-81.718241, 41.447143], [-81.721102, 41.447163], [-81.721875, 41.447169], [-81.722002, 41.447168], [-81.722128, 41.447161], [-81.722253, 41.447148], [-81.722377, 41.44713], [-81.722513, 41.447105], [-81.722646, 41.447074], [-81.722776, 41.447037], [-81.722904, 41.446994], [-81.722917, 41.446989], [-81.723009, 41.446949], [-81.723095, 41.446904], [-81.723176, 41.446853], [-81.72325, 41.446797], [-81.723318, 41.446737], [-81.723379, 41.446672], [-81.723433, 41.446604], [-81.723478, 41.446533], [-81.723515, 41.446459], [-81.723544, 41.446382], [-81.723546, 41.446399], [-81.723552, 41.446416], [-81.723561, 41.446431], [-81.723574, 41.446445], [-81.72359, 41.446457], [-81.723608, 41.446466], [-81.723628, 41.446474], [-81.72365, 41.446478], [-81.723672, 41.44648], [-81.723694, 41.446479], [-81.724436, 41.446393], [-81.724442, 41.446391], [-81.724449, 41.446389], [-81.724455, 41.446387], [-81.72446, 41.446383], [-81.724465, 41.446379], [-81.724469, 41.446374], [-81.724471, 41.44637], [-81.724473, 41.446364], [-81.724473, 41.446359], [-81.724474, 41.446387], [-81.724476, 41.446405], [-81.724482, 41.446423], [-81.724491, 41.44644], [-81.724505, 41.446455], [-81.724521, 41.446469], [-81.72454, 41.446481], [-81.724561, 41.44649], [-81.724584, 41.446497], [-81.724608, 41.4465], [-81.724632, 41.446501], [-81.724633, 41.446501], [-81.724657, 41.446499], [-81.724662, 41.446498], [-81.724667, 41.446497], [-81.724673, 41.446496], [-81.724678, 41.446495], [-81.724683, 41.446493], [-81.724688, 41.446492], [-81.724693, 41.44649], [-81.724697, 41.446488], [-81.724702, 41.446486], [-81.724707, 41.446484], [-81.724711, 41.446482], [-81.724716, 41.44648], [-81.72472, 41.446477], [-81.724724, 41.446475], [-81.724728, 41.446472], [-81.724732, 41.446469], [-81.724736, 41.446467], [-81.72474, 41.446464], [-81.724743, 41.446461], [-81.724747, 41.446458], [-81.72475, 41.446455], [-81.724753, 41.446451], [-81.724756, 41.446448], [-81.724759, 41.446444], [-81.724761, 41.446441], [-81.724764, 41.446437], [-81.724766, 41.446434], [-81.724768, 41.44643], [-81.72477, 41.446426], [-81.724772, 41.446422], [-81.724774, 41.446419], [-81.724775, 41.446415], [-81.724776, 41.446411], [-81.724777, 41.446407], [-81.724778, 41.446403], [-81.724779, 41.446399], [-81.724779, 41.446395], [-81.72478, 41.446391], [-81.72478, 41.446387], [-81.72478, 41.446383], [-81.72478, 41.446379], [-81.724779, 41.446375], [-81.724779, 41.446371], [-81.724778, 41.446367], [-81.724777, 41.446363], [-81.724776, 41.446359], [-81.724774, 41.446355], [-81.724773, 41.446351], [-81.724771, 41.446347], [-81.724769, 41.446344], [-81.724767, 41.44634], [-81.724765, 41.446336], [-81.724763, 41.446333], [-81.72476, 41.446329], [-81.724758, 41.446326], [-81.724755, 41.446322], [-81.724752, 41.446319], [-81.724749, 41.446316], [-81.724745, 41.446313], [-81.724742, 41.446309], [-81.724738, 41.446306], [-81.724734, 41.446304], [-81.724731, 41.446301], [-81.724727, 41.446298], [-81.724722, 41.446296], [-81.724718, 41.446293], [-81.724714, 41.446291], [-81.724709, 41.446289], [-81.724705, 41.446286], [-81.7247, 41.446284], [-81.724695, 41.446283], [-81.72469, 41.446281], [-81.724686, 41.446279], [-81.724681, 41.446278], [-81.724676, 41.446277], [-81.724671, 41.446275], [-81.724665, 41.446274], [-81.72466, 41.446273], [-81.724655, 41.446272], [-81.724657, 41.446272], [-81.724815, 41.446246], [-81.724975, 41.446222], [-81.725107, 41.446206], [-81.725101, 41.445619], [-81.725101, 41.445619], [-81.725101, 41.445619], [-81.726803, 41.445627], [-81.726843, 41.44562], [-81.726883, 41.445613], [-81.726923, 41.445605], [-81.726962, 41.445595], [-81.727001, 41.445585], [-81.727039, 41.445574], [-81.727077, 41.445562], [-81.727077, 41.446498], [-81.727077, 41.446617], [-81.727077, 41.446736], [-81.727077, 41.446917], [-81.727078, 41.44709], [-81.727078, 41.44709], [-81.727078, 41.44709], [-81.727078, 41.447942], [-81.729322, 41.44796], [-81.729551, 41.447962], [-81.729551, 41.448099], [-81.7301, 41.448106], [-81.731068, 41.448118], [-81.730393, 41.449028], [-81.730851, 41.449322], [-81.731057, 41.449289], [-81.731613, 41.448924], [-81.732387, 41.448338], [-81.733038, 41.447674], [-81.73402, 41.446817], [-81.734214, 41.446711], [-81.734387, 41.446678], [-81.734392, 41.446677], [-81.734457, 41.446473], [-81.734611, 41.445987], [-81.73481, 41.445989], [-81.734976, 41.44599], [-81.734985, 41.445991], [-81.734994, 41.445992], [-81.735002, 41.445995], [-81.735009, 41.445999], [-81.735016, 41.446003], [-81.735021, 41.446008], [-81.735026, 41.446014], [-81.735028, 41.446021], [-81.73503, 41.446027], [-81.73503, 41.446034], [-81.735029, 41.446041], [-81.73467, 41.447171], [-81.734718, 41.447172], [-81.734549, 41.447707], [-81.734469, 41.44774], [-81.733454, 41.448505], [-81.73322, 41.448645], [-81.732161, 41.449276], [-81.730756, 41.450114], [-81.730265, 41.450348], [-81.729919, 41.450479], [-81.729794, 41.450519], [-81.729662, 41.450566], [-81.72954, 41.450611], [-81.729415, 41.450651], [-81.729287, 41.450686], [-81.729157, 41.450715], [-81.729024, 41.450738], [-81.72889, 41.450756], [-81.728755, 41.450769], [-81.728039, 41.450819], [-81.727196, 41.450878], [-81.7271, 41.450882], [-81.727003, 41.450879], [-81.726907, 41.450871], [-81.726812, 41.450856], [-81.726719, 41.450836], [-81.726629, 41.450809], [-81.726541, 41.450778], [-81.726458, 41.45074], [-81.726379, 41.450698], [-81.726161, 41.45057], [-81.72632, 41.450761], [-81.726092, 41.450901], [-81.725701, 41.450656], [-81.725281, 41.45055], [-81.724858, 41.45058], [-81.725428, 41.450933], [-81.725533, 41.451389], [-81.723291, 41.451681], [-81.722581, 41.451766], [-81.721887, 41.451793], [-81.721703, 41.451792], [-81.721558, 41.451791]], [[-81.725635, 41.449299], [-81.725689, 41.449229], [-81.725056, 41.448956], [-81.724837, 41.449254], [-81.725152, 41.449585], [-81.725185, 41.450068], [-81.725775, 41.45006], [-81.726231, 41.450283], [-81.726883, 41.450482], [-81.727009, 41.450247], [-81.726084, 41.449786], [-81.725635, 41.449299]]]]}}]}
