{"type": "FeatureCollection", "licence": "Data \u00a9 OpenStreetMap contributors, ODbL 1.0. http://osm.org/copyright", "features": [{"type": "Feature", "properties": {"name": "Canal Basin Park", "boundary_type": "park", "boundary_color": "#C08040", "osm_id": "way/1266663439", "operator": "City of Cleveland"}, "geometry": {"type": "Polygon", "coordinates": [[[-81.700849, 41.49598], [-81.700856, 41.495941], [-81.700935, 41.495914], [-81.700999, 41.495837], [-81.701138, 41.495561], [-81.701476, 41.495051], [-81.701743, 41.494625], [-81.701447, 41.4945], [-81.701445, 41.494239], [-81.701029, 41.494224], [-81.700987, 41.494289], [-81.700969, 41.494317], [-81.700874, 41.494437], [-81.70074, 41.4946], [-81.70061, 41.494735], [-81.700602, 41.494744], [-81.700489, 41.49485], [-81.700378, 41.494948], [-81.700203, 41.495092], [-81.699899, 41.495325], [-81.699977, 41.495346], [-81.700054, 41.495406], [-81.700293, 41.495477], [-81.700343, 41.495706], [-81.700412, 41.495801], [-81.700341, 41.495837], [-81.700849, 41.49598]]]}}]}
