{"type": "FeatureCollection", "licence": "Data \u00a9 OpenStreetMap contributors, ODbL 1.0. http://osm.org/copyright", "features": [{"type": "Feature", "properties": {"name": "Cascade Park", "boundary_type": "park", "boundary_color": "#B0894F", "osm_id": "ways/464364020,1091919433", "operator": "City of Akron"}, "geometry": {"type": "MultiPolygon", "coordinates": [[[[-81.517691, 41.091033], [-81.516364, 41.091039], [-81.516327, 41.091028], [-81.516295, 41.091005], [-81.516283, 41.090971], [-81.516407, 41.089955], [-81.517729, 41.090313], [-81.517696, 41.090647], [-81.517691, 41.091033]]], [[[-81.518382, 41.092129], [-81.519339, 41.091556], [-81.519333, 41.091192], [-81.517847, 41.091197], [-81.517829, 41.091256], [-81.517924, 41.091876], [-81.518028, 41.091987], [-81.518061, 41.092019], [-81.518212, 41.092167], [-81.518292, 41.092245], [-81.518365, 41.092351], [-81.518746, 41.092785], [-81.518844, 41.092751], [-81.518382, 41.092129]]]]}}]}
