{"type": "FeatureCollection", "licence": "Data \u00a9 OpenStreetMap contributors, ODbL 1.0. http://osm.org/copyright", "features": [{"type": "Feature", "properties": {"name": "Cascade Valley Metro Park", "boundary_type": "park", "boundary_color": "#2E8B57", "osm_id": "relation/14962727", "operator": "Summit Metro Parks"}, "geometry": {"type": "MultiPolygon", "coordinates": [[[[-81.510935, 41.122621], [-81.511378, 41.122299], [-81.511979, 41.12168], [-81.512462, 41.120959], [-81.513181, 41.119547], [-81.513363, 41.11874], [-81.513616, 41.11817], [-81.513297, 41.117517], [-81.513414, 41.117174], [-81.514148, 41.116936], [-81.514502, 41.11655], [-81.514968, 41.115906], [-81.515348, 41.115579], [-81.515688, 41.115346], [-81.51605, 41.115087], [-81.516708, 41.115163], [-81.516872, 41.11512], [-81.517135, 41.11457], [-81.517775, 41.11432], [-81.519042, 41.114144], [-81.519682, 41.114058], [-81.519927, 41.114035], [-81.520381, 41.113767], [-81.520817, 41.113276], [-81.523358, 41.112255], [-81.524411, 41.111831], [-81.525001, 41.111659], [-81.525091, 41.112227], [-81.525116, 41.112398], [-81.525146, 41.112599], [-81.525201, 41.112976], [-81.525284, 41.113537], [-81.525314, 41.113736], [-81.52536, 41.114049], [-81.52538, 41.114236], [-81.52538, 41.114423], [-81.525376, 41.114464], [-81.52532, 41.114991], [-81.525286, 41.115309], [-81.52524, 41.115822], [-81.525213, 41.116039], [-81.525177, 41.116334], [-81.525174, 41.116351], [-81.52514, 41.116567], [-81.525086, 41.116941], [-81.525054, 41.117213], [-81.525025, 41.117409], [-81.525014, 41.11753], [-81.524865, 41.118602], [-81.524847, 41.118707], [-81.524826, 41.118834], [-81.524794, 41.119068], [-81.524724, 41.119487], [-81.52469, 41.11972], [-81.524609, 41.120079], [-81.52459, 41.120163], [-81.524575, 41.120232], [-81.524518, 41.120465], [-81.524401, 41.120884], [-81.524294, 41.121131], [-81.524249, 41.121296], [-81.524115, 41.121817], [-81.523989, 41.122275], [-81.523854, 41.122771], [-81.523838, 41.122846], [-81.523702, 41.123522], [-81.523635, 41.123775], [-81.523542, 41.124127], [-81.523453, 41.1245], [-81.523453, 41.124518], [-81.523443, 41.124546], [-81.523385, 41.124826], [-81.522893, 41.125269], [-81.522951, 41.125813], [-81.522998, 41.126127], [-81.523116, 41.12692], [-81.523114, 41.127042], [-81.52308, 41.127207], [-81.523128, 41.127645], [-81.523202, 41.127941], [-81.523213, 41.127986], [-81.523198, 41.127999], [-81.523154, 41.12801], [-81.52303, 41.128057], [-81.522991, 41.128075], [-81.522844, 41.128143], [-81.522743, 41.128196], [-81.522687, 41.128226], [-81.522651, 41.128246], [-81.522633, 41.128256], [-81.522131, 41.128534], [-81.521934, 41.128619], [-81.521899, 41.128634], [-81.521311, 41.128871], [-81.520905, 41.129024], [-81.520822, 41.129056], [-81.520528, 41.129167], [-81.52011, 41.129325], [-81.519631, 41.12955], [-81.519599, 41.129564], [-81.519557, 41.129582], [-81.519557, 41.12952], [-81.51955, 41.126783], [-81.519545, 41.124897], [-81.519402, 41.124241], [-81.519123, 41.124447], [-81.517873, 41.124083], [-81.517562, 41.123732], [-81.517267, 41.12351], [-81.515341, 41.123033], [-81.513279, 41.123479], [-81.512702, 41.123481], [-81.510685, 41.123094], [-81.510935, 41.122621]]], [[[-81.524671, 41.120198], [-81.524758, 41.119565], [-81.52677, 41.119705], [-81.526989, 41.119689], [-81.527248, 41.119595], [-81.527577, 41.1195], [-81.527885, 41.119505], [-81.528196, 41.11963], [-81.528604, 41.119738], [-81.52872, 41.119769], [-81.529007, 41.119801], [-81.529223, 41.11983], [-81.529633, 41.119974], [-81.529976, 41.120027], [-81.53044, 41.120057], [-81.531024, 41.119998], [-81.531587, 41.120001], [-81.53221, 41.120081], [-81.532535, 41.12027], [-81.532857, 41.12055], [-81.533033, 41.120786], [-81.533296, 41.121081], [-81.5335, 41.121465], [-81.533659, 41.121861], [-81.533682, 41.122124], [-81.534406, 41.122241], [-81.534464, 41.122379], [-81.534466, 41.122568], [-81.534475, 41.122616], [-81.534498, 41.122661], [-81.534531, 41.122705], [-81.534584, 41.122745], [-81.534701, 41.122819], [-81.534793, 41.123182], [-81.534943, 41.123386], [-81.535387, 41.123902], [-81.535866, 41.124488], [-81.535983, 41.124612], [-81.536073, 41.124706], [-81.536357, 41.125044], [-81.536426, 41.125118], [-81.536607, 41.125294], [-81.536712, 41.125409], [-81.536772, 41.1254], [-81.536915, 41.125618], [-81.537256, 41.126033], [-81.537518, 41.126512], [-81.537739, 41.126785], [-81.537917, 41.126937], [-81.537797, 41.127063], [-81.537373, 41.127159], [-81.537207, 41.127187], [-81.536886, 41.127014], [-81.536473, 41.126928], [-81.53534, 41.126914], [-81.535324, 41.127032], [-81.535039, 41.129033], [-81.535005, 41.129271], [-81.534984, 41.129416], [-81.534905, 41.129413], [-81.534902, 41.129412], [-81.530895, 41.129253], [-81.530301, 41.129229], [-81.529911, 41.128351], [-81.527211, 41.128278], [-81.527063, 41.128324], [-81.527, 41.128292], [-81.526592, 41.12809], [-81.526444, 41.127934], [-81.526466, 41.127795], [-81.526575, 41.12773], [-81.526603, 41.127566], [-81.52662, 41.126918], [-81.526926, 41.126214], [-81.52724, 41.125753], [-81.527159, 41.125564], [-81.527105, 41.125054], [-81.527047, 41.124755], [-81.526434, 41.124761], [-81.525915, 41.124763], [-81.524932, 41.124765], [-81.524839, 41.124665], [-81.524709, 41.124525], [-81.524471, 41.124268], [-81.524196, 41.123972], [-81.524169, 41.123908], [-81.524151, 41.123866], [-81.524054, 41.123857], [-81.523957, 41.123855], [-81.523854, 41.123853], [-81.523705, 41.12385], [-81.523789, 41.123526], [-81.523945, 41.122836], [-81.523958, 41.122786], [-81.524102, 41.122283], [-81.52422, 41.12189], [-81.524377, 41.121335], [-81.524416, 41.121154], [-81.524481, 41.120918], [-81.524598, 41.120499], [-81.524655, 41.120266], [-81.524671, 41.120198]]]]}}]}
