{"type": "FeatureCollection", "licence": "Data \u00a9 OpenStreetMap contributors, ODbL 1.0. http://osm.org/copyright", "features": [{"type": "Feature", "properties": {"name": "Cleveland Lakefront Reservation", "boundary_type": "park", "boundary_color": "#1E90FF", "osm_id": "relation/3958536", "operator": "Cleveland Metroparks"}, "geometry": {"type": "MultiPolygon", "coordinates": [[[[-81.726264, 41.491659], [-81.726317, 41.491637], [-81.726308, 41.491625], [-81.726651, 41.491485], [-81.726781, 41.491462], [-81.72696, 41.491462], [-81.727111, 41.491492], [-81.727111, 41.491583], [-81.726996, 41.49155], [-81.726874, 41.491539], [-81.726769, 41.491548], [-81.726652, 41.491578], [-81.725976, 41.491854], [-81.72598, 41.491859], [-81.725439, 41.492105], [-81.724908, 41.492363], [-81.724958, 41.49242], [-81.724716, 41.492543], [-81.72454, 41.492611], [-81.724561, 41.492635], [-81.724077, 41.492956], [-81.723864, 41.493098], [-81.723448, 41.493344], [-81.722866, 41.493613], [-81.72249, 41.493802], [-81.721687, 41.494232], [-81.719647, 41.495281], [-81.719212, 41.495545], [-81.718596, 41.495866], [-81.718383, 41.495954], [-81.718156, 41.49602], [-81.717907, 41.496063], [-81.717773, 41.496053], [-81.717337, 41.496293], [-81.716821, 41.496682], [-81.716739, 41.49682], [-81.717295, 41.49666], [-81.717454, 41.496626], [-81.717618, 41.496603], [-81.717966, 41.496586], [-81.718156, 41.496587], [-81.718345, 41.496603], [-81.71853, 41.496633], [-81.718769, 41.496695], [-81.718995, 41.496781], [-81.719154, 41.49686], [-81.719665, 41.497157], [-81.719863, 41.497251], [-81.720174, 41.497374], [-81.720224, 41.497391], [-81.720732, 41.497492], [-81.720367, 41.497686], [-81.720472, 41.497798], [-81.720413, 41.49783], [-81.720422, 41.49784], [-81.720334, 41.497824], [-81.72029, 41.497754], [-81.720185, 41.497766], [-81.72007, 41.497802], [-81.71991, 41.497909], [-81.719937, 41.497932], [-81.719797, 41.498055], [-81.719617, 41.49837], [-81.71914, 41.498694], [-81.718342, 41.499094], [-81.718242, 41.499079], [-81.718202, 41.49903], [-81.717345, 41.499505], [-81.717323, 41.499482], [-81.718182, 41.499007], [-81.71817, 41.498993], [-81.718194, 41.498919], [-81.718597, 41.498741], [-81.719397, 41.498219], [-81.71977, 41.497826], [-81.719666, 41.49781], [-81.719639, 41.497798], [-81.719207, 41.498316], [-81.719099, 41.498265], [-81.71953, 41.497747], [-81.719189, 41.497588], [-81.718764, 41.498107], [-81.718655, 41.498056], [-81.719081, 41.497537], [-81.718871, 41.497439], [-81.718764, 41.497568], [-81.718677, 41.497527], [-81.718784, 41.497399], [-81.718246, 41.497147], [-81.718238, 41.49718], [-81.71807, 41.497183], [-81.717998, 41.497202], [-81.717848, 41.49728], [-81.717812, 41.497242], [-81.717783, 41.497258], [-81.718518, 41.498032], [-81.718346, 41.498124], [-81.71761, 41.49735], [-81.717484, 41.497417], [-81.718521, 41.498521], [-81.718318, 41.498629], [-81.717277, 41.497521], [-81.717142, 41.497583], [-81.718178, 41.49868], [-81.717975, 41.498788], [-81.716933, 41.497684], [-81.716668, 41.497816], [-81.717047, 41.498218], [-81.716779, 41.498361], [-81.716397, 41.497957], [-81.716247, 41.498034], [-81.716756, 41.498571], [-81.717265, 41.498296], [-81.717703, 41.498756], [-81.717424, 41.498906], [-81.717063, 41.498527], [-81.71685, 41.498642], [-81.717315, 41.499131], [-81.71716, 41.499214], [-81.717181, 41.499255], [-81.717162, 41.499305], [-81.716989, 41.499419], [-81.716955, 41.499468], [-81.716982, 41.499528], [-81.717185, 41.499745], [-81.711729, 41.502415], [-81.710052, 41.499856], [-81.710924, 41.499502], [-81.711604, 41.499184], [-81.711729, 41.499319], [-81.712013, 41.499189], [-81.711799, 41.498995], [-81.71153, 41.498752], [-81.711448, 41.498678], [-81.711344, 41.498593], [-81.711162, 41.498445], [-81.71108, 41.498441], [-81.710981, 41.498429], [-81.710892, 41.498397], [-81.710829, 41.49837], [-81.710771, 41.498338], [-81.71075, 41.498307], [-81.710739, 41.498274], [-81.710738, 41.49827], [-81.710735, 41.498241], [-81.710724, 41.49817], [-81.710742, 41.49817], [-81.710764, 41.49817], [-81.710777, 41.498236], [-81.710801, 41.498275], [-81.710838, 41.49831], [-81.710877, 41.49833], [-81.710922, 41.498335], [-81.710958, 41.498331], [-81.710989, 41.498316], [-81.711008, 41.498272], [-81.711006, 41.498197], [-81.711009, 41.498105], [-81.711034, 41.498069], [-81.711062, 41.498049], [-81.711099, 41.498031], [-81.711143, 41.49802], [-81.711187, 41.498018], [-81.711247, 41.498037], [-81.711292, 41.498066], [-81.71131, 41.498106], [-81.711311, 41.498152], [-81.7113, 41.498185], [-81.711253, 41.498233], [-81.711204, 41.498279], [-81.711179, 41.498303], [-81.71118, 41.498327], [-81.711236, 41.498378], [-81.711332, 41.498456], [-81.711373, 41.498489], [-81.711661, 41.498751], [-81.711882, 41.498953], [-81.71209, 41.49915], [-81.712522, 41.498921], [-81.715445, 41.497374], [-81.716331, 41.496905], [-81.716475, 41.496797], [-81.716618, 41.496613], [-81.716732, 41.496508], [-81.717164, 41.496208], [-81.717665, 41.495942], [-81.718444, 41.495535], [-81.72089, 41.494344], [-81.721385, 41.494103], [-81.722302, 41.493628], [-81.72367, 41.49297], [-81.724246, 41.492616], [-81.724628, 41.492469], [-81.72465, 41.49245], [-81.724648, 41.492431], [-81.725358, 41.492076], [-81.725906, 41.491824], [-81.72624, 41.491684], [-81.726264, 41.491659]]], [[[-81.707385, 41.494897], [-81.706963, 41.49474], [-81.706613, 41.494577], [-81.706392, 41.494455], [-81.705949, 41.494171], [-81.705115, 41.493266], [-81.705157, 41.493221], [-81.705538, 41.493564], [-81.705618, 41.493494], [-81.706102, 41.494019], [-81.70616, 41.494034], [-81.706311, 41.494073], [-81.706259, 41.494189], [-81.706455, 41.494317], [-81.706724, 41.494468], [-81.706713, 41.494492], [-81.707165, 41.494703], [-81.707179, 41.494671], [-81.707444, 41.494767], [-81.707432, 41.494794], [-81.707778, 41.494882], [-81.707758, 41.494925], [-81.707931, 41.49497], [-81.707937, 41.494957], [-81.708192, 41.495022], [-81.708687, 41.49515], [-81.70903, 41.495238], [-81.709037, 41.495224], [-81.709524, 41.495347], [-81.709578, 41.49536], [-81.70969, 41.495362], [-81.709748, 41.495364], [-81.70999, 41.495393], [-81.710067, 41.495224], [-81.710642, 41.495371], [-81.711269, 41.49515], [-81.71119, 41.49532], [-81.710867, 41.495429], [-81.710671, 41.495453], [-81.710437, 41.495518], [-81.71031, 41.495537], [-81.710244, 41.495548], [-81.710198, 41.49554], [-81.709999, 41.495493], [-81.709689, 41.495495], [-81.709671, 41.495533], [-81.708516, 41.495237], [-81.708528, 41.495211], [-81.70842, 41.495183], [-81.708075, 41.495097], [-81.708064, 41.49512], [-81.707711, 41.495029], [-81.707604, 41.495264], [-81.707259, 41.495176], [-81.707385, 41.494897]]], [[[-81.748853, 41.488395], [-81.73933, 41.491687], [-81.737729, 41.492271], [-81.737947, 41.492786], [-81.736675, 41.493148], [-81.736439, 41.492706], [-81.732729, 41.494032], [-81.729579, 41.496061], [-81.728801, 41.495359], [-81.728293, 41.495181], [-81.72716, 41.495184], [-81.727157, 41.491762], [-81.727257, 41.491726], [-81.727498, 41.491783], [-81.727745, 41.491828], [-81.727994, 41.491861], [-81.728246, 41.491882], [-81.728626, 41.491889], [-81.729005, 41.491868], [-81.729504, 41.491918], [-81.732105, 41.490949], [-81.732194, 41.490924], [-81.732335, 41.490913], [-81.732473, 41.490935], [-81.732724, 41.491026], [-81.732873, 41.491115], [-81.733125, 41.491191], [-81.733328, 41.491138], [-81.733314, 41.491024], [-81.73333, 41.490909], [-81.73347, 41.490499], [-81.733438, 41.490277], [-81.733557, 41.490216], [-81.73365, 41.490148], [-81.733747, 41.490065], [-81.733907, 41.489929], [-81.734125, 41.489765], [-81.734346, 41.489614], [-81.734667, 41.489427], [-81.734903, 41.489306], [-81.735721, 41.488898], [-81.737039, 41.48824], [-81.737689, 41.487943], [-81.738341, 41.487643], [-81.7389, 41.487392], [-81.739034, 41.487335], [-81.739602, 41.487125], [-81.739824, 41.487055], [-81.739992, 41.487003], [-81.740471, 41.486869], [-81.742152, 41.486446], [-81.742823, 41.486276], [-81.743258, 41.486166], [-81.743473, 41.486123], [-81.743787, 41.486054], [-81.744345, 41.485927], [-81.744412, 41.485909], [-81.744774, 41.485813], [-81.745154, 41.485698], [-81.745391, 41.485627], [-81.745619, 41.485568], [-81.745838, 41.485528], [-81.746076, 41.485494], [-81.746272, 41.485481], [-81.746474, 41.485475], [-81.746704, 41.485476], [-81.746947, 41.485492], [-81.747175, 41.485519], [-81.747367, 41.485553], [-81.747531, 41.485584], [-81.747725, 41.485634], [-81.747916, 41.485694], [-81.748185, 41.485784], [-81.748455, 41.485884], [-81.748954, 41.486063], [-81.749372, 41.48622], [-81.749591, 41.486287], [-81.749825, 41.486335], [-81.750056, 41.486368], [-81.750241, 41.486379], [-81.750401, 41.486376], [-81.750569, 41.486364], [-81.750747, 41.486339], [-81.750943, 41.486297], [-81.751143, 41.486239], [-81.751666, 41.486036], [-81.751712, 41.48602], [-81.751733, 41.48601], [-81.751778, 41.486008], [-81.751827, 41.486025], [-81.751929, 41.486084], [-81.751857, 41.486302], [-81.751693, 41.48679], [-81.751664, 41.486877], [-81.751633, 41.486964], [-81.751552, 41.487198], [-81.751595, 41.48762], [-81.751645, 41.487798], [-81.751696, 41.487917], [-81.751785, 41.488068], [-81.751893, 41.488174], [-81.752029, 41.488268], [-81.752148, 41.48832], [-81.752162, 41.488326], [-81.752439, 41.488401], [-81.753276, 41.488628], [-81.753573, 41.488674], [-81.753748, 41.488674], [-81.753884, 41.488652], [-81.754, 41.488606], [-81.754072, 41.488561], [-81.754147, 41.4885], [-81.75432, 41.488309], [-81.75433, 41.488293], [-81.754466, 41.488088], [-81.754504, 41.488323], [-81.754521, 41.48843], [-81.754545, 41.488498], [-81.754615, 41.488611], [-81.754728, 41.488719], [-81.754908, 41.488854], [-81.755126, 41.488944], [-81.75575, 41.489082], [-81.755791, 41.489092], [-81.755699, 41.489362], [-81.755529, 41.489896], [-81.752919, 41.489879], [-81.750885, 41.489224], [-81.748853, 41.488395]]], [[[-81.747094, 41.485218], [-81.746129, 41.485152], [-81.746485, 41.484969], [-81.749346, 41.485484], [-81.75149, 41.48587], [-81.751284, 41.485953], [-81.751228, 41.485975], [-81.751171, 41.485995], [-81.751113, 41.486014], [-81.751054, 41.486031], [-81.750995, 41.486047], [-81.750935, 41.486061], [-81.750874, 41.486073], [-81.750813, 41.486084], [-81.750751, 41.486093], [-81.750689, 41.486101], [-81.750627, 41.486107], [-81.750564, 41.486111], [-81.750501, 41.486114], [-81.750438, 41.486115], [-81.750376, 41.486114], [-81.750313, 41.486112], [-81.75025, 41.486108], [-81.750187, 41.486103], [-81.750125, 41.486096], [-81.750063, 41.486087], [-81.750002, 41.486077], [-81.749941, 41.486065], [-81.749881, 41.486051], [-81.749821, 41.486036], [-81.749762, 41.486019], [-81.749704, 41.486001], [-81.749647, 41.485981], [-81.748659, 41.485625], [-81.748495, 41.485566], [-81.748264, 41.485483], [-81.74814, 41.48544], [-81.748014, 41.485401], [-81.747887, 41.485365], [-81.747758, 41.485332], [-81.747627, 41.485302], [-81.747496, 41.485276], [-81.747363, 41.485253], [-81.747229, 41.485234], [-81.747094, 41.485218]]], [[[-81.744843, 41.484627], [-81.745005, 41.484657], [-81.745028, 41.484661], [-81.74561, 41.484772], [-81.745753, 41.484802], [-81.745785, 41.484813], [-81.745814, 41.484833], [-81.745835, 41.484859], [-81.745844, 41.484879], [-81.745847, 41.484915], [-81.745839, 41.484944], [-81.745828, 41.484962], [-81.745811, 41.484979], [-81.745766, 41.485004], [-81.74554, 41.485116], [-81.74548, 41.485147], [-81.745234, 41.485155], [-81.745082, 41.485161], [-81.744909, 41.485183], [-81.744688, 41.485215], [-81.744476, 41.48526], [-81.744259, 41.485324], [-81.74409, 41.485384], [-81.743961, 41.485439], [-81.743697, 41.485566], [-81.743322, 41.485739], [-81.743231, 41.485777], [-81.743029, 41.485862], [-81.742736, 41.485963], [-81.742365, 41.486076], [-81.741414, 41.486339], [-81.740032, 41.486691], [-81.73939, 41.486889], [-81.738768, 41.487119], [-81.738167, 41.487379], [-81.736387, 41.48821], [-81.735919, 41.488428], [-81.7358, 41.488475], [-81.735027, 41.488785], [-81.734525, 41.488961], [-81.734469, 41.488981], [-81.734264, 41.489037], [-81.734083, 41.489086], [-81.733502, 41.489229], [-81.73334, 41.489268], [-81.733104, 41.48935], [-81.732973, 41.489413], [-81.732812, 41.489512], [-81.732671, 41.489626], [-81.732551, 41.489754], [-81.732409, 41.48971], [-81.732275, 41.489696], [-81.732122, 41.489709], [-81.73198, 41.489753], [-81.731858, 41.489824], [-81.730638, 41.490757], [-81.730461, 41.490868], [-81.730275, 41.490969], [-81.730079, 41.49106], [-81.729876, 41.49114], [-81.729666, 41.49121], [-81.729339, 41.491294], [-81.729003, 41.491351], [-81.728661, 41.491382], [-81.728316, 41.491386], [-81.727973, 41.491363], [-81.727635, 41.491313], [-81.727205, 41.491236], [-81.730989, 41.489817], [-81.731075, 41.489784], [-81.733927, 41.488715], [-81.734067, 41.488662], [-81.734409, 41.488531], [-81.734632, 41.488445], [-81.734814, 41.488377], [-81.736953, 41.487583], [-81.738129, 41.487131], [-81.739971, 41.486443], [-81.741096, 41.48601], [-81.742136, 41.48563], [-81.742958, 41.485319], [-81.743632, 41.485064], [-81.744843, 41.484627]]], [[[-81.639161, 41.534749], [-81.639161, 41.534653], [-81.639033, 41.534653], [-81.639035, 41.533679], [-81.639696, 41.533349], [-81.639695, 41.535692], [-81.639031, 41.535691], [-81.639033, 41.534749], [-81.639161, 41.534749]]], [[[-81.652088, 41.53081], [-81.652166, 41.530695], [-81.652522, 41.530502], [-81.652718, 41.530374], [-81.652736, 41.530362], [-81.652798, 41.530321], [-81.653692, 41.531227], [-81.653724, 41.531259], [-81.654321, 41.531864], [-81.654471, 41.533466], [-81.648601, 41.536545], [-81.646866, 41.534812], [-81.646856, 41.534574], [-81.646854, 41.534541], [-81.646836, 41.534523], [-81.64675, 41.534439], [-81.646723, 41.534412], [-81.64671, 41.534399], [-81.646952, 41.534193], [-81.647154, 41.533999], [-81.647437, 41.533796], [-81.648144, 41.533361], [-81.648431, 41.53317], [-81.649457, 41.532603], [-81.649629, 41.53277], [-81.651198, 41.531881], [-81.651262, 41.531844], [-81.651325, 41.531804], [-81.651386, 41.531763], [-81.651444, 41.53172], [-81.651501, 41.531676], [-81.651556, 41.53163], [-81.651609, 41.531583], [-81.651659, 41.531534], [-81.651707, 41.531484], [-81.651753, 41.531433], [-81.651796, 41.531381], [-81.651837, 41.531328], [-81.651876, 41.531274], [-81.651911, 41.531218], [-81.651945, 41.531162], [-81.651975, 41.531105], [-81.652003, 41.531047], [-81.652028, 41.530989], [-81.652051, 41.530929], [-81.652071, 41.53087], [-81.652088, 41.53081]]], [[[-81.642005, 41.537436], [-81.641929, 41.537551], [-81.641688, 41.537792], [-81.641094, 41.539463], [-81.636307, 41.542212], [-81.635888, 41.542221], [-81.635019, 41.54264], [-81.634553, 41.542719], [-81.634227, 41.542688], [-81.633342, 41.541829], [-81.633331, 41.541819], [-81.633401, 41.541779], [-81.632654, 41.541065], [-81.632473, 41.541122], [-81.632256, 41.541197], [-81.632159, 41.541233], [-81.631039, 41.541637], [-81.630436, 41.541956], [-81.629664, 41.542296], [-81.629387, 41.542414], [-81.628995, 41.542581], [-81.628371, 41.54294], [-81.628143, 41.543082], [-81.628075, 41.542711], [-81.627712, 41.540425], [-81.627633, 41.540387], [-81.627597, 41.54037], [-81.627564, 41.540354], [-81.627564, 41.540085], [-81.627803, 41.539997], [-81.628059, 41.539942], [-81.628323, 41.539921], [-81.628588, 41.539934], [-81.628847, 41.539981], [-81.628995, 41.540025], [-81.629137, 41.54008], [-81.62927, 41.540146], [-81.629432, 41.54025], [-81.629605, 41.540402], [-81.629842, 41.540671], [-81.629966, 41.540794], [-81.63016, 41.540943], [-81.630381, 41.541077], [-81.630491, 41.541137], [-81.630609, 41.541191], [-81.630719, 41.541219], [-81.630825, 41.541244], [-81.630947, 41.541258], [-81.631071, 41.541264], [-81.631177, 41.541257], [-81.631282, 41.541242], [-81.631404, 41.54121], [-81.631506, 41.541174], [-81.631594, 41.541128], [-81.631677, 41.541074], [-81.631747, 41.541013], [-81.631803, 41.540946], [-81.631848, 41.540873], [-81.631878, 41.540799], [-81.631896, 41.540738], [-81.631899, 41.540677], [-81.631899, 41.540606], [-81.631884, 41.540535], [-81.631802, 41.540151], [-81.631737, 41.539842], [-81.631736, 41.539798], [-81.631755, 41.539756], [-81.631799, 41.539721], [-81.63186, 41.539705], [-81.631986, 41.539703], [-81.634569, 41.539824], [-81.635165, 41.53982], [-81.63576, 41.539783], [-81.636056, 41.539753], [-81.637898, 41.539542], [-81.638192, 41.539466], [-81.638418, 41.539393], [-81.638741, 41.539263], [-81.638947, 41.539162], [-81.639143, 41.539051], [-81.639328, 41.538931], [-81.639822, 41.538567], [-81.639998, 41.538452], [-81.640778, 41.538027], [-81.641906, 41.537371], [-81.641935, 41.5374], [-81.641955, 41.537387], [-81.642005, 41.537436]]]]}}]}
