{"type": "FeatureCollection", "licence": "Data \u00a9 OpenStreetMap contributors, ODbL 1.0. http://osm.org/copyright", "features": [{"type": "Feature", "properties": {"name": "Confluence Metro Park", "boundary_type": "park", "boundary_color": "#3CB371", "osm_id": "way/1183430028", "operator": "Summit Metro Parks"}, "geometry": {"type": "Polygon", "coordinates": [[[-81.549929, 41.02113], [-81.549085, 41.021288], [-81.549238, 41.021674], [-81.548862, 41.021479], [-81.548576, 41.021115], [-81.548479, 41.020767], [-81.548511, 41.020435], [-81.548415, 41.020257], [-81.548522, 41.020111], [-81.548522, 41.019828], [-81.548476, 41.019701], [-81.548393, 41.019609], [-81.548018, 41.019472], [-81.547471, 41.01935], [-81.547106, 41.019391], [-81.546764, 41.019509], [-81.546744, 41.01919], [-81.546741, 41.018769], [-81.546479, 41.01868], [-81.546295, 41.018487], [-81.546242, 41.018284], [-81.546242, 41.018025], [-81.546245, 41.017891], [-81.546225, 41.017789], [-81.546002, 41.017791], [-81.544084, 41.01781], [-81.547411, 41.023005], [-81.54713, 41.023095], [-81.546989, 41.023148], [-81.546892, 41.023218], [-81.546835, 41.02329], [-81.546739, 41.023642], [-81.5476, 41.023678], [-81.547879, 41.023699], [-81.548161, 41.023708], [-81.548432, 41.023704], [-81.548923, 41.023704], [-81.549382, 41.023735], [-81.549512, 41.023757], [-81.549607, 41.023775], [-81.549632, 41.023735], [-81.549741, 41.023609], [-81.549822, 41.02349], [-81.549925, 41.023348], [-81.550065, 41.023109], [-81.550171, 41.022842], [-81.550214, 41.022685], [-81.550237, 41.022501], [-81.550211, 41.022216], [-81.550072, 41.021674], [-81.549929, 41.02113]]]}}]}
