{"type": "FeatureCollection", "licence": "Data \u00a9 OpenStreetMap contributors, ODbL 1.0. http://osm.org/copyright", "features": [{"type": "Feature", "properties": {"name": "Deep Lock Quarry Metro Park", "boundary_type": "park", "boundary_color": "#6B8E23", "osm_id": "way/1118934213", "operator": "Summit Metro Parks"}, "geometry": {"type": "Polygon", "coordinates": [[[-81.550059, 41.241227], [-81.550731, 41.241252], [-81.550765, 41.241253], [-81.550776, 41.24023], [-81.551094, 41.239595], [-81.55121, 41.238809], [-81.554841, 41.238746], [-81.554951, 41.238406], [-81.555004, 41.238194], [-81.555016, 41.238008], [-81.554996, 41.237881], [-81.554957, 41.237721], [-81.554815, 41.237323], [-81.554744, 41.237096], [-81.55467, 41.236782], [-81.554632, 41.236497], [-81.554583, 41.236056], [-81.55453, 41.23523], [-81.554509, 41.234635], [-81.554449, 41.233258], [-81.554439, 41.232673], [-81.55446, 41.232516], [-81.554515, 41.232344], [-81.554627, 41.232059], [-81.55518, 41.230989], [-81.555261, 41.230807], [-81.555321, 41.230618], [-81.555355, 41.230383], [-81.555389, 41.229286], [-81.552819, 41.229261], [-81.552626, 41.229523], [-81.552331, 41.229947], [-81.551964, 41.230336], [-81.551473, 41.230844], [-81.551259, 41.23115], [-81.551181, 41.231327], [-81.55116, 41.231505], [-81.551144, 41.231823], [-81.551173, 41.232007], [-81.551257, 41.232172], [-81.55147, 41.23238], [-81.551744, 41.232622], [-81.551898, 41.232792], [-81.551995, 41.232986], [-81.552193, 41.233514], [-81.5522, 41.233764], [-81.552206, 41.233979], [-81.552172, 41.234317], [-81.552076, 41.234562], [-81.551901, 41.234833], [-81.551703, 41.23496], [-81.551473, 41.235325], [-81.551035, 41.236025], [-81.550698, 41.236435], [-81.550516, 41.236857], [-81.550422, 41.237428], [-81.550372, 41.237819], [-81.550366, 41.237963], [-81.550352, 41.238312], [-81.550347, 41.238388], [-81.550335, 41.238464], [-81.550335, 41.238628], [-81.550335, 41.238801], [-81.550305, 41.238906], [-81.550295, 41.238999], [-81.550294, 41.239012], [-81.550297, 41.239093], [-81.550307, 41.23915], [-81.550311, 41.239172], [-81.550301, 41.239446], [-81.550308, 41.239499], [-81.550308, 41.239535], [-81.550307, 41.239551], [-81.550298, 41.239604], [-81.550281, 41.239655], [-81.550263, 41.239684], [-81.550247, 41.239699], [-81.550223, 41.239732], [-81.550215, 41.23975], [-81.550208, 41.239793], [-81.550218, 41.239836], [-81.550232, 41.23986], [-81.55025, 41.239881], [-81.550285, 41.239907], [-81.550304, 41.239929], [-81.550312, 41.239947], [-81.550322, 41.239967], [-81.550338, 41.240029], [-81.550338, 41.240073], [-81.550333, 41.240096], [-81.550322, 41.240143], [-81.550291, 41.240183], [-81.550266, 41.240226], [-81.550246, 41.24027], [-81.550242, 41.240297], [-81.550232, 41.240404], [-81.550231, 41.240484], [-81.550245, 41.240713], [-81.550059, 41.241227]]]}}]}
