{"type": "FeatureCollection", "licence": "Data \u00a9 OpenStreetMap contributors, ODbL 1.0. http://osm.org/copyright", "features": [{"type": "Feature", "properties": {"name": "Euclid Creek Reservation", "boundary_type": "park", "boundary_color": "#20B2AA", "osm_id": "relation/3958520", "operator": "Cleveland Metroparks"}, "geometry": {"type": "MultiPolygon", "coordinates": [[[[-81.567644, 41.584436], [-81.568153, 41.584024], [-81.566858, 41.583217], [-81.566616, 41.581259], [-81.566193, 41.580407], [-81.566536, 41.580311], [-81.566975, 41.581197], [-81.567019, 41.58155], [-81.56795, 41.58129], [-81.567915, 41.581404], [-81.567902, 41.581522], [-81.56791, 41.581639], [-81.567949, 41.581783], [-81.568, 41.581884], [-81.56807, 41.581968], [-81.568162, 41.582039], [-81.56829, 41.582102], [-81.568659, 41.582208], [-81.568722, 41.582079], [-81.568951, 41.582015], [-81.569075, 41.581764], [-81.569369, 41.581846], [-81.56953, 41.581801], [-81.569593, 41.581672], [-81.569684, 41.581647], [-81.57019, 41.582667], [-81.571971, 41.581228], [-81.571992, 41.582703], [-81.569186, 41.585397], [-81.566978, 41.587516], [-81.5678, 41.588422], [-81.566786, 41.589302], [-81.563996, 41.588959], [-81.563088, 41.58841], [-81.562274, 41.588105], [-81.562306, 41.588056], [-81.562257, 41.588037], [-81.559653, 41.587062], [-81.560356, 41.586037], [-81.560226, 41.585933], [-81.559979, 41.585837], [-81.560161, 41.585571], [-81.560241, 41.585331], [-81.560419, 41.584999], [-81.560238, 41.584929], [-81.560288, 41.584856], [-81.559314, 41.584478], [-81.559639, 41.584006], [-81.559548, 41.583812], [-81.559467, 41.583768], [-81.559178, 41.583485], [-81.559232, 41.583407], [-81.559055, 41.583365], [-81.559023, 41.583224], [-81.559042, 41.583124], [-81.558933, 41.582704], [-81.55894, 41.582496], [-81.558912, 41.582422], [-81.558759, 41.582333], [-81.560175, 41.581295], [-81.560561, 41.582038], [-81.560745, 41.582337], [-81.560906, 41.582672], [-81.561021, 41.583372], [-81.561098, 41.583558], [-81.561604, 41.583803], [-81.562082, 41.583809], [-81.562208, 41.58398], [-81.562376, 41.584207], [-81.562992, 41.583946], [-81.563048, 41.583923], [-81.562664, 41.583402], [-81.562917, 41.582982], [-81.563666, 41.58271], [-81.567132, 41.58485], [-81.567644, 41.584436]]], [[[-81.524123, 41.550483], [-81.524212, 41.550413], [-81.524289, 41.550336], [-81.524421, 41.550143], [-81.524478, 41.550122], [-81.524568, 41.550132], [-81.524601, 41.549997], [-81.524517, 41.549984], [-81.524476, 41.549957], [-81.524462, 41.549928], [-81.524456, 41.549826], [-81.524884, 41.549794], [-81.524834, 41.549599], [-81.524513, 41.548983], [-81.524502, 41.548825], [-81.524421, 41.548669], [-81.523982, 41.548221], [-81.523425, 41.548193], [-81.523361, 41.548429], [-81.523252, 41.548558], [-81.522995, 41.548557], [-81.522993, 41.548931], [-81.523265, 41.548932], [-81.523338, 41.549073], [-81.523515, 41.549196], [-81.523816, 41.549773], [-81.523859, 41.549905], [-81.523829, 41.550024], [-81.523745, 41.550127], [-81.523509, 41.550226], [-81.523079, 41.550315], [-81.522844, 41.55041], [-81.522814, 41.550329], [-81.522621, 41.550432], [-81.522652, 41.550253], [-81.522678, 41.549922], [-81.522258, 41.54991], [-81.522259, 41.549824], [-81.522008, 41.549828], [-81.521277, 41.549799], [-81.521102, 41.54974], [-81.520581, 41.549738], [-81.520609, 41.546454], [-81.52062, 41.546454], [-81.520622, 41.545594], [-81.520622, 41.545378], [-81.522739, 41.545377], [-81.524061, 41.545376], [-81.525465, 41.545376], [-81.525321, 41.545151], [-81.525102, 41.544632], [-81.525051, 41.544049], [-81.525121, 41.543793], [-81.525515, 41.543388], [-81.525379, 41.54263], [-81.524828, 41.542235], [-81.524704, 41.541889], [-81.524779, 41.541624], [-81.523322, 41.540534], [-81.522127, 41.540677], [-81.52198, 41.54028], [-81.521214, 41.539916], [-81.521196, 41.539642], [-81.520289, 41.538864], [-81.519977, 41.538781], [-81.519459, 41.538176], [-81.519604, 41.537827], [-81.518823, 41.537828], [-81.51882, 41.536802], [-81.519309, 41.536486], [-81.519067, 41.536344], [-81.519201, 41.536215], [-81.518598, 41.535862], [-81.519656, 41.535468], [-81.519563, 41.535311], [-81.519518, 41.535169], [-81.519339, 41.534213], [-81.51927, 41.533612], [-81.519197, 41.53325], [-81.519259, 41.533323], [-81.51934, 41.53339], [-81.519463, 41.533478], [-81.519744, 41.533666], [-81.520087, 41.533901], [-81.519953, 41.53402], [-81.520084, 41.534749], [-81.520103, 41.534825], [-81.520164, 41.534975], [-81.520257, 41.535115], [-81.520313, 41.53518], [-81.520621, 41.535489], [-81.520627, 41.535494], [-81.52095, 41.535785], [-81.521386, 41.536126], [-81.521384, 41.536096], [-81.522124, 41.536663], [-81.522532, 41.53638], [-81.522897, 41.536656], [-81.524548, 41.537901], [-81.524683, 41.5383], [-81.523635, 41.5385], [-81.523743, 41.538623], [-81.523959, 41.538873], [-81.524274, 41.539312], [-81.524822, 41.540025], [-81.525721, 41.540839], [-81.526105, 41.541011], [-81.526958, 41.541621], [-81.528537, 41.543147], [-81.528521, 41.5432], [-81.528074, 41.543743], [-81.528714, 41.545383], [-81.530095, 41.547636], [-81.531498, 41.550432], [-81.533413, 41.55254], [-81.533675, 41.553508], [-81.534627, 41.555173], [-81.535943, 41.556858], [-81.536063, 41.557165], [-81.536118, 41.558179], [-81.536054, 41.558555], [-81.53551, 41.559896], [-81.53463, 41.561245], [-81.534275, 41.561556], [-81.53403, 41.562623], [-81.534143, 41.562858], [-81.535573, 41.563777], [-81.53585, 41.564297], [-81.536646, 41.564916], [-81.536393, 41.565375], [-81.536514, 41.565734], [-81.537698, 41.566695], [-81.535136, 41.568824], [-81.535043, 41.568891], [-81.534839, 41.56901], [-81.534614, 41.569105], [-81.53437, 41.56919], [-81.534398, 41.569311], [-81.534065, 41.569429], [-81.534008, 41.569318], [-81.533744, 41.569411], [-81.533235, 41.568909], [-81.533169, 41.568789], [-81.533141, 41.568738], [-81.532762, 41.56748], [-81.532787, 41.565526], [-81.531265, 41.565358], [-81.529273, 41.564598], [-81.529247, 41.564552], [-81.529284, 41.564505], [-81.529273, 41.564451], [-81.529236, 41.56442], [-81.529166, 41.564407], [-81.528833, 41.563814], [-81.528593, 41.563387], [-81.528532, 41.563313], [-81.528443, 41.563258], [-81.52839, 41.563238], [-81.528277, 41.56322], [-81.528162, 41.563229], [-81.528107, 41.563244], [-81.52801, 41.563292], [-81.527857, 41.563415], [-81.527721, 41.563526], [-81.527577, 41.56368], [-81.527558, 41.563701], [-81.527422, 41.563889], [-81.527198, 41.56389], [-81.527196, 41.563662], [-81.527179, 41.56358], [-81.52713, 41.563506], [-81.527054, 41.563446], [-81.527007, 41.563423], [-81.526904, 41.563395], [-81.526499, 41.563332], [-81.526468, 41.561265], [-81.527329, 41.561098], [-81.528561, 41.560397], [-81.529498, 41.560117], [-81.52905, 41.559446], [-81.528776, 41.559092], [-81.528478, 41.55875], [-81.527688, 41.558327], [-81.527273, 41.557788], [-81.525532, 41.557387], [-81.525251, 41.554866], [-81.526386, 41.555392], [-81.526445, 41.555432], [-81.527805, 41.556357], [-81.528516, 41.556723], [-81.52936, 41.557501], [-81.530272, 41.558229], [-81.530314, 41.558276], [-81.530377, 41.558378], [-81.530542, 41.558377], [-81.530551, 41.558752], [-81.531262, 41.558747], [-81.532889, 41.558734], [-81.53335, 41.55873], [-81.533517, 41.5584], [-81.533825, 41.557796], [-81.533248, 41.556999], [-81.53279, 41.556561], [-81.532363, 41.556442], [-81.53197, 41.556413], [-81.530893, 41.555964], [-81.529916, 41.554935], [-81.529711, 41.554139], [-81.529111, 41.553515], [-81.530357, 41.5535], [-81.530715, 41.552916], [-81.53063, 41.552728], [-81.530482, 41.552635], [-81.52974, 41.552513], [-81.52937, 41.552469], [-81.529196, 41.552413], [-81.528925, 41.552374], [-81.528751, 41.552334], [-81.528395, 41.552214], [-81.528159, 41.552156], [-81.528382, 41.551479], [-81.528337, 41.551406], [-81.528296, 41.551517], [-81.52703, 41.551527], [-81.527026, 41.551324], [-81.528278, 41.551311], [-81.528186, 41.551161], [-81.528068, 41.551012], [-81.527819, 41.550699], [-81.527713, 41.550219], [-81.527709, 41.549426], [-81.527737, 41.549291], [-81.526973, 41.549023], [-81.526964, 41.54886], [-81.526924, 41.54882], [-81.526859, 41.548805], [-81.526881, 41.549982], [-81.526911, 41.551527], [-81.526135, 41.551524], [-81.525566, 41.551521], [-81.525567, 41.551381], [-81.524158, 41.551374], [-81.524158, 41.551305], [-81.524462, 41.551033], [-81.524356, 41.550675], [-81.524123, 41.550483]]]]}}]}
