{"type": "FeatureCollection", "licence": "Data \u00a9 OpenStreetMap contributors, ODbL 1.0. http://osm.org/copyright", "features": [{"type": "Feature", "properties": {"name": "F.A. Seiberling Nature Realm", "boundary_type": "park", "boundary_color": "#48A860", "osm_id": "way/321864947", "operator": "Summit Metro Parks"}, "geometry": {"type": "Polygon", "coordinates": [[[-81.576845, 41.140906], [-81.575907, 41.141008], [-81.575161, 41.14108], [-81.574683, 41.141109], [-81.574214, 41.141122], [-81.573338, 41.141143], [-81.571915, 41.141172], [-81.571914, 41.141149], [-81.571822, 41.135099], [-81.572484, 41.135025], [-81.576296, 41.134598], [-81.576348, 41.137089], [-81.576376, 41.138432], [-81.576382, 41.138698], [-81.577087, 41.1387], [-81.576845, 41.140906]]]}}]}
