{"type": "FeatureCollection", "licence": "Data \u00a9 OpenStreetMap contributors, ODbL 1.0. http://osm.org/copyright", "features": [{"type": "Feature", "properties": {"name": "Firestone Metro Park", "boundary_type": "park", "boundary_color": "#556B2F", "osm_id": "way/279928717", "operator": "Summit Metro Parks"}, "geometry": {"type": "Polygon", "coordinates": [[[-81.523602, 41.010684], [-81.523595, 41.011062], [-81.52357, 41.012481], [-81.523516, 41.014375], [-81.523504, 41.015005], [-81.523484, 41.016027], [-81.523527, 41.017047], [-81.523634, 41.017257], [-81.523806, 41.017508], [-81.524053, 41.017832], [-81.522068, 41.017881], [-81.522099, 41.018984], [-81.522121, 41.019767], [-81.522165, 41.021297], [-81.522262, 41.022266], [-81.522293, 41.022576], [-81.517744, 41.021669], [-81.518152, 41.020325], [-81.518152, 41.019742], [-81.517937, 41.019572], [-81.517701, 41.019095], [-81.517487, 41.019103], [-81.516993, 41.018803], [-81.516605, 41.018859], [-81.516458, 41.020421], [-81.515856, 41.020422], [-81.515856, 41.01958], [-81.514944, 41.0195], [-81.514935, 41.019003], [-81.514449, 41.019004], [-81.514494, 41.020819], [-81.51362, 41.020397], [-81.513657, 41.019548], [-81.513111, 41.019398], [-81.513066, 41.020152], [-81.512466, 41.019856], [-81.512637, 41.017873], [-81.510974, 41.017816], [-81.511071, 41.014246], [-81.511146, 41.014043], [-81.511264, 41.013817], [-81.511436, 41.013631], [-81.511618, 41.01342], [-81.511822, 41.013177], [-81.512122, 41.012999], [-81.512509, 41.012797], [-81.512831, 41.012594], [-81.513045, 41.012424], [-81.513281, 41.012254], [-81.513506, 41.012044], [-81.5137, 41.011817], [-81.513882, 41.01159], [-81.514536, 41.010384], [-81.514772, 41.010101], [-81.515024, 41.010195], [-81.515491, 41.010368], [-81.51606, 41.010514], [-81.516489, 41.010603], [-81.516961, 41.010676], [-81.517229, 41.010692], [-81.518045, 41.010708], [-81.519322, 41.010692], [-81.523602, 41.010684]]]}}]}
