{"type": "FeatureCollection", "licence": "Data \u00a9 OpenStreetMap contributors, ODbL 1.0. http://osm.org/copyright", "features": [{"type": "Feature", "properties": {"name": "Furnace Run Metro Park", "boundary_type": "park", "boundary_color": "#808000", "osm_id": "relation/1290126", "operator": "Summit Metro Parks"}, "geometry": {"type": "Polygon", "coordinates": [[[-81.637647, 41.260165], [-81.637907, 41.260655], [-81.63804, 41.260927], [-81.638183, 41.261229], [-81.638594, 41.262238], [-81.63864, 41.262355], [-81.638733, 41.262592], [-81.638755, 41.262654], [-81.638864, 41.262958], [-81.638964, 41.263222], [-81.639275, 41.264049], [-81.639454, 41.264505], [-81.63961, 41.264922], [-81.639742, 41.265308], [-81.639746, 41.265323], [-81.639794, 41.265529], [-81.639843, 41.265813], [-81.639869, 41.265989], [-81.639898, 41.266186], [-81.639914, 41.266268], [-81.639955, 41.266431], [-81.640019, 41.266618], [-81.640105, 41.266799], [-81.640145, 41.266872], [-81.640234, 41.267015], [-81.640458, 41.267351], [-81.640666, 41.267664], [-81.640865, 41.267957], [-81.641138, 41.268361], [-81.641257, 41.268537], [-81.641536, 41.268961], [-81.641577, 41.269023], [-81.641675, 41.269172], [-81.641846, 41.269432], [-81.641995, 41.269648], [-81.642352, 41.270185], [-81.642477, 41.270377], [-81.642713, 41.270739], [-81.642833, 41.270919], [-81.6432, 41.271466], [-81.643281, 41.271587], [-81.643522, 41.271947], [-81.644095, 41.272814], [-81.644475, 41.273388], [-81.644586, 41.273555], [-81.644882, 41.274003], [-81.645287, 41.274616], [-81.64615, 41.27592], [-81.646825, 41.276942], [-81.64704, 41.277334], [-81.646915, 41.277333], [-81.646, 41.277327], [-81.642424, 41.277303], [-81.642298, 41.277302], [-81.640578, 41.276677], [-81.638688, 41.275992], [-81.638631, 41.275827], [-81.638581, 41.275685], [-81.638323, 41.275008], [-81.637958, 41.274428], [-81.637508, 41.274081], [-81.636864, 41.273782], [-81.636858, 41.273255], [-81.636827, 41.270521], [-81.636814, 41.269362], [-81.6368, 41.268138], [-81.636768, 41.267331], [-81.636695, 41.266928], [-81.636607, 41.266436], [-81.636435, 41.26571], [-81.636102, 41.264904], [-81.635523, 41.263743], [-81.634858, 41.262404], [-81.632857, 41.262409], [-81.632323, 41.262404], [-81.631165, 41.262394], [-81.631001, 41.262393], [-81.629498, 41.26238], [-81.629287, 41.262378], [-81.628721, 41.262369], [-81.627134, 41.262375], [-81.626444, 41.262384], [-81.626171, 41.262391], [-81.626012, 41.262395], [-81.625638, 41.262396], [-81.625188, 41.262407], [-81.624768, 41.262408], [-81.624412, 41.262404], [-81.624159, 41.262391], [-81.623968, 41.262374], [-81.623719, 41.262338], [-81.623392, 41.262278], [-81.622998, 41.262191], [-81.622785, 41.262144], [-81.622622, 41.262105], [-81.622376, 41.26206], [-81.622267, 41.262046], [-81.622209, 41.262038], [-81.621684, 41.261997], [-81.621465, 41.261986], [-81.621082, 41.261981], [-81.620805, 41.261978], [-81.62024, 41.261976], [-81.619892, 41.261975], [-81.619399, 41.261974], [-81.619391, 41.261974], [-81.617463, 41.26198], [-81.616314, 41.261983], [-81.616258, 41.261983], [-81.615941, 41.261982], [-81.614995, 41.261979], [-81.614281, 41.261977], [-81.614267, 41.261977], [-81.613336, 41.26198], [-81.613271, 41.259372], [-81.616061, 41.259339], [-81.616104, 41.256395], [-81.622284, 41.25642], [-81.622262, 41.254053], [-81.621531, 41.254051], [-81.621359, 41.254053], [-81.620796, 41.25404], [-81.62005, 41.254029], [-81.619146, 41.254015], [-81.619044, 41.254014], [-81.618587, 41.254011], [-81.618522, 41.25401], [-81.617738, 41.253998], [-81.616377, 41.253977], [-81.615838, 41.253969], [-81.615066, 41.253959], [-81.614552, 41.253951], [-81.614389, 41.253951], [-81.613972, 41.253948], [-81.613885, 41.253947], [-81.612639, 41.253926], [-81.612358, 41.253922], [-81.612352, 41.253922], [-81.612242, 41.25392], [-81.612109, 41.253918], [-81.611228, 41.253907], [-81.611047, 41.253905], [-81.610238, 41.253895], [-81.609998, 41.253891], [-81.609142, 41.253877], [-81.60849, 41.253871], [-81.608338, 41.25387], [-81.608323, 41.253587], [-81.608321, 41.253496], [-81.608314, 41.2532], [-81.608295, 41.252583], [-81.608296, 41.252386], [-81.608273, 41.2514], [-81.608271, 41.251286], [-81.608265, 41.251033], [-81.60825, 41.250349], [-81.608246, 41.250169], [-81.608226, 41.24929], [-81.608223, 41.249182], [-81.608217, 41.248902], [-81.608193, 41.24791], [-81.608187, 41.247651], [-81.608176, 41.247207], [-81.608165, 41.246718], [-81.608147, 41.245978], [-81.611142, 41.245953], [-81.611635, 41.244227], [-81.614403, 41.242727], [-81.614982, 41.243283], [-81.615444, 41.242251], [-81.613823, 41.240418], [-81.613309, 41.240774], [-81.612786, 41.241147], [-81.611174, 41.240919], [-81.609961, 41.24175], [-81.609028, 41.242057], [-81.609026, 41.24354], [-81.608825, 41.243562], [-81.608575, 41.24359], [-81.608079, 41.243651], [-81.607879, 41.243669], [-81.607851, 41.243046], [-81.60773, 41.240298], [-81.604876, 41.24033], [-81.604876, 41.239924], [-81.604876, 41.239117], [-81.604876, 41.237333], [-81.604876, 41.235159], [-81.605396, 41.234889], [-81.605889, 41.234632], [-81.606475, 41.234328], [-81.606861, 41.233658], [-81.609865, 41.232747], [-81.609865, 41.232842], [-81.609865, 41.233287], [-81.611818, 41.234731], [-81.613636, 41.234777], [-81.613738, 41.234779], [-81.613785, 41.234811], [-81.613858, 41.234838], [-81.614385, 41.234951], [-81.614643, 41.235028], [-81.61477, 41.235074], [-81.615157, 41.235239], [-81.615332, 41.235333], [-81.615502, 41.235437], [-81.615708, 41.235575], [-81.616085, 41.235863], [-81.614886, 41.236619], [-81.615948, 41.237676], [-81.617092, 41.236962], [-81.617178, 41.237047], [-81.617309, 41.237154], [-81.617398, 41.237216], [-81.617452, 41.23725], [-81.617634, 41.237366], [-81.618071, 41.237653], [-81.618094, 41.238055], [-81.615905, 41.238636], [-81.615722, 41.239752], [-81.616217, 41.239801], [-81.616731, 41.239857], [-81.617049, 41.239883], [-81.61724, 41.239898], [-81.61738, 41.239904], [-81.61766, 41.239903], [-81.617799, 41.239896], [-81.618068, 41.239872], [-81.618182, 41.239859], [-81.618401, 41.239833], [-81.618534, 41.241863], [-81.619821, 41.241855], [-81.61981, 41.243993], [-81.620122, 41.244437], [-81.61995, 41.245381], [-81.62187, 41.245623], [-81.621978, 41.246252], [-81.62864, 41.246244], [-81.628898, 41.248599], [-81.629059, 41.249696], [-81.629273, 41.25068], [-81.629926, 41.253158], [-81.630766, 41.253152], [-81.63144, 41.25315], [-81.631696, 41.253149], [-81.631958, 41.253149], [-81.632817, 41.253148], [-81.633348, 41.253141], [-81.633746, 41.253135], [-81.634194, 41.253122], [-81.634414, 41.253116], [-81.634544, 41.253112], [-81.634469, 41.253639], [-81.634429, 41.25392], [-81.634365, 41.254426], [-81.634359, 41.254471], [-81.63429, 41.254961], [-81.634243, 41.255225], [-81.63422, 41.255355], [-81.634211, 41.255409], [-81.634192, 41.255513], [-81.634087, 41.255937], [-81.633988, 41.256281], [-81.634161, 41.256343], [-81.634225, 41.256377], [-81.6352, 41.257062], [-81.636088, 41.257703], [-81.636161, 41.257763], [-81.636325, 41.257908], [-81.636435, 41.258024], [-81.636555, 41.258175], [-81.636661, 41.25834], [-81.636717, 41.25844], [-81.636816, 41.258617], [-81.63722, 41.259374], [-81.637439, 41.259772], [-81.637459, 41.259809], [-81.637647, 41.260165]]]}}]}
