{"type": "FeatureCollection", "licence": "Data \u00a9 OpenStreetMap contributors, ODbL 1.0. http://osm.org/copyright", "features": [{"type": "Feature", "properties": {"name": "Garfield Park Reservation", "boundary_type": "park", "boundary_color": "#6B8E23", "osm_id": "relation/3956380", "operator": "Cleveland Metroparks"}, "geometry": {"type": "MultiPolygon", "coordinates": [[[[-81.60039, 41.42466], [-81.600393, 41.424194], [-81.600395, 41.423839], [-81.600396, 41.423754], [-81.600401, 41.422926], [-81.600791, 41.422923], [-81.60079, 41.422813], [-81.601629, 41.422807], [-81.601636, 41.423976], [-81.601637, 41.424071], [-81.604443, 41.424053], [-81.604424, 41.426732], [-81.605137, 41.426954], [-81.605491, 41.427175], [-81.605771, 41.427552], [-81.605897, 41.428119], [-81.608682, 41.4281], [-81.608676, 41.42844], [-81.611365, 41.428405], [-81.611353, 41.430223], [-81.611904, 41.430216], [-81.613755, 41.430192], [-81.615118, 41.430174], [-81.615718, 41.430167], [-81.616134, 41.430708], [-81.612309, 41.430757], [-81.612207, 41.430758], [-81.612179, 41.433403], [-81.611041, 41.433399], [-81.610144, 41.433395], [-81.609239, 41.433392], [-81.609238, 41.433913], [-81.609234, 41.435524], [-81.606818, 41.43396], [-81.605561, 41.433535], [-81.605011, 41.433349], [-81.603011, 41.432673], [-81.60231, 41.432436], [-81.600347, 41.431321], [-81.60035, 41.430933], [-81.600574, 41.430972], [-81.60062, 41.430843], [-81.600574, 41.430729], [-81.600354, 41.430592], [-81.600355, 41.430318], [-81.600363, 41.429114], [-81.600387, 41.425229], [-81.60039, 41.42466]], [[-81.60063, 41.431178], [-81.600528, 41.431151], [-81.600528, 41.431151], [-81.60053, 41.431193], [-81.60053, 41.431193], [-81.60054, 41.431235], [-81.602728, 41.432478], [-81.603445, 41.432721], [-81.603446, 41.432721], [-81.603446, 41.43272], [-81.601006, 41.431336], [-81.600918, 41.431289], [-81.600825, 41.431247], [-81.600729, 41.43121], [-81.60063, 41.431178]]], [[[-81.616053, 41.437824], [-81.616178, 41.438014], [-81.616349, 41.438083], [-81.616394, 41.438051], [-81.618085, 41.43942], [-81.617584, 41.439767], [-81.617435, 41.44004], [-81.617627, 41.44027], [-81.618064, 41.440544], [-81.618498, 41.440756], [-81.618693, 41.440851], [-81.619171, 41.440687], [-81.619331, 41.4409], [-81.61949, 41.441113], [-81.619865, 41.441368], [-81.620343, 41.441496], [-81.620851, 41.441491], [-81.621156, 41.44172], [-81.621411, 41.441838], [-81.621695, 41.441923], [-81.622004, 41.441915], [-81.622297, 41.441841], [-81.622549, 41.441706], [-81.622739, 41.441522], [-81.62285, 41.441305], [-81.622874, 41.441073], [-81.622815, 41.44082], [-81.623512, 41.441972], [-81.623014, 41.442142], [-81.623206, 41.442459], [-81.62307, 41.442483], [-81.622979, 41.442573], [-81.622488, 41.44266], [-81.621947, 41.442412], [-81.619932, 41.441772], [-81.617487, 41.440707], [-81.616545, 41.438848], [-81.615185, 41.437985], [-81.614309, 41.437818], [-81.613923, 41.437793], [-81.61319, 41.437974], [-81.613067, 41.438004], [-81.612551, 41.43767], [-81.612487, 41.436646], [-81.612346, 41.434392], [-81.612388, 41.434392], [-81.612393, 41.434015], [-81.612684, 41.434013], [-81.612689, 41.434387], [-81.613545, 41.434375], [-81.613812, 41.434371], [-81.614075, 41.434787], [-81.61454, 41.435521], [-81.615058, 41.436338], [-81.615382, 41.43685], [-81.61555, 41.437116], [-81.615907, 41.437114], [-81.615912, 41.437556], [-81.615954, 41.437716], [-81.616053, 41.437824]]], [[[-81.624879, 41.444131], [-81.624682, 41.444342], [-81.624501, 41.443853], [-81.624356, 41.443686], [-81.624053, 41.443564], [-81.623369, 41.443207], [-81.622808, 41.442781], [-81.623887, 41.442591], [-81.624265, 41.443215], [-81.624959, 41.44397], [-81.624879, 41.444131]]], [[[-81.626104, 41.445099], [-81.626063, 41.445142], [-81.625189, 41.445181], [-81.625181, 41.445012], [-81.626006, 41.444641], [-81.626043, 41.445117], [-81.626104, 41.445099]]], [[[-81.62622, 41.444086], [-81.626444, 41.444085], [-81.627579, 41.44408], [-81.62758, 41.444245], [-81.627516, 41.44429], [-81.62744, 41.444343], [-81.627389, 41.444419], [-81.627347, 41.444422], [-81.627265, 41.444569], [-81.626883, 41.44475], [-81.626833, 41.444817], [-81.627113, 41.444876], [-81.627035, 41.444968], [-81.626968, 41.444951], [-81.626945, 41.444946], [-81.626682, 41.444797], [-81.626549, 41.444725], [-81.626407, 41.444638], [-81.626208, 41.444619], [-81.625822, 41.444632], [-81.625816, 41.44462], [-81.625176, 41.444914], [-81.62515, 41.44436], [-81.625144, 41.444224], [-81.625899, 41.444184], [-81.625891, 41.444154], [-81.625883, 41.444123], [-81.625874, 41.444088], [-81.626074, 41.444087], [-81.62622, 41.444086]]]]}}]}
