{"type": "FeatureCollection", "licence": "Data \u00a9 OpenStreetMap contributors, ODbL 1.0. http://osm.org/copyright", "features": [{"type": "Feature", "properties": {"name": "Goodyear Heights Metro Park", "boundary_type": "park", "boundary_color": "#228B22", "osm_id": "way/422736187", "operator": "Summit Metro Parks"}, "geometry": {"type": "Polygon", "coordinates": [[[-81.459717, 41.084465], [-81.459712, 41.084503], [-81.45969, 41.084527], [-81.459661, 41.084539], [-81.459602, 41.084539], [-81.454528, 41.084433], [-81.454521, 41.082512], [-81.452994, 41.08244], [-81.450886, 41.082413], [-81.450823, 41.084322], [-81.443774, 41.084201], [-81.44383, 41.082768], [-81.44386, 41.081985], [-81.441829, 41.08195], [-81.441863, 41.081117], [-81.442754, 41.081147], [-81.443892, 41.081184], [-81.443935, 41.079607], [-81.443377, 41.079567], [-81.443388, 41.079357], [-81.443678, 41.078855], [-81.444181, 41.07822], [-81.444697, 41.077569], [-81.444711, 41.077379], [-81.444738, 41.077011], [-81.444784, 41.076397], [-81.445094, 41.075952], [-81.443817, 41.075369], [-81.442086, 41.075366], [-81.442131, 41.073674], [-81.442158, 41.073068], [-81.44268, 41.073064], [-81.442658, 41.072514], [-81.44412, 41.072541], [-81.451255, 41.072674], [-81.452207, 41.072692], [-81.452185, 41.075976], [-81.455704, 41.076049], [-81.455713, 41.07589], [-81.45579, 41.074366], [-81.45682, 41.074407], [-81.457049, 41.074603], [-81.457593, 41.07541], [-81.457737, 41.075647], [-81.4579, 41.075925], [-81.45821, 41.076501], [-81.458435, 41.076841], [-81.458843, 41.077358], [-81.45884, 41.077899], [-81.458788, 41.077975], [-81.45874, 41.078044], [-81.458333, 41.077951], [-81.458322, 41.079828], [-81.458796, 41.079826], [-81.45877, 41.080374], [-81.458725, 41.081323], [-81.458828, 41.081493], [-81.459093, 41.081555], [-81.459272, 41.081597], [-81.459369, 41.081609], [-81.459799, 41.081661], [-81.459717, 41.084465]]]}}]}
