{"type": "FeatureCollection", "licence": "Data \u00a9 OpenStreetMap contributors, ODbL 1.0. http://osm.org/copyright", "features": [{"type": "Feature", "properties": {"name": "Gorge Metro Park", "boundary_type": "park", "boundary_color": "#008B8B", "osm_id": "way/324814067", "operator": "Summit Metro Parks"}, "geometry": {"type": "Polygon", "coordinates": [[[-81.509145, 41.121927], [-81.508462, 41.124422], [-81.507595, 41.12446], [-81.507073, 41.12434], [-81.506472, 41.124179], [-81.504273, 41.124197], [-81.503404, 41.124346], [-81.502831, 41.12449], [-81.502562, 41.124529], [-81.502087, 41.124598], [-81.501328, 41.12462], [-81.500564, 41.124635], [-81.500075, 41.124631], [-81.499158, 41.124588], [-81.498255, 41.124544], [-81.497991, 41.124446], [-81.497285, 41.124439], [-81.496867, 41.124233], [-81.496507, 41.124157], [-81.495754, 41.124128], [-81.495019, 41.124136], [-81.494884, 41.124088], [-81.494817, 41.123962], [-81.494817, 41.123705], [-81.494769, 41.123322], [-81.494649, 41.123137], [-81.494304, 41.122928], [-81.494129, 41.122775], [-81.493948, 41.122616], [-81.493645, 41.12238], [-81.493549, 41.122199], [-81.493315, 41.122152], [-81.493294, 41.122059], [-81.49324, 41.121808], [-81.493194, 41.12157], [-81.493106, 41.121416], [-81.492881, 41.121176], [-81.492708, 41.121034], [-81.492556, 41.120909], [-81.492553, 41.120855], [-81.491934, 41.120583], [-81.49197, 41.120464], [-81.492006, 41.120402], [-81.492011, 41.12035], [-81.49197, 41.120217], [-81.491904, 41.120166], [-81.491849, 41.120177], [-81.491722, 41.120293], [-81.491572, 41.120369], [-81.491366, 41.120486], [-81.491067, 41.12067], [-81.490896, 41.120791], [-81.490973, 41.120874], [-81.490927, 41.120907], [-81.490785, 41.1209], [-81.490621, 41.120927], [-81.490467, 41.120973], [-81.490585, 41.12105], [-81.490671, 41.121113], [-81.490717, 41.121189], [-81.490798, 41.121248], [-81.490692, 41.121361], [-81.49051, 41.121434], [-81.490411, 41.121386], [-81.49033, 41.12135], [-81.490196, 41.12138], [-81.490105, 41.121422], [-81.490027, 41.121483], [-81.489811, 41.121736], [-81.489711, 41.121776], [-81.489626, 41.121748], [-81.489528, 41.121824], [-81.489627, 41.121899], [-81.489646, 41.121922], [-81.489556, 41.121975], [-81.489293, 41.122066], [-81.489187, 41.122159], [-81.489084, 41.122287], [-81.488942, 41.122446], [-81.488841, 41.122566], [-81.48877, 41.122681], [-81.488819, 41.12288], [-81.488838, 41.123001], [-81.488862, 41.123071], [-81.489069, 41.123175], [-81.489176, 41.123257], [-81.489377, 41.123094], [-81.489398, 41.123096], [-81.489418, 41.123112], [-81.489429, 41.123131], [-81.489233, 41.123301], [-81.489208, 41.123413], [-81.489092, 41.123545], [-81.489005, 41.123667], [-81.488885, 41.123806], [-81.488776, 41.123933], [-81.488577, 41.124114], [-81.488274, 41.124363], [-81.487996, 41.124541], [-81.487818, 41.124685], [-81.487768, 41.124718], [-81.487496, 41.124941], [-81.487407, 41.125046], [-81.487428, 41.125092], [-81.487407, 41.125138], [-81.487375, 41.125207], [-81.487279, 41.125206], [-81.487221, 41.125223], [-81.487164, 41.125228], [-81.487133, 41.125214], [-81.487045, 41.125188], [-81.486932, 41.125381], [-81.486766, 41.125526], [-81.486618, 41.125701], [-81.486693, 41.125718], [-81.486833, 41.125742], [-81.486902, 41.125758], [-81.486931, 41.12579], [-81.486898, 41.125853], [-81.486877, 41.125859], [-81.486855, 41.125866], [-81.486759, 41.125846], [-81.486705, 41.125834], [-81.48659, 41.125818], [-81.486529, 41.125822], [-81.486446, 41.125906], [-81.486408, 41.125992], [-81.486282, 41.12614], [-81.48616, 41.126281], [-81.48599, 41.126479], [-81.485886, 41.126601], [-81.485777, 41.126633], [-81.485637, 41.126824], [-81.485553, 41.126814], [-81.485522, 41.126905], [-81.485506, 41.126954], [-81.48555, 41.126974], [-81.485492, 41.127113], [-81.485735, 41.127187], [-81.485754, 41.127193], [-81.4857, 41.127267], [-81.485422, 41.127173], [-81.485388, 41.127196], [-81.485363, 41.127223], [-81.484979, 41.127669], [-81.484887, 41.127786], [-81.484838, 41.127788], [-81.484769, 41.127903], [-81.484685, 41.127894], [-81.484649, 41.127944], [-81.484632, 41.127954], [-81.484554, 41.128076], [-81.484468, 41.128217], [-81.484322, 41.128454], [-81.484272, 41.128484], [-81.484188, 41.128562], [-81.483331, 41.128314], [-81.483541, 41.127916], [-81.483768, 41.127493], [-81.483949, 41.127262], [-81.484123, 41.127011], [-81.48427, 41.126753], [-81.484308, 41.126653], [-81.484429, 41.126268], [-81.48463, 41.125897], [-81.484784, 41.125646], [-81.484895, 41.125494], [-81.485037, 41.125244], [-81.485184, 41.125039], [-81.485259, 41.125052], [-81.485297, 41.125016], [-81.485431, 41.124788], [-81.485569, 41.124499], [-81.485918, 41.123811], [-81.486431, 41.122968], [-81.486714, 41.122467], [-81.486931, 41.122138], [-81.487139, 41.121802], [-81.48724, 41.121618], [-81.487191, 41.12158], [-81.487188, 41.12153], [-81.487332, 41.121339], [-81.487493, 41.121172], [-81.487636, 41.121105], [-81.487719, 41.121074], [-81.487763, 41.121097], [-81.487877, 41.120962], [-81.488067, 41.120703], [-81.488218, 41.120532], [-81.488476, 41.120263], [-81.48858, 41.120201], [-81.488684, 41.12008], [-81.488798, 41.119891], [-81.488998, 41.119699], [-81.489071, 41.119648], [-81.489085, 41.119556], [-81.489138, 41.11946], [-81.489241, 41.119394], [-81.48945, 41.119272], [-81.489626, 41.119333], [-81.489779, 41.119228], [-81.489917, 41.119124], [-81.489998, 41.119063], [-81.490912, 41.118972], [-81.490981, 41.119039], [-81.491078, 41.118984], [-81.491094, 41.118997], [-81.491117, 41.119], [-81.491152, 41.11898], [-81.491152, 41.118954], [-81.491144, 41.118945], [-81.491315, 41.11885], [-81.491333, 41.118866], [-81.491384, 41.118836], [-81.491368, 41.11882], [-81.491466, 41.118764], [-81.491472, 41.118753], [-81.491557, 41.118702], [-81.491546, 41.118691], [-81.491638, 41.118636], [-81.491644, 41.118617], [-81.491675, 41.118597], [-81.491653, 41.118575], [-81.492233, 41.118241], [-81.492964, 41.118018], [-81.492983, 41.118016], [-81.493169, 41.117991], [-81.49342, 41.117958], [-81.493669, 41.11794], [-81.49379, 41.117444], [-81.493868, 41.117058], [-81.493919, 41.116882], [-81.49472, 41.115301], [-81.494788, 41.115217], [-81.494892, 41.115171], [-81.494965, 41.115444], [-81.494863, 41.115562], [-81.494793, 41.115705], [-81.494771, 41.115958], [-81.494823, 41.11607], [-81.494909, 41.11625], [-81.494827, 41.116363], [-81.494704, 41.11658], [-81.494664, 41.116851], [-81.494774, 41.116836], [-81.494797, 41.117042], [-81.494916, 41.117337], [-81.495032, 41.117576], [-81.495068, 41.117651], [-81.495108, 41.117739], [-81.495263, 41.118121], [-81.495346, 41.118302], [-81.49546, 41.118534], [-81.495578, 41.118836], [-81.495765, 41.119245], [-81.495901, 41.119566], [-81.496063, 41.119928], [-81.496069, 41.11994], [-81.496171, 41.120167], [-81.496227, 41.120291], [-81.496317, 41.120435], [-81.496438, 41.120637], [-81.496501, 41.120708], [-81.496797, 41.121031], [-81.496856, 41.12112], [-81.496911, 41.121202], [-81.496944, 41.121264], [-81.497028, 41.121485], [-81.497076, 41.121586], [-81.497137, 41.121683], [-81.497218, 41.121772], [-81.497667, 41.122055], [-81.498138, 41.12229], [-81.498786, 41.122366], [-81.499516, 41.122413], [-81.500294, 41.122323], [-81.50098, 41.122254], [-81.501796, 41.122124], [-81.502344, 41.122034], [-81.502704, 41.121893], [-81.509145, 41.121927]]]}}]}
