{"type": "FeatureCollection", "licence": "Data \u00a9 OpenStreetMap contributors, ODbL 1.0. http://osm.org/copyright", "features": [{"type": "Feature", "properties": {"name": "Hampton Hills Metro Park", "boundary_type": "park", "boundary_color": "#66CDAA", "osm_id": "way/515714240", "operator": "Summit Metro Parks"}, "geometry": {"type": "Polygon", "coordinates": [[[-81.566976, 41.163801], [-81.568333, 41.166469], [-81.568555, 41.166906], [-81.56962, 41.16901], [-81.567536, 41.169305], [-81.563951, 41.169626], [-81.56325, 41.16984], [-81.561897, 41.170652], [-81.561568, 41.171061], [-81.55684, 41.170955], [-81.556849, 41.17137], [-81.55458, 41.171391], [-81.554522, 41.173012], [-81.55047, 41.172953], [-81.55048, 41.173616], [-81.546885, 41.173569], [-81.546942, 41.17124], [-81.546983, 41.169556], [-81.546985, 41.169455], [-81.544594, 41.169369], [-81.54469, 41.166402], [-81.548691, 41.166456], [-81.550067, 41.166796], [-81.551416, 41.167056], [-81.551628, 41.167097], [-81.5533, 41.167018], [-81.555022, 41.166432], [-81.555491, 41.166175], [-81.556342, 41.165325], [-81.557129, 41.164709], [-81.558011, 41.164257], [-81.559408, 41.163662], [-81.560289, 41.163323], [-81.560785, 41.163276], [-81.561393, 41.163367], [-81.562879, 41.163687], [-81.563931, 41.163913], [-81.564893, 41.16404], [-81.565461, 41.164023], [-81.566976, 41.163801]]]}}]}
