{"type": "FeatureCollection", "licence": "Data \u00a9 OpenStreetMap contributors, ODbL 1.0. http://osm.org/copyright", "features": [{"type": "Feature", "properties": {"name": "Hinckley Reservation", "boundary_type": "park", "boundary_color": "#008B8B", "osm_id": "relation/3956228", "operator": "Cleveland Metroparks"}, "geometry": {"type": "MultiPolygon", "coordinates": [[[[-81.730795, 41.255256], [-81.730827, 41.254624], [-81.734952, 41.254681], [-81.73492, 41.255313], [-81.730795, 41.255256]]], [[[-81.682035, 41.261365], [-81.682044, 41.261036], [-81.682093, 41.261037], [-81.68323, 41.261049], [-81.683518, 41.261052], [-81.685033, 41.260573], [-81.685073, 41.254841], [-81.685171, 41.254842], [-81.689639, 41.25488], [-81.690024, 41.254885], [-81.690839, 41.253546], [-81.691052, 41.253197], [-81.691343, 41.253155], [-81.691361, 41.253154], [-81.691379, 41.253155], [-81.691396, 41.253158], [-81.691413, 41.253163], [-81.691428, 41.25317], [-81.691442, 41.253179], [-81.691477, 41.253203], [-81.691517, 41.253222], [-81.69156, 41.253236], [-81.691606, 41.253244], [-81.691653, 41.253247], [-81.6917, 41.253244], [-81.69176, 41.253515], [-81.692067, 41.254902], [-81.692839, 41.254908], [-81.692854, 41.253481], [-81.692872, 41.251889], [-81.692886, 41.250613], [-81.692928, 41.246731], [-81.692937, 41.245916], [-81.692573, 41.245914], [-81.690927, 41.245905], [-81.68963, 41.242786], [-81.689391, 41.24249], [-81.688161, 41.239927], [-81.688016, 41.239624], [-81.688356, 41.239625], [-81.689872, 41.239629], [-81.689852, 41.241249], [-81.691197, 41.241253], [-81.691204, 41.240698], [-81.693717, 41.240705], [-81.693941, 41.241202], [-81.693962, 41.239642], [-81.694598, 41.239643], [-81.694579, 41.241098], [-81.695215, 41.241103], [-81.695196, 41.24249], [-81.695149, 41.245928], [-81.695065, 41.253579], [-81.695031, 41.256025], [-81.698653, 41.256018], [-81.700891, 41.256014], [-81.701201, 41.257233], [-81.705104, 41.257268], [-81.705104, 41.260938], [-81.704853, 41.260938], [-81.704853, 41.258985], [-81.699254, 41.258972], [-81.697627, 41.258968], [-81.697649, 41.259413], [-81.697224, 41.259412], [-81.697241, 41.259752], [-81.697558, 41.259753], [-81.697666, 41.259753], [-81.697705, 41.260507], [-81.697725, 41.260921], [-81.694965, 41.260915], [-81.688473, 41.260887], [-81.685031, 41.260872], [-81.68342, 41.26138], [-81.682035, 41.261365]]], [[[-81.685592, 41.215485], [-81.69552, 41.215583], [-81.695577, 41.211655], [-81.690339, 41.21168], [-81.690569, 41.212847], [-81.689106, 41.212852], [-81.688079, 41.212575], [-81.685693, 41.210853], [-81.685631, 41.210809], [-81.685639, 41.209993], [-81.682197, 41.210403], [-81.680242, 41.210636], [-81.680246, 41.210557], [-81.680248, 41.210502], [-81.680267, 41.210031], [-81.680325, 41.209498], [-81.680418, 41.208968], [-81.680477, 41.208704], [-81.680621, 41.20818], [-81.680798, 41.207663], [-81.680899, 41.207406], [-81.681126, 41.206899], [-81.681223, 41.206741], [-81.681283, 41.206666], [-81.681351, 41.206596], [-81.681508, 41.206468], [-81.68169, 41.206361], [-81.681789, 41.206315], [-81.681999, 41.206243], [-81.682222, 41.206198], [-81.682337, 41.206185], [-81.682568, 41.20618], [-81.682797, 41.206203], [-81.684565, 41.206487], [-81.684944, 41.206538], [-81.685706, 41.206621], [-81.685782, 41.203233], [-81.685807, 41.202104], [-81.689114, 41.2021], [-81.689116, 41.203482], [-81.690025, 41.203481], [-81.690022, 41.2021], [-81.692236, 41.202097], [-81.692186, 41.206115], [-81.693, 41.206114], [-81.693024, 41.204462], [-81.69366, 41.204462], [-81.693667, 41.20388], [-81.698696, 41.203874], [-81.698719, 41.20209], [-81.703212, 41.202085], [-81.703207, 41.202991], [-81.707051, 41.202982], [-81.706523, 41.204767], [-81.706179, 41.205668], [-81.707428, 41.205667], [-81.706951, 41.207349], [-81.707024, 41.209439], [-81.707889, 41.209441], [-81.707869, 41.208821], [-81.708689, 41.20882], [-81.708638, 41.207353], [-81.708497, 41.207352], [-81.708976, 41.205662], [-81.711833, 41.205654], [-81.71182, 41.203248], [-81.712964, 41.203245], [-81.712957, 41.202049], [-81.720502, 41.202009], [-81.720489, 41.203791], [-81.723946, 41.203772], [-81.72396, 41.20199], [-81.728214, 41.201967], [-81.728186, 41.203461], [-81.729457, 41.203454], [-81.729418, 41.20561], [-81.732294, 41.205509], [-81.73223, 41.209492], [-81.732166, 41.212307], [-81.735176, 41.212316], [-81.735116, 41.216816], [-81.732418, 41.216804], [-81.732386, 41.221865], [-81.728248, 41.222498], [-81.727867, 41.222585], [-81.727682, 41.222639], [-81.727322, 41.222766], [-81.726979, 41.222918], [-81.726658, 41.223094], [-81.72636, 41.223293], [-81.726088, 41.223512], [-81.725846, 41.22375], [-81.725634, 41.224004], [-81.725456, 41.224272], [-81.725312, 41.224551], [-81.72532, 41.224118], [-81.724087, 41.224409], [-81.722253, 41.224842], [-81.72145, 41.225012], [-81.721481, 41.225121], [-81.721535, 41.225313], [-81.721589, 41.225617], [-81.721611, 41.225996], [-81.72159, 41.226283], [-81.721534, 41.226567], [-81.721443, 41.226846], [-81.721033, 41.227737], [-81.721017, 41.22781], [-81.72102, 41.227849], [-81.721053, 41.227922], [-81.721115, 41.227984], [-81.721201, 41.228026], [-81.7213, 41.228045], [-81.721289, 41.228127], [-81.721615, 41.228152], [-81.722387, 41.228186], [-81.721416, 41.229618], [-81.721078, 41.229748], [-81.720561, 41.229339], [-81.718729, 41.228637], [-81.71901, 41.227951], [-81.716537, 41.227761], [-81.716476, 41.227313], [-81.716497, 41.227081], [-81.716221, 41.227086], [-81.716018, 41.227077], [-81.71582, 41.227043], [-81.715633, 41.226986], [-81.71546, 41.226906], [-81.71538, 41.226858], [-81.715239, 41.226748], [-81.715123, 41.226623], [-81.715035, 41.226485], [-81.714665, 41.226663], [-81.714158, 41.226631], [-81.714006, 41.22688], [-81.714097, 41.227801], [-81.710115, 41.228041], [-81.705334, 41.228292], [-81.704696, 41.228309], [-81.699274, 41.227208], [-81.698409, 41.227034], [-81.69844, 41.22461], [-81.692582, 41.224599], [-81.692584, 41.224445], [-81.695403, 41.22445], [-81.695441, 41.221425], [-81.691057, 41.221393], [-81.690475, 41.219752], [-81.690508, 41.218654], [-81.685537, 41.218632], [-81.685489, 41.221333], [-81.684603, 41.221338], [-81.683377, 41.221345], [-81.681073, 41.221358], [-81.680591, 41.22136], [-81.680098, 41.221363], [-81.680063, 41.223752], [-81.680055, 41.224224], [-81.680055, 41.22428], [-81.678964, 41.224261], [-81.67897, 41.224233], [-81.679134, 41.223439], [-81.679042, 41.223278], [-81.678934, 41.223184], [-81.678657, 41.222944], [-81.678622, 41.222633], [-81.678762, 41.222384], [-81.678832, 41.222333], [-81.678919, 41.222396], [-81.67906, 41.222365], [-81.679038, 41.222039], [-81.679081, 41.22164], [-81.678887, 41.22137], [-81.679415, 41.221367], [-81.679756, 41.220063], [-81.680297, 41.219315], [-81.680281, 41.218491], [-81.679176, 41.21854], [-81.679124, 41.21789], [-81.679652, 41.217256], [-81.680423, 41.21701], [-81.680172, 41.216267], [-81.679778, 41.215839], [-81.680086, 41.215137], [-81.685597, 41.215186], [-81.685592, 41.215485]], [[-81.716157, 41.224899], [-81.716079, 41.224864], [-81.715094, 41.22528], [-81.715142, 41.22535], [-81.715183, 41.225424], [-81.715216, 41.225499], [-81.715243, 41.225575], [-81.715261, 41.225653], [-81.715272, 41.225732], [-81.715275, 41.225811], [-81.71527, 41.225886], [-81.715248, 41.226097], [-81.715245, 41.226146], [-81.715249, 41.226217], [-81.715262, 41.226286], [-81.715284, 41.226355], [-81.715315, 41.226421], [-81.715354, 41.226485], [-81.715401, 41.226546], [-81.715456, 41.226602], [-81.715518, 41.226655], [-81.715587, 41.226702], [-81.715661, 41.226744], [-81.715741, 41.226781], [-81.715825, 41.226811], [-81.716157, 41.224899]]]]}}]}
