{"type": "FeatureCollection", "features": [{"type": "Feature", "properties": {"name": "Hudson", "boundary_type": "municipal", "source": "OpenStreetMap via Nominatim", "license": "ODbL 1.0 (http://osm.org/copyright)", "osm_type": "relation", "osm_id": 181817, "retrieved": "2026-06-13"}, "geometry": {"type": "Polygon", "coordinates": [[[-81.489636, 41.213856], [-81.489611, 41.2122046], [-81.489536, 41.207256], [-81.489511, 41.206224], [-81.489436, 41.203056], [-81.489436, 41.202963], [-81.4883235, 41.2029502], [-81.488049, 41.202947], [-81.4876946, 41.2029485], [-81.4870872, 41.2029511], [-81.48688, 41.202952], [-81.486519, 41.202948], [-81.485472, 41.202955], [-81.4848649, 41.2029549], [-81.484238, 41.202954], [-81.483257, 41.202952], [-81.4830692, 41.2029532], [-81.4816024, 41.2029538], [-81.4791567, 41.202955], [-81.4775961, 41.2029586], [-81.4763318, 41.2029615], [-81.475719, 41.202963], [-81.475656, 41.2029622], [-81.475325, 41.20296], [-81.4751049, 41.2029604], [-81.474116, 41.2029624], [-81.4738966, 41.2029628], [-81.4734042, 41.2029639], [-81.473335, 41.202964], [-81.4730305, 41.202969], [-81.4727968, 41.202969], [-81.4725104, 41.2029653], [-81.472177, 41.202961], [-81.471715, 41.202967], [-81.471145, 41.202962], [-81.469952, 41.202966], [-81.469284, 41.202968], [-81.4682266, 41.2029713], [-81.467995, 41.202972], [-81.467515, 41.202969], [-81.467301, 41.20297], [-81.4672359, 41.2029703], [-81.466795, 41.202972], [-81.466461, 41.20297], [-81.4663029, 41.2029711], [-81.466039, 41.202973], [-81.46513, 41.20296], [-81.4646141, 41.202966], [-81.4643572, 41.2029661], [-81.4641534, 41.2029661], [-81.4616827, 41.2029669], [-81.4615841, 41.2029669], [-81.461375, 41.202967], [-81.459387, 41.202966], [-81.4564477, 41.2029577], [-81.455834, 41.202956], [-81.454444, 41.202917], [-81.454094, 41.202934], [-81.453703, 41.202941], [-81.4531361, 41.2029412], [-81.452549, 41.20294], [-81.4522925, 41.202938], [-81.4519475, 41.2029318], [-81.4519154, 41.2029305], [-81.451388, 41.20293], [-81.4511804, 41.2029338], [-81.4499878, 41.202954], [-81.448803, 41.202943], [-81.447497, 41.202952], [-81.447222, 41.2029512], [-81.4471939, 41.202951], [-81.4469133, 41.2029519], [-81.4460897, 41.202947], [-81.4457849, 41.202948], [-81.4446947, 41.2029469], [-81.4444844, 41.2029488], [-81.444239, 41.202951], [-81.443588, 41.202953], [-81.442913, 41.202942], [-81.4424477, 41.2029412], [-81.4421513, 41.2029395], [-81.441675, 41.20294], [-81.4414659, 41.2029386], [-81.440626, 41.202933], [-81.440413, 41.202929], [-81.440207, 41.2029272], [-81.439943, 41.202925], [-81.4394109, 41.2029257], [-81.4385222, 41.2029131], [-81.4385057, 41.2029129], [-81.438339, 41.202935], [-81.4378401, 41.2029387], [-81.4369901, 41.2029391], [-81.435417, 41.20294], [-81.433928, 41.202933], [-81.433623, 41.202937], [-81.4330909, 41.2029358], [-81.4329392, 41.2029355], [-81.4327796, 41.2029361], [-81.4324011, 41.202938], [-81.431779, 41.202941], [-81.430905, 41.202937], [-81.429892, 41.202928], [-81.429722, 41.20293], [-81.4293845, 41.20293], [-81.428219, 41.20293], [-81.427994, 41.20293], [-81.4266785, 41.2029261], [-81.426375, 41.2029252], [-81.4263183, 41.202925], [-81.4260238, 41.2029214], [-81.4254324, 41.2029222], [-81.4252352, 41.202922], [-81.42428, 41.202921], [-81.42419, 41.2029207], [-81.4240611, 41.2029203], [-81.423402, 41.202923], [-81.423101, 41.2029239], [-81.42239, 41.202926], [-81.4223474, 41.2029258], [-81.421771, 41.2029236], [-81.421623, 41.202923], [-81.4212263, 41.2029298], [-81.420372, 41.202925], [-81.4195836, 41.2029328], [-81.41946, 41.202934], [-81.4192759, 41.2029335], [-81.4184, 41.202931], [-81.4183563, 41.2029313], [-81.41784, 41.202935], [-81.415751, 41.202926], [-81.415527, 41.202921], [-81.414882, 41.20292], [-81.4138439, 41.2029102], [-81.413718, 41.202909], [-81.4135102, 41.2029115], [-81.412623, 41.202922], [-81.4124141, 41.2029259], [-81.4122824, 41.2029283], [-81.411574, 41.202917], [-81.411478, 41.202917], [-81.41124, 41.202924], [-81.410911, 41.202936], [-81.4107118, 41.2029346], [-81.4105066, 41.2029332], [-81.40945, 41.202926], [-81.4089978, 41.202927], [-81.408518, 41.202928], [-81.407916, 41.202919], [-81.406833, 41.202913], [-81.40616, 41.202905], [-81.404719, 41.202898], [-81.403314, 41.202897], [-81.402686, 41.20289], [-81.402197, 41.202893], [-81.401868, 41.202897], [-81.401776, 41.202883], [-81.401731, 41.202872], [-81.401707, 41.202863], [-81.4015542, 41.2028628], [-81.3967119, 41.2028565], [-81.3958426, 41.2028553], [-81.3919863, 41.2028503], [-81.392002, 41.203523], [-81.3921155, 41.2140865], [-81.3921169, 41.214221], [-81.392128, 41.21525], [-81.3921275, 41.2162507], [-81.3921265, 41.2183756], [-81.392134, 41.239743], [-81.3921241, 41.2409626], [-81.3921207, 41.2413812], [-81.3920841, 41.2458816], [-81.3920789, 41.2465149], [-81.3918344, 41.2765625], [-81.392631, 41.276555], [-81.3957678, 41.2765584], [-81.3988842, 41.2765618], [-81.400883, 41.276564], [-81.402892, 41.276542], [-81.403431, 41.276527], [-81.40489, 41.276533], [-81.406891, 41.276519], [-81.409028, 41.276519], [-81.409258, 41.276559], [-81.409645, 41.276542], [-81.4099246, 41.2765557], [-81.4111773, 41.2765809], [-81.4116906, 41.2765912], [-81.4119194, 41.2765958], [-81.4128603, 41.2766148], [-81.413119, 41.27662], [-81.4163496, 41.2766265], [-81.4171308, 41.2766281], [-81.4175791, 41.276629], [-81.426518, 41.276647], [-81.426719, 41.276678], [-81.4272289, 41.2766893], [-81.4272501, 41.2766202], [-81.4302986, 41.2768369], [-81.434804, 41.276955], [-81.43728, 41.276955], [-81.437648, 41.276939], [-81.438694, 41.276915], [-81.440521, 41.2767909], [-81.4406518, 41.2767905], [-81.446715, 41.276771], [-81.446732, 41.276664], [-81.45152, 41.276741], [-81.4566802, 41.2768167], [-81.456701, 41.276817], [-81.458855, 41.276848], [-81.463355, 41.276919], [-81.473282, 41.276691], [-81.48026, 41.276768], [-81.480309, 41.276769], [-81.482886, 41.276845], [-81.4866938, 41.2769659], [-81.489435, 41.277053], [-81.4894346, 41.2765846], [-81.4894344, 41.2763272], [-81.489434, 41.275765], [-81.4894359, 41.2756628], [-81.48944, 41.27544], [-81.489445, 41.2753924], [-81.489433, 41.274634], [-81.489434, 41.273482], [-81.4894361, 41.2730795], [-81.4894326, 41.272619], [-81.48943, 41.2722682], [-81.4894401, 41.2718785], [-81.489444, 41.271596], [-81.489446, 41.271236], [-81.489445, 41.270703], [-81.489447, 41.269823], [-81.489448, 41.269591], [-81.489458, 41.268373], [-81.489474, 41.267108], [-81.489454, 41.266163], [-81.489467, 41.2660908], [-81.489461, 41.265863], [-81.489465, 41.265213], [-81.489462, 41.265026], [-81.489469, 41.264499], [-81.4894684, 41.2640278], [-81.489468, 41.263776], [-81.489484, 41.26308], [-81.489482, 41.263014], [-81.489476, 41.262859], [-81.489474, 41.262496], [-81.489478, 41.262302], [-81.489476, 41.261927], [-81.48948, 41.261568], [-81.4894764, 41.261506], [-81.489469, 41.261378], [-81.48945, 41.261236], [-81.48941, 41.261116], [-81.489346, 41.260999], [-81.489264, 41.260892], [-81.489139, 41.260775], [-81.488968, 41.260603], [-81.488746, 41.26029], [-81.4889741, 41.2603954], [-81.489536, 41.260655], [-81.489539, 41.26024], [-81.489534, 41.258018], [-81.48954, 41.257847], [-81.489549, 41.25762], [-81.489444, 41.255286], [-81.4894392, 41.2535504], [-81.4894371, 41.2528078], [-81.489437, 41.252756], [-81.489467, 41.246032], [-81.4894672, 41.2459921], [-81.4894725, 41.2448674], [-81.4894768, 41.2439783], [-81.4894879, 41.2419721], [-81.489488, 41.2416096], [-81.4894897, 41.2412546], [-81.4894932, 41.2405111], [-81.4895108, 41.2367977], [-81.4895158, 41.2357485], [-81.489525, 41.233801], [-81.4895314, 41.232542], [-81.489532, 41.232419], [-81.48953, 41.232085], [-81.489338, 41.231734], [-81.489174, 41.231209], [-81.489155, 41.230643], [-81.489247, 41.229898], [-81.489269, 41.229056], [-81.489291, 41.228934], [-81.489369, 41.228667], [-81.489517, 41.22819], [-81.489634, 41.227814], [-81.489577, 41.225954], [-81.48952, 41.22232], [-81.489478, 41.220032], [-81.489535, 41.216836], [-81.489536, 41.216756], [-81.489636, 41.213856]]]}}]}
