{"type": "FeatureCollection", "licence": "Data \u00a9 OpenStreetMap contributors, ODbL 1.0. http://osm.org/copyright", "features": [{"type": "Feature", "properties": {"name": "Huntington Reservation", "boundary_type": "park", "boundary_color": "#4682B4", "osm_id": "way/999310008", "operator": "Cleveland Metroparks"}, "geometry": {"type": "Polygon", "coordinates": [[[-81.937907, 41.490514], [-81.937911, 41.490425], [-81.937975, 41.488745], [-81.938051, 41.486952], [-81.938125, 41.48518], [-81.938127, 41.485144], [-81.936988, 41.48512], [-81.936782, 41.485118], [-81.936601, 41.485115], [-81.930882, 41.485179], [-81.931016, 41.485609], [-81.931258, 41.486166], [-81.931318, 41.4866], [-81.930561, 41.486577], [-81.930556, 41.486878], [-81.930191, 41.486865], [-81.930157, 41.489032], [-81.930153, 41.489257], [-81.930138, 41.490205], [-81.930144, 41.490345], [-81.930142, 41.49063], [-81.931283, 41.491036], [-81.933668, 41.491338], [-81.935381, 41.491507], [-81.937023, 41.491616], [-81.937888, 41.491559], [-81.937889, 41.491306], [-81.937892, 41.491178], [-81.937907, 41.490514]]]}}]}
