{"type": "FeatureCollection", "licence": "Data \u00a9 OpenStreetMap contributors, ODbL 1.0. http://osm.org/copyright", "features": [{"type": "Feature", "properties": {"name": "Liberty Park", "boundary_type": "park", "boundary_color": "#8FBC8F", "osm_id": "ways/466199380,466200710,553210214,553214856", "operator": "Summit Metro Parks"}, "geometry": {"type": "MultiPolygon", "coordinates": [[[[-81.393967, 41.306355], [-81.394051, 41.30145], [-81.400188, 41.304741], [-81.400225, 41.303773], [-81.394089, 41.300463], [-81.394089, 41.298335], [-81.392222, 41.298351], [-81.389388, 41.285408], [-81.392124, 41.284636], [-81.39466, 41.28799], [-81.395503, 41.288915], [-81.396319, 41.289608], [-81.397145, 41.290215], [-81.397242, 41.290285], [-81.398797, 41.291172], [-81.401587, 41.292833], [-81.404548, 41.294808], [-81.408711, 41.297556], [-81.410336, 41.298665], [-81.410031, 41.299677], [-81.411702, 41.300189], [-81.411665, 41.300371], [-81.409956, 41.29988], [-81.409582, 41.301501], [-81.405482, 41.301487], [-81.405828, 41.297972], [-81.401685, 41.297949], [-81.401792, 41.302252], [-81.401052, 41.302438], [-81.401143, 41.304488], [-81.401151, 41.304669], [-81.399567, 41.305048], [-81.399487, 41.305067], [-81.393967, 41.306355]]], [[[-81.409528, 41.292549], [-81.404023, 41.29242], [-81.401388, 41.292358], [-81.405451, 41.295091], [-81.409316, 41.297654], [-81.411694, 41.296899], [-81.410449, 41.294398], [-81.409677, 41.292848], [-81.409528, 41.292549]]], [[[-81.419025, 41.334599], [-81.409651, 41.334592], [-81.40966, 41.333909], [-81.409691, 41.331631], [-81.416328, 41.331689], [-81.416981, 41.331694], [-81.417003, 41.33208], [-81.418987, 41.332067], [-81.419025, 41.334599]]], [[[-81.418969, 41.334599], [-81.416424, 41.334597], [-81.409651, 41.334592], [-81.40682, 41.33459], [-81.406712, 41.332531], [-81.399271, 41.332499], [-81.39916, 41.330271], [-81.399036, 41.327788], [-81.398685, 41.327785], [-81.396387, 41.327765], [-81.395177, 41.327692], [-81.393548, 41.327221], [-81.393113, 41.327096], [-81.391859, 41.327026], [-81.392043, 41.325742], [-81.392138, 41.325594], [-81.395456, 41.325166], [-81.394966, 41.323433], [-81.391836, 41.324477], [-81.391855, 41.317356], [-81.391863, 41.314622], [-81.391864, 41.313979], [-81.391821, 41.31255], [-81.391824, 41.309472], [-81.391883, 41.307017], [-81.403941, 41.304085], [-81.40387, 41.304922], [-81.404665, 41.304996], [-81.404673, 41.305708], [-81.410527, 41.305886], [-81.410623, 41.310195], [-81.416274, 41.311588], [-81.416469, 41.310578], [-81.418451, 41.310868], [-81.418421, 41.310397], [-81.419121, 41.310401], [-81.419831, 41.310711], [-81.419289, 41.312479], [-81.419194, 41.317662], [-81.41905, 41.325447], [-81.419021, 41.327013], [-81.418977, 41.329428], [-81.418974, 41.329614], [-81.418973, 41.329889], [-81.418969, 41.334599]]]]}}]}
