{"type": "FeatureCollection", "licence": "Data \u00a9 OpenStreetMap contributors, ODbL 1.0. http://osm.org/copyright", "features": [{"type": "Feature", "properties": {"name": "Mill Stream Run Reservation", "boundary_type": "park", "boundary_color": "#2F8F6F", "osm_id": "relation/3951437", "operator": "Cleveland Metroparks"}, "geometry": {"type": "MultiPolygon", "coordinates": [[[[-81.777327, 41.292927], [-81.777331, 41.292189], [-81.777331, 41.292152], [-81.777333, 41.291524], [-81.777334, 41.291465], [-81.777739, 41.291464], [-81.777736, 41.291524], [-81.777712, 41.291923], [-81.777697, 41.292189], [-81.777654, 41.292926], [-81.778048, 41.292925], [-81.779274, 41.29292], [-81.780633, 41.292915], [-81.780662, 41.292371], [-81.780674, 41.292145], [-81.781864, 41.292141], [-81.783364, 41.291931], [-81.783364, 41.292045], [-81.783367, 41.292537], [-81.783371, 41.293444], [-81.783374, 41.29396], [-81.783376, 41.294402], [-81.783377, 41.294708], [-81.783378, 41.29481], [-81.782598, 41.294812], [-81.782548, 41.297241], [-81.78349, 41.297222], [-81.785155, 41.297188], [-81.785184, 41.297188], [-81.78524, 41.297187], [-81.785244, 41.2979], [-81.785181, 41.297901], [-81.783658, 41.297905], [-81.783661, 41.298454], [-81.784009, 41.298453], [-81.784016, 41.299835], [-81.784018, 41.300374], [-81.783727, 41.300375], [-81.783511, 41.300924], [-81.783513, 41.301199], [-81.784022, 41.301197], [-81.784024, 41.301472], [-81.782029, 41.301501], [-81.782371, 41.302057], [-81.782415, 41.302286], [-81.783374, 41.302278], [-81.785169, 41.302264], [-81.785265, 41.302263], [-81.785276, 41.305004], [-81.78529, 41.307623], [-81.785352, 41.307623], [-81.786255, 41.307621], [-81.786251, 41.306889], [-81.786233, 41.302901], [-81.787125, 41.302892], [-81.787185, 41.302124], [-81.788195, 41.302113], [-81.788191, 41.301306], [-81.786352, 41.301311], [-81.786351, 41.301105], [-81.785987, 41.301106], [-81.785973, 41.298219], [-81.785904, 41.298219], [-81.785467, 41.298221], [-81.785408, 41.298249], [-81.785391, 41.298289], [-81.785389, 41.297987], [-81.785411, 41.298031], [-81.785465, 41.298055], [-81.785971, 41.298054], [-81.785972, 41.298054], [-81.785972, 41.297954], [-81.78597, 41.297615], [-81.785962, 41.296083], [-81.785955, 41.294541], [-81.785448, 41.294544], [-81.785394, 41.294567], [-81.785373, 41.294612], [-81.785371, 41.29431], [-81.785393, 41.294354], [-81.785447, 41.294377], [-81.785954, 41.294376], [-81.785942, 41.291898], [-81.786269, 41.291897], [-81.78656, 41.291896], [-81.786558, 41.291517], [-81.786555, 41.29112], [-81.786529, 41.291083], [-81.786464, 41.291063], [-81.786864, 41.291059], [-81.786807, 41.291075], [-81.786776, 41.291116], [-81.786777, 41.291533], [-81.788143, 41.291529], [-81.788145, 41.292061], [-81.790952, 41.292032], [-81.790951, 41.291757], [-81.793578, 41.29173], [-81.793577, 41.291867], [-81.795712, 41.291844], [-81.796705, 41.291834], [-81.797215, 41.291829], [-81.797218, 41.291472], [-81.797833, 41.291465], [-81.797837, 41.290895], [-81.797837, 41.290862], [-81.798056, 41.290859], [-81.798056, 41.290894], [-81.798051, 41.291463], [-81.801242, 41.29143], [-81.801241, 41.291649], [-81.801708, 41.291641], [-81.802386, 41.291719], [-81.802395, 41.292496], [-81.802688, 41.292611], [-81.803141, 41.292815], [-81.802942, 41.293215], [-81.802628, 41.293366], [-81.80296, 41.293859], [-81.802847, 41.29412], [-81.803264, 41.294222], [-81.803643, 41.294315], [-81.803654, 41.294291], [-81.803757, 41.294317], [-81.804437, 41.294317], [-81.804437, 41.293897], [-81.804437, 41.293741], [-81.804658, 41.293741], [-81.804658, 41.2936], [-81.805609, 41.292791], [-81.805695, 41.292741], [-81.805662, 41.292711], [-81.806095, 41.292437], [-81.806489, 41.292634], [-81.806622, 41.2927], [-81.806621, 41.293113], [-81.807721, 41.293093], [-81.807776, 41.294587], [-81.807795, 41.295716], [-81.807796, 41.297497], [-81.807834, 41.298842], [-81.807835, 41.300827], [-81.807713, 41.301914], [-81.80802, 41.304177], [-81.808123, 41.305835], [-81.807893, 41.306048], [-81.808416, 41.30637], [-81.808568, 41.306943], [-81.808397, 41.307102], [-81.806887, 41.307078], [-81.80617, 41.308149], [-81.805354, 41.308791], [-81.80468, 41.309468], [-81.803178, 41.310253], [-81.803102, 41.310216], [-81.802567, 41.309955], [-81.802512, 41.309983], [-81.802298, 41.310096], [-81.801203, 41.309616], [-81.801223, 41.310922], [-81.800927, 41.311355], [-81.800953, 41.311626], [-81.800791, 41.312058], [-81.801242, 41.312205], [-81.801243, 41.312221], [-81.800955, 41.312349], [-81.800279, 41.31265], [-81.800181, 41.312732], [-81.799549, 41.313259], [-81.799913, 41.313255], [-81.799335, 41.313876], [-81.799768, 41.31409], [-81.799904, 41.314147], [-81.800188, 41.314246], [-81.800484, 41.314323], [-81.801133, 41.314463], [-81.801185, 41.314474], [-81.801236, 41.314345], [-81.800945, 41.314097], [-81.800531, 41.314003], [-81.800779, 41.313352], [-81.80314, 41.313333], [-81.803141, 41.313425], [-81.80329, 41.313376], [-81.80359, 41.313318], [-81.804009, 41.313261], [-81.804432, 41.313226], [-81.804858, 41.313211], [-81.806691, 41.313196], [-81.806692, 41.313306], [-81.809698, 41.313476], [-81.811081, 41.315414], [-81.811634, 41.316911], [-81.81232, 41.318195], [-81.812602, 41.319557], [-81.813975, 41.323543], [-81.815474, 41.32369], [-81.815148, 41.322745], [-81.81496, 41.321761], [-81.81437, 41.320377], [-81.814225, 41.320376], [-81.814232, 41.320052], [-81.813609, 41.317943], [-81.813175, 41.316631], [-81.813136, 41.313903], [-81.81338, 41.3136], [-81.81409, 41.3134], [-81.814363, 41.313256], [-81.814358, 41.313539], [-81.814326, 41.315189], [-81.814271, 41.318013], [-81.81426, 41.318561], [-81.814732, 41.318959], [-81.81499, 41.318961], [-81.816926, 41.317989], [-81.81698, 41.317989], [-81.817031, 41.317935], [-81.817122, 41.31789], [-81.817929, 41.317009], [-81.818047, 41.316879], [-81.818054, 41.316502], [-81.818292, 41.316504], [-81.81826, 41.31837], [-81.818251, 41.318915], [-81.815566, 41.318911], [-81.815541, 41.32038], [-81.818688, 41.320388], [-81.818892, 41.320389], [-81.818728, 41.320967], [-81.818677, 41.32115], [-81.81945, 41.321224], [-81.820353, 41.321779], [-81.820738, 41.322506], [-81.820801, 41.323015], [-81.820498, 41.324164], [-81.820048, 41.324958], [-81.820078, 41.325585], [-81.820478, 41.326299], [-81.820474, 41.327284], [-81.820575, 41.327492], [-81.820797, 41.327633], [-81.821307, 41.327636], [-81.821307, 41.327746], [-81.822171, 41.327872], [-81.822596, 41.328039], [-81.824349, 41.328122], [-81.824676, 41.328175], [-81.825365, 41.328112], [-81.826007, 41.328105], [-81.827046, 41.327984], [-81.827095, 41.327979], [-81.827859, 41.327674], [-81.828423, 41.32762], [-81.828713, 41.327517], [-81.829137, 41.327471], [-81.829866, 41.32729], [-81.830769, 41.327295], [-81.831797, 41.327429], [-81.832259, 41.327561], [-81.832946, 41.327607], [-81.833799, 41.327724], [-81.834606, 41.327769], [-81.835256, 41.328136], [-81.835682, 41.328677], [-81.835797, 41.329022], [-81.835751, 41.32926], [-81.835907, 41.329408], [-81.835988, 41.329761], [-81.835987, 41.329906], [-81.835995, 41.330023], [-81.836125, 41.33027], [-81.83606, 41.330681], [-81.836094, 41.331047], [-81.836002, 41.331406], [-81.835991, 41.331405], [-81.835879, 41.331538], [-81.835875, 41.331557], [-81.835919, 41.331657], [-81.835937, 41.331658], [-81.835933, 41.331914], [-81.835814, 41.332228], [-81.83574, 41.332512], [-81.835624, 41.332787], [-81.835628, 41.333104], [-81.835431, 41.333109], [-81.835431, 41.333153], [-81.835433, 41.333342], [-81.835263, 41.333601], [-81.835127, 41.33397], [-81.835057, 41.33416], [-81.834906, 41.334255], [-81.834908, 41.334371], [-81.834786, 41.334447], [-81.834836, 41.334493], [-81.834902, 41.334553], [-81.83492, 41.334569], [-81.835008, 41.334649], [-81.835578, 41.33489], [-81.836278, 41.335256], [-81.836693, 41.335054], [-81.836983, 41.334981], [-81.837538, 41.334938], [-81.838593, 41.335127], [-81.839067, 41.335298], [-81.839625, 41.335443], [-81.839823, 41.33556], [-81.840247, 41.335809], [-81.84026, 41.335061], [-81.841395, 41.335019], [-81.843982, 41.334921], [-81.845237, 41.334874], [-81.845281, 41.334872], [-81.845342, 41.33487], [-81.845518, 41.336137], [-81.847614, 41.336875], [-81.845678, 41.340317], [-81.845611, 41.340317], [-81.8446, 41.342114], [-81.84406, 41.341977], [-81.843508, 41.341867], [-81.843484, 41.341919], [-81.842933, 41.341837], [-81.842376, 41.341782], [-81.841816, 41.341753], [-81.841535, 41.341748], [-81.840974, 41.341759], [-81.840694, 41.341775], [-81.840136, 41.341826], [-81.840092, 41.341827], [-81.839531, 41.341841], [-81.839047, 41.341852], [-81.834959, 41.342067], [-81.833586, 41.342117], [-81.833691, 41.340467], [-81.828862, 41.340549], [-81.829955, 41.339216], [-81.829867, 41.339151], [-81.83019, 41.338757], [-81.830981, 41.338313], [-81.833306, 41.33554], [-81.833484, 41.335347], [-81.833686, 41.335166], [-81.833397, 41.335171], [-81.833189, 41.335361], [-81.832287, 41.336312], [-81.830038, 41.338681], [-81.829416, 41.338733], [-81.829323, 41.338706], [-81.828666, 41.338697], [-81.8276, 41.33835], [-81.827393, 41.337854], [-81.826778, 41.337488], [-81.826398, 41.337491], [-81.825954, 41.337495], [-81.825882, 41.337496], [-81.825701, 41.337407], [-81.823211, 41.336486], [-81.822703, 41.335917], [-81.822764, 41.335886], [-81.822183, 41.335235], [-81.821696, 41.334781], [-81.821287, 41.334438], [-81.821295, 41.332739], [-81.8213, 41.331536], [-81.821301, 41.331465], [-81.819648, 41.331289], [-81.819663, 41.331231], [-81.819701, 41.331081], [-81.819036, 41.33076], [-81.818623, 41.330278], [-81.818296, 41.329592], [-81.817695, 41.328794], [-81.817604, 41.328294], [-81.817443, 41.327925], [-81.817469, 41.327233], [-81.817093, 41.327215], [-81.817089, 41.327201], [-81.817089, 41.327617], [-81.816763, 41.327603], [-81.815885, 41.324871], [-81.815698, 41.324339], [-81.815316, 41.32427], [-81.814569, 41.324196], [-81.814364, 41.3246], [-81.814492, 41.324953], [-81.814293, 41.325], [-81.813258, 41.325022], [-81.812771, 41.324942], [-81.812572, 41.325081], [-81.811178, 41.325294], [-81.811181, 41.325852], [-81.811071, 41.325852], [-81.810816, 41.325639], [-81.810483, 41.325399], [-81.810571, 41.325166], [-81.80925, 41.324937], [-81.807752, 41.324887], [-81.807209, 41.324779], [-81.806676, 41.324387], [-81.805644, 41.323675], [-81.805508, 41.323258], [-81.805498, 41.322717], [-81.805668, 41.322119], [-81.805668, 41.321883], [-81.805668, 41.321605], [-81.804549, 41.321626], [-81.804321, 41.321111], [-81.803927, 41.321082], [-81.803923, 41.321053], [-81.804243, 41.321006], [-81.804496, 41.320753], [-81.804488, 41.320494], [-81.803113, 41.32052], [-81.803119, 41.320695], [-81.80313, 41.321026], [-81.802764, 41.320984], [-81.802749, 41.320526], [-81.802398, 41.320533], [-81.801112, 41.320557], [-81.801093, 41.320571], [-81.801076, 41.320558], [-81.800378, 41.320565], [-81.798168, 41.320586], [-81.797815, 41.320858], [-81.797643, 41.32102], [-81.797236, 41.320941], [-81.796807, 41.320945], [-81.796809, 41.321088], [-81.796735, 41.321036], [-81.796728, 41.320601], [-81.796699, 41.320601], [-81.795984, 41.320608], [-81.796058, 41.313294], [-81.797687, 41.313277], [-81.797122, 41.313175], [-81.79544, 41.3133], [-81.790981, 41.313347], [-81.790981, 41.313271], [-81.790975, 41.312044], [-81.789331, 41.312061], [-81.788773, 41.312066], [-81.788307, 41.312071], [-81.786437, 41.31209], [-81.78551, 41.312099], [-81.785308, 41.312101], [-81.785311, 41.312901], [-81.784867, 41.312492], [-81.784783, 41.312313], [-81.784734, 41.312128], [-81.784351, 41.312146], [-81.784037, 41.311404], [-81.782336, 41.310014], [-81.781461, 41.309447], [-81.779555, 41.308377], [-81.778498, 41.308166], [-81.778472, 41.30814], [-81.778367, 41.308033], [-81.777309, 41.30696], [-81.7764, 41.306418], [-81.777176, 41.306412], [-81.777176, 41.305711], [-81.776341, 41.305213], [-81.775854, 41.305038], [-81.774743, 41.304639], [-81.774744, 41.305831], [-81.774744, 41.305919], [-81.774744, 41.305969], [-81.772072, 41.303937], [-81.768635, 41.301823], [-81.767962, 41.301571], [-81.767908, 41.29883], [-81.762324, 41.298856], [-81.762326, 41.299132], [-81.76233, 41.299652], [-81.762331, 41.299695], [-81.761966, 41.299584], [-81.761965, 41.299514], [-81.76196, 41.298857], [-81.761593, 41.298859], [-81.760686, 41.298863], [-81.760677, 41.299161], [-81.760676, 41.299194], [-81.760199, 41.299169], [-81.760204, 41.299112], [-81.76026, 41.298507], [-81.760381, 41.297191], [-81.759368, 41.296826], [-81.758248, 41.296414], [-81.759304, 41.295616], [-81.759363, 41.295615], [-81.759517, 41.295505], [-81.760646, 41.296441], [-81.760621, 41.29476], [-81.760619, 41.294639], [-81.760817, 41.294581], [-81.761047, 41.294453], [-81.761721, 41.294748], [-81.763005, 41.295729], [-81.763132, 41.296005], [-81.763175, 41.296574], [-81.763482, 41.296656], [-81.763823, 41.296455], [-81.763651, 41.295794], [-81.763394, 41.295474], [-81.763717, 41.294999], [-81.763576, 41.294818], [-81.763102, 41.294852], [-81.762661, 41.294735], [-81.762224, 41.293866], [-81.763425, 41.293491], [-81.763451, 41.29354], [-81.763466, 41.293567], [-81.76343, 41.293865], [-81.765163, 41.294233], [-81.765168, 41.294605], [-81.765183, 41.295662], [-81.765998, 41.295656], [-81.767862, 41.295641], [-81.768134, 41.295355], [-81.768153, 41.294661], [-81.768141, 41.293752], [-81.768328, 41.293188], [-81.768907, 41.292782], [-81.769901, 41.292785], [-81.769901, 41.2935], [-81.770446, 41.292927], [-81.77115, 41.292929], [-81.774733, 41.292937], [-81.775447, 41.292935], [-81.777327, 41.292927]], [[-81.814906, 41.324062], [-81.814666, 41.324038], [-81.814656, 41.324093], [-81.815164, 41.324143], [-81.815167, 41.324143], [-81.815167, 41.324143], [-81.815176, 41.324089], [-81.814906, 41.324062]], [[-81.814805, 41.323767], [-81.814569, 41.323743], [-81.81456, 41.323791], [-81.815071, 41.323841], [-81.815073, 41.323793], [-81.814805, 41.323767]], [[-81.835551, 41.332067], [-81.835747, 41.331127], [-81.835854, 41.330611], [-81.835813, 41.330014], [-81.835619, 41.329151], [-81.835434, 41.329142], [-81.835455, 41.329445], [-81.835572, 41.33009], [-81.835606, 41.330611], [-81.835466, 41.331382], [-81.835381, 41.331843], [-81.835201, 41.332187], [-81.835, 41.33239], [-81.835282, 41.332453], [-81.835408, 41.33231], [-81.835551, 41.332067]]], [[[-81.83683, 41.352153], [-81.833344, 41.350714], [-81.832911, 41.350715], [-81.832914, 41.350684], [-81.833127, 41.347715], [-81.833217, 41.347713], [-81.833255, 41.347151], [-81.833294, 41.346573], [-81.833019, 41.346136], [-81.832849, 41.345693], [-81.832801, 41.345059], [-81.833061, 41.344153], [-81.83348, 41.343814], [-81.833498, 41.343538], [-81.833509, 41.343387], [-81.833543, 41.342878], [-81.838638, 41.342807], [-81.840119, 41.342786], [-81.840066, 41.343815], [-81.840562, 41.343812], [-81.840704, 41.343811], [-81.840756, 41.342782], [-81.841215, 41.342779], [-81.842951, 41.342769], [-81.842983, 41.342769], [-81.843238, 41.342808], [-81.84349, 41.342854], [-81.84374, 41.342906], [-81.843988, 41.342964], [-81.844105, 41.342994], [-81.843413, 41.344224], [-81.843279, 41.344182], [-81.842602, 41.345385], [-81.842284, 41.34595], [-81.842137, 41.346212], [-81.841626, 41.347122], [-81.841526, 41.347299], [-81.841718, 41.34736], [-81.841646, 41.347487], [-81.841534, 41.347692], [-81.841414, 41.347893], [-81.841286, 41.348092], [-81.84115, 41.348289], [-81.841008, 41.348482], [-81.840857, 41.348672], [-81.840699, 41.348858], [-81.840535, 41.349041], [-81.840386, 41.349202], [-81.840232, 41.349359], [-81.840073, 41.349513], [-81.839907, 41.349664], [-81.839737, 41.349811], [-81.839561, 41.349955], [-81.83938, 41.350095], [-81.837995, 41.351212], [-81.836861, 41.352128], [-81.83683, 41.352153]]], [[[-81.753993, 41.287025], [-81.754008, 41.286648], [-81.754032, 41.286048], [-81.746526, 41.286068], [-81.744682, 41.286073], [-81.744618, 41.286073], [-81.744617, 41.285842], [-81.746765, 41.285837], [-81.754041, 41.285818], [-81.75405, 41.285587], [-81.748254, 41.285602], [-81.748253, 41.285141], [-81.747141, 41.285144], [-81.746579, 41.285146], [-81.746437, 41.284974], [-81.746402, 41.284684], [-81.754086, 41.284667], [-81.754154, 41.282951], [-81.754207, 41.281605], [-81.754268, 41.280051], [-81.75343, 41.280068], [-81.752773, 41.280082], [-81.752754, 41.278729], [-81.752742, 41.277825], [-81.75379, 41.277817], [-81.754197, 41.277813], [-81.754191, 41.277349], [-81.754184, 41.276853], [-81.754183, 41.276792], [-81.754182, 41.276722], [-81.754923, 41.276712], [-81.755375, 41.276709], [-81.755739, 41.276706], [-81.755739, 41.27677], [-81.755739, 41.276792], [-81.755739, 41.277417], [-81.755739, 41.277781], [-81.755739, 41.277886], [-81.755739, 41.27849], [-81.757421, 41.278476], [-81.757421, 41.277927], [-81.757839, 41.277923], [-81.757839, 41.278019], [-81.758343, 41.278015], [-81.758343, 41.279086], [-81.758344, 41.279443], [-81.758344, 41.280156], [-81.758344, 41.280199], [-81.75835, 41.280597], [-81.757876, 41.281302], [-81.757812, 41.281755], [-81.757923, 41.28278], [-81.757904, 41.283034], [-81.757835, 41.283479], [-81.757758, 41.283504], [-81.757723, 41.283518], [-81.757824, 41.283664], [-81.757756, 41.28483], [-81.757422, 41.284825], [-81.75727, 41.284823], [-81.756709, 41.284939], [-81.756241, 41.285203], [-81.755935, 41.285578], [-81.755807, 41.285972], [-81.755812, 41.286554], [-81.755783, 41.287042], [-81.753993, 41.287025]]], [[[-81.79581, 41.323288], [-81.795815, 41.322633], [-81.796425, 41.322636], [-81.79645, 41.32282], [-81.796453, 41.322837], [-81.796272, 41.322848], [-81.796292, 41.32293], [-81.796473, 41.322919], [-81.796495, 41.322979], [-81.796523, 41.323038], [-81.796262, 41.323054], [-81.79581, 41.323288]]], [[[-81.855876, 41.366557], [-81.855923, 41.366395], [-81.856097, 41.3664], [-81.856483, 41.366409], [-81.856726, 41.366111], [-81.856392, 41.365298], [-81.856273, 41.365326], [-81.856162, 41.365081], [-81.855771, 41.365228], [-81.85551, 41.365158], [-81.855424, 41.36519], [-81.85517, 41.364887], [-81.854953, 41.364946], [-81.854955, 41.365134], [-81.854955, 41.365153], [-81.854951, 41.365243], [-81.854938, 41.365332], [-81.854917, 41.36542], [-81.854888, 41.365506], [-81.854852, 41.365591], [-81.854808, 41.365674], [-81.854757, 41.365755], [-81.854547, 41.366059], [-81.854893, 41.366114], [-81.855058, 41.36614], [-81.855021, 41.366193], [-81.854993, 41.366233], [-81.854394, 41.366235], [-81.854393, 41.366063], [-81.854029, 41.366105], [-81.854026, 41.365658], [-81.853951, 41.365493], [-81.85395, 41.365305], [-81.854076, 41.365305], [-81.854423, 41.365303], [-81.854421, 41.364945], [-81.854332, 41.364784], [-81.854273, 41.364569], [-81.853877, 41.364624], [-81.853818, 41.36441], [-81.853427, 41.362984], [-81.853425, 41.361872], [-81.853422, 41.360206], [-81.854075, 41.360065], [-81.854062, 41.360049], [-81.854163, 41.360001], [-81.854265, 41.359953], [-81.85431, 41.360007], [-81.854828, 41.359759], [-81.855012, 41.359412], [-81.854964, 41.359159], [-81.854981, 41.359149], [-81.855008, 41.359133], [-81.854755, 41.358823], [-81.854873, 41.358752], [-81.854747, 41.358618], [-81.854655, 41.358521], [-81.854423, 41.358281], [-81.854418, 41.358269], [-81.854265, 41.357913], [-81.854189, 41.357674], [-81.854114, 41.357436], [-81.854102, 41.357395], [-81.854046, 41.357326], [-81.853876, 41.357117], [-81.853514, 41.356631], [-81.853316, 41.356366], [-81.852875, 41.356663], [-81.852338, 41.356954], [-81.852287, 41.356997], [-81.852059, 41.357188], [-81.851806, 41.357264], [-81.851586, 41.357369], [-81.851325, 41.357494], [-81.851137, 41.357588], [-81.850659, 41.357827], [-81.850124, 41.358078], [-81.850135, 41.358316], [-81.848892, 41.358311], [-81.848776, 41.358307], [-81.848659, 41.358297], [-81.848545, 41.358282], [-81.848432, 41.35826], [-81.848321, 41.358232], [-81.848213, 41.358198], [-81.848109, 41.358159], [-81.848008, 41.358114], [-81.847931, 41.358074], [-81.847857, 41.358032], [-81.847458, 41.357786], [-81.846922, 41.357459], [-81.845591, 41.356643], [-81.845628, 41.356605], [-81.845777, 41.356451], [-81.84547, 41.356257], [-81.844601, 41.355708], [-81.844592, 41.35591], [-81.842727, 41.355005], [-81.840276, 41.353816], [-81.837041, 41.352248], [-81.837088, 41.35221], [-81.839553, 41.350221], [-81.839577, 41.350202], [-81.839603, 41.350222], [-81.839731, 41.350123], [-81.839856, 41.350023], [-81.839829, 41.350004], [-81.840023, 41.34984], [-81.840211, 41.349672], [-81.840392, 41.3495], [-81.840566, 41.349324], [-81.840733, 41.349144], [-81.840901, 41.348957], [-81.841062, 41.348766], [-81.841216, 41.348572], [-81.841362, 41.348375], [-81.8415, 41.348174], [-81.841631, 41.347971], [-81.841754, 41.347765], [-81.841868, 41.347556], [-81.841939, 41.34743], [-81.84213, 41.347491], [-81.842257, 41.347265], [-81.842676, 41.346519], [-81.843206, 41.345577], [-81.843884, 41.344371], [-81.84375, 41.344329], [-81.844105, 41.343698], [-81.844339, 41.343773], [-81.844681, 41.343166], [-81.844809, 41.343205], [-81.844971, 41.343257], [-81.845134, 41.343309], [-81.845298, 41.343363], [-81.845462, 41.343418], [-81.845628, 41.343474], [-81.845939, 41.343578], [-81.845942, 41.343489], [-81.847308, 41.343947], [-81.848674, 41.344405], [-81.848635, 41.345815], [-81.848623, 41.34621], [-81.848608, 41.346747], [-81.848597, 41.347126], [-81.848576, 41.34787], [-81.848558, 41.348521], [-81.848532, 41.349442], [-81.848498, 41.350643], [-81.848644, 41.350643], [-81.849474, 41.350645], [-81.84968, 41.350645], [-81.849642, 41.351375], [-81.850995, 41.35203], [-81.851046, 41.352055], [-81.85151, 41.351967], [-81.853169, 41.352365], [-81.853873, 41.352534], [-81.854496, 41.35271], [-81.855261, 41.352969], [-81.855373, 41.353223], [-81.855703, 41.353968], [-81.85609, 41.353818], [-81.857968, 41.353841], [-81.858089, 41.353606], [-81.858269, 41.353583], [-81.858275, 41.35361], [-81.858396, 41.354161], [-81.858339, 41.35416], [-81.858246, 41.354159], [-81.85612, 41.354134], [-81.856226, 41.354638], [-81.856349, 41.354764], [-81.856545, 41.354967], [-81.856616, 41.354928], [-81.857014, 41.355307], [-81.857243, 41.355776], [-81.857368, 41.356033], [-81.857704, 41.356096], [-81.857796, 41.356113], [-81.858137, 41.356453], [-81.8586, 41.357426], [-81.859046, 41.357649], [-81.859581, 41.358401], [-81.859654, 41.358822], [-81.859847, 41.359031], [-81.859715, 41.359078], [-81.860474, 41.359785], [-81.86078, 41.360703], [-81.860814, 41.36119], [-81.860705, 41.361922], [-81.861092, 41.36192], [-81.861094, 41.361995], [-81.860942, 41.362522], [-81.860754, 41.362862], [-81.860559, 41.363125], [-81.860359, 41.363315], [-81.86017, 41.363203], [-81.859719, 41.363634], [-81.859761, 41.363659], [-81.859892, 41.363737], [-81.859907, 41.363746], [-81.859223, 41.364398], [-81.859191, 41.364428], [-81.859165, 41.364415], [-81.859014, 41.364336], [-81.85843, 41.364029], [-81.858362, 41.364095], [-81.858746, 41.364296], [-81.858255, 41.364764], [-81.857593, 41.365394], [-81.857477, 41.365324], [-81.857247, 41.365694], [-81.857421, 41.365799], [-81.857623, 41.365922], [-81.85755, 41.365991], [-81.857395, 41.366139], [-81.857364, 41.366169], [-81.857177, 41.366346], [-81.856907, 41.366604], [-81.856843, 41.366664], [-81.856831, 41.366674], [-81.856816, 41.366683], [-81.8568, 41.36669], [-81.856783, 41.366694], [-81.856765, 41.366697], [-81.856746, 41.366697], [-81.856728, 41.366695], [-81.856579, 41.366671], [-81.855876, 41.366557]]], [[[-81.749263, 41.290887], [-81.749241, 41.290393], [-81.744637, 41.29041], [-81.744636, 41.290218], [-81.744633, 41.289567], [-81.74553, 41.289576], [-81.745528, 41.289448], [-81.745525, 41.289297], [-81.744754, 41.289302], [-81.744632, 41.289302], [-81.744628, 41.288368], [-81.74469, 41.288368], [-81.74475, 41.288368], [-81.746182, 41.288362], [-81.746504, 41.288361], [-81.746494, 41.287972], [-81.753945, 41.287949], [-81.753968, 41.28833], [-81.753997, 41.289248], [-81.754069, 41.290871], [-81.749263, 41.290887]]], [[[-81.856348, 41.367463], [-81.856353, 41.367266], [-81.856719, 41.367331], [-81.856714, 41.367403], [-81.856708, 41.36785], [-81.856708, 41.367851], [-81.856707, 41.367863], [-81.856703, 41.367874], [-81.856696, 41.367885], [-81.856687, 41.367895], [-81.856676, 41.367903], [-81.856663, 41.36791], [-81.856648, 41.367915], [-81.856633, 41.367918], [-81.856617, 41.367919], [-81.856617, 41.367919], [-81.856576, 41.367919], [-81.856336, 41.367918], [-81.856344, 41.367589], [-81.856348, 41.367463]]], [[[-81.846242, 41.342748], [-81.847342, 41.342741], [-81.847341, 41.342788], [-81.847332, 41.343114], [-81.847033, 41.343013], [-81.846242, 41.342748]]], [[[-81.755215, 41.296747], [-81.75398, 41.295858], [-81.753898, 41.291523], [-81.759133, 41.291512], [-81.759629, 41.291511], [-81.760569, 41.291509], [-81.760596, 41.293203], [-81.760617, 41.294551], [-81.760618, 41.29459], [-81.760359, 41.294734], [-81.760026, 41.29492], [-81.759881, 41.295003], [-81.75974, 41.295089], [-81.759601, 41.295177], [-81.759569, 41.295169], [-81.759411, 41.295293], [-81.759409, 41.295265], [-81.759402, 41.295171], [-81.758256, 41.294345], [-81.756622, 41.295635], [-81.757859, 41.296526], [-81.757899, 41.296555], [-81.757931, 41.296578], [-81.75778, 41.296697], [-81.757749, 41.296674], [-81.757708, 41.296645], [-81.756816, 41.296002], [-81.756603, 41.295849], [-81.756353, 41.296047], [-81.756221, 41.295952], [-81.755969, 41.296151], [-81.756101, 41.296245], [-81.755849, 41.296444], [-81.755718, 41.29635], [-81.755215, 41.296747]]], [[[-81.800305, 41.321552], [-81.800687, 41.32153], [-81.80069, 41.321616], [-81.801079, 41.321692], [-81.800303, 41.321701], [-81.800121, 41.321704], [-81.800123, 41.321777], [-81.800231, 41.32179], [-81.800208, 41.322313], [-81.800103, 41.322537], [-81.80014, 41.322717], [-81.800352, 41.322981], [-81.800346, 41.323421], [-81.800334, 41.323547], [-81.799215, 41.324374], [-81.799117, 41.324418], [-81.798386, 41.324427], [-81.798064, 41.324522], [-81.797944, 41.324521], [-81.797396, 41.324517], [-81.797343, 41.324516], [-81.797354, 41.323696], [-81.797406, 41.3237], [-81.797458, 41.323705], [-81.797507, 41.32371], [-81.797556, 41.323713], [-81.797604, 41.323715], [-81.797653, 41.323717], [-81.797643, 41.324179], [-81.79808, 41.324127], [-81.7985, 41.324033], [-81.798886, 41.323876], [-81.799624, 41.323482], [-81.799632, 41.322921], [-81.79962, 41.32291], [-81.79944, 41.322737], [-81.799445, 41.322377], [-81.799036, 41.322374], [-81.798898, 41.322401], [-81.798946, 41.322536], [-81.798952, 41.322591], [-81.798856, 41.322576], [-81.798517, 41.322639], [-81.798381, 41.322725], [-81.79812, 41.322938], [-81.797903, 41.32303], [-81.797656, 41.323058], [-81.797641, 41.32338], [-81.797634, 41.323552], [-81.797561, 41.323548], [-81.797489, 41.323542], [-81.797473, 41.32354], [-81.797466, 41.323412], [-81.797459, 41.323292], [-81.797375, 41.323092], [-81.79715, 41.323085], [-81.797005, 41.323337], [-81.797, 41.323329], [-81.796964, 41.323276], [-81.796917, 41.323219], [-81.796865, 41.323164], [-81.79681, 41.323104], [-81.796763, 41.323041], [-81.796724, 41.322975], [-81.796694, 41.322906], [-81.796876, 41.322895], [-81.796853, 41.322814], [-81.796671, 41.322824], [-81.796667, 41.3228], [-81.79665, 41.32269], [-81.796638, 41.322579], [-81.797156, 41.322549], [-81.797152, 41.322488], [-81.797595, 41.32243], [-81.798006, 41.322292], [-81.79836, 41.322083], [-81.798606, 41.321846], [-81.79896, 41.321473], [-81.799205, 41.321379], [-81.79901, 41.320979], [-81.799118, 41.320952], [-81.799228, 41.320931], [-81.799339, 41.320915], [-81.799452, 41.320905], [-81.799565, 41.3209], [-81.799679, 41.320901], [-81.799747, 41.32103], [-81.799922, 41.321049], [-81.799946, 41.320926], [-81.800039, 41.320943], [-81.800132, 41.320963], [-81.800223, 41.320988], [-81.800324, 41.321018], [-81.800112, 41.321085], [-81.800072, 41.321211], [-81.800199, 41.321305], [-81.800054, 41.321403], [-81.800053, 41.321531], [-81.80025, 41.321556], [-81.800305, 41.321552]]], [[[-81.821273, 41.337536], [-81.821281, 41.335773], [-81.82135, 41.335848], [-81.821425, 41.335932], [-81.821558, 41.336084], [-81.821608, 41.336221], [-81.821742, 41.336586], [-81.821538, 41.337533], [-81.821273, 41.337536]]], [[[-81.856345, 41.367224], [-81.856355, 41.36681], [-81.856356, 41.366775], [-81.856596, 41.366814], [-81.856694, 41.36683], [-81.856717, 41.366836], [-81.856739, 41.366845], [-81.856758, 41.366857], [-81.856774, 41.36687], [-81.856787, 41.366886], [-81.856796, 41.366903], [-81.856802, 41.36692], [-81.856803, 41.366937], [-81.856802, 41.366952], [-81.856798, 41.366966], [-81.856797, 41.366966], [-81.856771, 41.367052], [-81.856749, 41.367139], [-81.856738, 41.367195], [-81.856724, 41.367292], [-81.856585, 41.367267], [-81.856345, 41.367224]]], [[[-81.861924, 41.372887], [-81.861926, 41.372804], [-81.86167, 41.37283], [-81.861908, 41.372771], [-81.861909, 41.372722], [-81.861729, 41.372602], [-81.861444, 41.372219], [-81.860821, 41.372373], [-81.86032, 41.371778], [-81.859512, 41.371267], [-81.858349, 41.370443], [-81.857174, 41.370557], [-81.856812, 41.370534], [-81.855975, 41.370483], [-81.855889, 41.370478], [-81.855878, 41.370475], [-81.854576, 41.369558], [-81.854326, 41.369346], [-81.854192, 41.369022], [-81.854073, 41.368433], [-81.853904, 41.368195], [-81.853835, 41.36812], [-81.853762, 41.368042], [-81.855632, 41.368049], [-81.855857, 41.36805], [-81.856604, 41.368053], [-81.85662, 41.368054], [-81.856635, 41.368058], [-81.85665, 41.368063], [-81.856662, 41.36807], [-81.856673, 41.368078], [-81.856683, 41.368088], [-81.856689, 41.368099], [-81.856693, 41.368111], [-81.856694, 41.368122], [-81.856687, 41.368756], [-81.856687, 41.368781], [-81.856683, 41.368868], [-81.856674, 41.368955], [-81.85666, 41.369042], [-81.85664, 41.369128], [-81.856641, 41.369138], [-81.856783, 41.369127], [-81.856937, 41.369123], [-81.857656, 41.369126], [-81.857693, 41.369126], [-81.858239, 41.369128], [-81.858315, 41.369129], [-81.858458, 41.369129], [-81.858903, 41.369131], [-81.85914, 41.369132], [-81.860287, 41.369136], [-81.860287, 41.36915], [-81.860285, 41.369466], [-81.860413, 41.369466], [-81.860777, 41.369468], [-81.860775, 41.369838], [-81.860778, 41.369924], [-81.86079, 41.370009], [-81.860809, 41.370094], [-81.860837, 41.370177], [-81.860872, 41.370259], [-81.860915, 41.370339], [-81.860965, 41.370416], [-81.861023, 41.37049], [-81.861087, 41.370561], [-81.861158, 41.370628], [-81.861235, 41.370691], [-81.861492, 41.370883], [-81.861756, 41.37107], [-81.862026, 41.371252], [-81.862302, 41.371428], [-81.862584, 41.371599], [-81.86266, 41.371648], [-81.86273, 41.371702], [-81.862794, 41.37176], [-81.862851, 41.371822], [-81.862901, 41.371887], [-81.862943, 41.371956], [-81.862977, 41.372026], [-81.863003, 41.372099], [-81.863021, 41.372173], [-81.863053, 41.372356], [-81.863263, 41.372287], [-81.863289, 41.372434], [-81.86333, 41.372662], [-81.86304, 41.372692], [-81.862711, 41.372725], [-81.862146, 41.372782], [-81.861999, 41.372797], [-81.861997, 41.37288], [-81.861996, 41.372941], [-81.861923, 41.372948], [-81.861924, 41.372887]]]]}}]}
