{"type": "FeatureCollection", "licence": "Data \u00a9 OpenStreetMap contributors, ODbL 1.0. http://osm.org/copyright", "features": [{"type": "Feature", "properties": {"name": "Munroe Falls Metro Park", "boundary_type": "park", "boundary_color": "#5F9EA0", "osm_id": "way/324817710", "operator": "Summit Metro Parks"}, "geometry": {"type": "Polygon", "coordinates": [[[-81.440064, 41.124697], [-81.440049, 41.125079], [-81.440016, 41.125896], [-81.440006, 41.126143], [-81.440002, 41.126278], [-81.439989, 41.126749], [-81.439997, 41.126982], [-81.439989, 41.127281], [-81.439987, 41.127345], [-81.439983, 41.127392], [-81.439983, 41.127399], [-81.439976, 41.127526], [-81.439931, 41.128568], [-81.439924, 41.128724], [-81.43991, 41.129183], [-81.439893, 41.129709], [-81.439869, 41.13023], [-81.439866, 41.130285], [-81.439849, 41.130646], [-81.439839, 41.130863], [-81.439828, 41.131307], [-81.439826, 41.131402], [-81.439824, 41.131583], [-81.439819, 41.131882], [-81.439815, 41.13209], [-81.439813, 41.132235], [-81.439812, 41.132258], [-81.439788, 41.132257], [-81.436868, 41.13218], [-81.43639, 41.132167], [-81.435991, 41.132157], [-81.436023, 41.13115], [-81.433088, 41.131145], [-81.429531, 41.13114], [-81.429427, 41.135763], [-81.428471, 41.135756], [-81.427556, 41.135749], [-81.427404, 41.135743], [-81.427201, 41.135721], [-81.427062, 41.135702], [-81.426873, 41.135659], [-81.426359, 41.135535], [-81.425973, 41.135436], [-81.425015, 41.135219], [-81.42375, 41.134977], [-81.423225, 41.134889], [-81.422572, 41.134812], [-81.421666, 41.134714], [-81.420396, 41.134635], [-81.420229, 41.134587], [-81.419027, 41.13463], [-81.418268, 41.134644], [-81.417946, 41.134653], [-81.417461, 41.134682], [-81.417534, 41.132458], [-81.41748, 41.132051], [-81.417224, 41.130128], [-81.416994, 41.128397], [-81.416949, 41.128057], [-81.420072, 41.126529], [-81.421096, 41.125996], [-81.421499, 41.125754], [-81.421803, 41.125554], [-81.422079, 41.125359], [-81.42244, 41.125079], [-81.422725, 41.124835], [-81.423311, 41.124262], [-81.426633, 41.124156], [-81.427033, 41.124256], [-81.431339, 41.124623], [-81.431313, 41.125516], [-81.431864, 41.125516], [-81.432896, 41.125516], [-81.436393, 41.125515], [-81.436381, 41.124603], [-81.436587, 41.124609], [-81.436622, 41.124486], [-81.440036, 41.124579], [-81.440064, 41.124697]]]}}]}
