{"type": "FeatureCollection", "licence": "Data \u00a9 OpenStreetMap contributors, ODbL 1.0. http://osm.org/copyright", "features": [{"type": "Feature", "properties": {"name": "Nimisila Reservoir Metro Park", "boundary_type": "park", "boundary_color": "#2F8F6F", "osm_id": "way/1119378323", "operator": "Summit Metro Parks"}, "geometry": {"type": "Polygon", "coordinates": [[[-81.534937, 40.932325], [-81.531349, 40.93223], [-81.531382, 40.93071], [-81.531383, 40.93068], [-81.53141, 40.929407], [-81.530989, 40.929276], [-81.530831, 40.929226], [-81.526469, 40.927864], [-81.525074, 40.927428], [-81.524347, 40.927536], [-81.52367, 40.927567], [-81.523217, 40.927519], [-81.522366, 40.927165], [-81.521036, 40.927312], [-81.52061, 40.92745], [-81.520177, 40.92753], [-81.519616, 40.927463], [-81.51913, 40.9271], [-81.518825, 40.9269], [-81.518384, 40.926501], [-81.517815, 40.926311], [-81.517293, 40.925379], [-81.517178, 40.924944], [-81.517052, 40.924319], [-81.515521, 40.924259], [-81.513039, 40.924163], [-81.512227, 40.924131], [-81.511928, 40.92412], [-81.511829, 40.925414], [-81.511781, 40.926037], [-81.512795, 40.926099], [-81.512903, 40.924857], [-81.513708, 40.92489], [-81.51367, 40.925519], [-81.514713, 40.925566], [-81.514573, 40.929024], [-81.515357, 40.929048], [-81.515386, 40.929049], [-81.515349, 40.929695], [-81.515322, 40.930172], [-81.51532, 40.930219], [-81.515148, 40.933243], [-81.515066, 40.934695], [-81.514975, 40.934691], [-81.514641, 40.934676], [-81.512082, 40.934557], [-81.511987, 40.9347], [-81.511682, 40.935161], [-81.511046, 40.936122], [-81.512319, 40.936627], [-81.513532, 40.937107], [-81.514402, 40.937452], [-81.514903, 40.937651], [-81.516022, 40.938094], [-81.516018, 40.938346], [-81.516012, 40.938746], [-81.51601, 40.938844], [-81.515997, 40.939725], [-81.515428, 40.9397], [-81.514699, 40.939669], [-81.514634, 40.94118], [-81.514422, 40.946096], [-81.5156, 40.946247], [-81.517193, 40.94645], [-81.517444, 40.946574], [-81.518951, 40.947317], [-81.519001, 40.948086], [-81.524161, 40.948289], [-81.524288, 40.948294], [-81.524399, 40.948298], [-81.524536, 40.948791], [-81.524445, 40.949614], [-81.524437, 40.949683], [-81.52428, 40.951094], [-81.524226, 40.951583], [-81.524072, 40.95297], [-81.524075, 40.953418], [-81.523979, 40.954141], [-81.523974, 40.954222], [-81.523968, 40.954331], [-81.523997, 40.954466], [-81.524078, 40.954582], [-81.524656, 40.95509], [-81.524901, 40.955282], [-81.525161, 40.95543], [-81.525374, 40.955528], [-81.525588, 40.955608], [-81.525844, 40.955681], [-81.526145, 40.955731], [-81.528197, 40.955955], [-81.529209, 40.956035], [-81.529735, 40.956143], [-81.531007, 40.956404], [-81.531425, 40.956537], [-81.531812, 40.95613], [-81.532047, 40.955839], [-81.533022, 40.954303], [-81.533191, 40.954008], [-81.533319, 40.953751], [-81.533427, 40.953478], [-81.533517, 40.95324], [-81.533603, 40.952918], [-81.533655, 40.952596], [-81.534324, 40.94236], [-81.534461, 40.939785], [-81.534471, 40.939625], [-81.534937, 40.932325]]]}}]}
