{"type": "FeatureCollection", "licence": "Data \u00a9 OpenStreetMap contributors, ODbL 1.0. http://osm.org/copyright", "features": [{"type": "Feature", "properties": {"name": "North Chagrin Reservation", "boundary_type": "park", "boundary_color": "#388E5C", "osm_id": "relation/3954790", "operator": "Cleveland Metroparks"}, "geometry": {"type": "MultiPolygon", "coordinates": [[[[-81.413882, 41.533187], [-81.414222, 41.532484], [-81.414221, 41.53249], [-81.414093, 41.532947], [-81.413885, 41.533391], [-81.413882, 41.533187]]], [[[-81.413895, 41.534147], [-81.413887, 41.533564], [-81.414601, 41.534549], [-81.414985, 41.535338], [-81.414893, 41.535344], [-81.414079, 41.535543], [-81.413895, 41.534147]]], [[[-81.412657, 41.540471], [-81.412489, 41.540272], [-81.412176, 41.53932], [-81.411836, 41.539133], [-81.411382, 41.53922], [-81.411247, 41.538792], [-81.41254, 41.538797], [-81.413084, 41.538799], [-81.41368, 41.538801], [-81.413917, 41.538531], [-81.413926, 41.538174], [-81.413754, 41.537967], [-81.413449, 41.537821], [-81.412952, 41.537917], [-81.412878, 41.537932], [-81.412477, 41.537895], [-81.412026, 41.537493], [-81.412268, 41.536526], [-81.412273, 41.53608], [-81.412556, 41.536205], [-81.414965, 41.535615], [-81.415115, 41.535606], [-81.415659, 41.536721], [-81.416339, 41.538671], [-81.416464, 41.539348], [-81.416814, 41.539944], [-81.416813, 41.540374], [-81.417081, 41.540889], [-81.417146, 41.541421], [-81.417544, 41.542895], [-81.417794, 41.543053], [-81.41745, 41.543359], [-81.417809, 41.54376], [-81.417984, 41.543929], [-81.418419, 41.544347], [-81.418502, 41.544527], [-81.418621, 41.544789], [-81.41895, 41.544788], [-81.419719, 41.544786], [-81.420521, 41.544785], [-81.420521, 41.544858], [-81.420837, 41.54497], [-81.420775, 41.545077], [-81.420583, 41.545404], [-81.420523, 41.545397], [-81.420271, 41.545444], [-81.419359, 41.545616], [-81.418402, 41.545598], [-81.418506, 41.545751], [-81.418686, 41.546017], [-81.41834, 41.546011], [-81.416631, 41.546578], [-81.417538, 41.548121], [-81.416302, 41.548583], [-81.416046, 41.546772], [-81.415409, 41.545954], [-81.415402, 41.54513], [-81.412976, 41.544339], [-81.412838, 41.544028], [-81.412841, 41.543835], [-81.413031, 41.543839], [-81.413055, 41.543565], [-81.413063, 41.543549], [-81.412051, 41.543529], [-81.41211, 41.543331], [-81.412136, 41.542994], [-81.411934, 41.542038], [-81.411943, 41.540995], [-81.4119, 41.54086], [-81.412808, 41.540862], [-81.414587, 41.540865], [-81.414712, 41.540638], [-81.414627, 41.540474], [-81.412657, 41.540471]]], [[[-81.408833, 41.531474], [-81.409081, 41.530067], [-81.409595, 41.530094], [-81.410232, 41.530118], [-81.410551, 41.53012], [-81.411188, 41.5301], [-81.411506, 41.53008], [-81.412139, 41.530018], [-81.412765, 41.529927], [-81.413249, 41.529836], [-81.413338, 41.530155], [-81.413335, 41.530457], [-81.413488, 41.530459], [-81.413295, 41.531027], [-81.412882, 41.531737], [-81.412495, 41.532617], [-81.412139, 41.533166], [-81.411854, 41.533397], [-81.411599, 41.533825], [-81.41152, 41.534173], [-81.411543, 41.534535], [-81.411559, 41.534543], [-81.411133, 41.534586], [-81.410974, 41.534602], [-81.408682, 41.534908], [-81.408484, 41.53318], [-81.408685, 41.532235], [-81.408833, 41.531474]]], [[[-81.409127, 41.529793], [-81.409148, 41.529541], [-81.411243, 41.529714], [-81.41126, 41.529581], [-81.410939, 41.529241], [-81.410654, 41.528938], [-81.410607, 41.528581], [-81.410684, 41.528338], [-81.410706, 41.52827], [-81.4111, 41.526006], [-81.411108, 41.525843], [-81.411129, 41.525436], [-81.41109, 41.525033], [-81.412714, 41.525028], [-81.412729, 41.525276], [-81.412615, 41.525838], [-81.412425, 41.525838], [-81.412247, 41.526426], [-81.412002, 41.526635], [-81.411709, 41.526704], [-81.411449, 41.526954], [-81.411434, 41.527209], [-81.41129, 41.527795], [-81.411242, 41.528265], [-81.411381, 41.528264], [-81.411406, 41.527843], [-81.411521, 41.527318], [-81.41203, 41.52727], [-81.412185, 41.527255], [-81.412351, 41.52724], [-81.414048, 41.527079], [-81.414228, 41.528013], [-81.414409, 41.527993], [-81.414092, 41.528483], [-81.414104, 41.528551], [-81.411546, 41.528892], [-81.411325, 41.528893], [-81.411495, 41.529145], [-81.411828, 41.529345], [-81.412451, 41.529406], [-81.412996, 41.529342], [-81.413159, 41.529627], [-81.412965, 41.529665], [-81.412658, 41.52972], [-81.41235, 41.529767], [-81.41204, 41.529807], [-81.411728, 41.52984], [-81.411415, 41.529866], [-81.411211, 41.529879], [-81.411196, 41.52988], [-81.410939, 41.52989], [-81.410683, 41.529893], [-81.410426, 41.529889], [-81.410169, 41.529877], [-81.409918, 41.529859], [-81.409483, 41.529819], [-81.409127, 41.529793]]], [[[-81.407836, 41.521654], [-81.407573, 41.521017], [-81.409064, 41.520667], [-81.409131, 41.520828], [-81.409225, 41.520933], [-81.40927, 41.521051], [-81.409352, 41.521145], [-81.409437, 41.521194], [-81.409629, 41.521234], [-81.409721, 41.521214], [-81.409807, 41.521124], [-81.409825, 41.521134], [-81.41164, 41.521138], [-81.412077, 41.521588], [-81.412199, 41.521765], [-81.411525, 41.521851], [-81.408098, 41.522289], [-81.407926, 41.521871], [-81.407853, 41.521695], [-81.407836, 41.521654]]], [[[-81.424254, 41.548632], [-81.423516, 41.549524], [-81.424445, 41.55047], [-81.424259, 41.550462], [-81.424098, 41.550491], [-81.423971, 41.550543], [-81.423851, 41.550629], [-81.423681, 41.550841], [-81.423556, 41.550943], [-81.423435, 41.55101], [-81.423617, 41.551225], [-81.424179, 41.551], [-81.424621, 41.551031], [-81.42468, 41.551315], [-81.425459, 41.55125], [-81.426007, 41.551398], [-81.427021, 41.551202], [-81.427923, 41.550722], [-81.429309, 41.550349], [-81.429861, 41.550394], [-81.429813, 41.552777], [-81.429802, 41.553314], [-81.429731, 41.55587], [-81.429681, 41.557655], [-81.437605, 41.557853], [-81.437615, 41.558797], [-81.437342, 41.55879], [-81.436125, 41.55876], [-81.43612, 41.559874], [-81.439335, 41.559921], [-81.43934, 41.56038], [-81.439273, 41.563942], [-81.439252, 41.56509], [-81.439312, 41.56978], [-81.439315, 41.569867], [-81.439272, 41.581003], [-81.4366, 41.580976], [-81.430359, 41.580907], [-81.430366, 41.585006], [-81.4304, 41.585705], [-81.430411, 41.586915], [-81.430482, 41.587006], [-81.431511, 41.588304], [-81.431511, 41.588537], [-81.431511, 41.588588], [-81.43151, 41.588641], [-81.428617, 41.588916], [-81.428617, 41.588872], [-81.428619, 41.588269], [-81.42837, 41.587541], [-81.427488, 41.587531], [-81.427482, 41.58685], [-81.425916, 41.587103], [-81.425471, 41.586555], [-81.424963, 41.586811], [-81.424119, 41.587125], [-81.422594, 41.587347], [-81.422116, 41.587153], [-81.421954, 41.587416], [-81.422006, 41.588311], [-81.420016, 41.588307], [-81.419449, 41.587568], [-81.418905, 41.587646], [-81.418571, 41.58742], [-81.419045, 41.584813], [-81.419319, 41.5848], [-81.419414, 41.583484], [-81.416256, 41.582978], [-81.416566, 41.581904], [-81.416248, 41.5819], [-81.415448, 41.58189], [-81.413709, 41.57651], [-81.41547, 41.576541], [-81.415473, 41.575846], [-81.416267, 41.575848], [-81.416177, 41.574774], [-81.416292, 41.574109], [-81.416318, 41.574108], [-81.417362, 41.573166], [-81.416354, 41.572781], [-81.415805, 41.572801], [-81.414963, 41.57245], [-81.413667, 41.571204], [-81.413366, 41.570326], [-81.413114, 41.569669], [-81.412861, 41.569053], [-81.41327, 41.567992], [-81.414, 41.566919], [-81.414401, 41.566655], [-81.415711, 41.566562], [-81.416112, 41.565136], [-81.415804, 41.56451], [-81.414773, 41.563834], [-81.411876, 41.562679], [-81.411327, 41.562328], [-81.410829, 41.561712], [-81.410629, 41.561191], [-81.410806, 41.560345], [-81.4111, 41.560283], [-81.411621, 41.560174], [-81.411778, 41.560142], [-81.414745, 41.560085], [-81.414684, 41.559886], [-81.414521, 41.559349], [-81.414458, 41.559002], [-81.414434, 41.558741], [-81.414411, 41.558408], [-81.414271, 41.557434], [-81.414091, 41.556672], [-81.413952, 41.556081], [-81.413956, 41.555876], [-81.413998, 41.555675], [-81.414033, 41.555576], [-81.414131, 41.555385], [-81.414264, 41.555207], [-81.415216, 41.554288], [-81.415295, 41.554205], [-81.415428, 41.554027], [-81.415482, 41.553933], [-81.415561, 41.553738], [-81.415597, 41.553587], [-81.415683, 41.553046], [-81.417308, 41.553084], [-81.417367, 41.551559], [-81.417774, 41.551592], [-81.417901, 41.550717], [-81.416877, 41.550733], [-81.416874, 41.550597], [-81.416774, 41.550598], [-81.416694, 41.550466], [-81.416979, 41.550376], [-81.416786, 41.550054], [-81.415562, 41.550395], [-81.415381, 41.550056], [-81.415222, 41.54976], [-81.416628, 41.549343], [-81.416318, 41.54875], [-81.418286, 41.54801], [-81.418567, 41.546984], [-81.418686, 41.546017], [-81.419566, 41.546034], [-81.419501, 41.546408], [-81.419197, 41.548155], [-81.418959, 41.548398], [-81.418919, 41.548701], [-81.420025, 41.548356], [-81.420529, 41.548092], [-81.421022, 41.547309], [-81.421964, 41.54818], [-81.422746, 41.547875], [-81.424274, 41.548161], [-81.424254, 41.548632]]]]}}]}
