{"type": "FeatureCollection", "licence": "Data \u00a9 OpenStreetMap contributors, ODbL 1.0. http://osm.org/copyright", "features": [{"type": "Feature", "properties": {"name": "O'Neil Woods Metro Park", "boundary_type": "park", "boundary_color": "#9ACD32", "osm_id": "way/323043456", "operator": "Summit Metro Parks"}, "geometry": {"type": "Polygon", "coordinates": [[[-81.597013, 41.173213], [-81.59688, 41.173292], [-81.596762, 41.173345], [-81.596612, 41.173387], [-81.596455, 41.173418], [-81.596402, 41.17342], [-81.596102, 41.17343], [-81.594634, 41.173448], [-81.594029, 41.173464], [-81.593861, 41.173481], [-81.593626, 41.17348], [-81.592291, 41.173475], [-81.58693, 41.173455], [-81.587013, 41.169556], [-81.587025, 41.168963], [-81.587197, 41.160874], [-81.587626, 41.160901], [-81.587868, 41.160929], [-81.588028, 41.160953], [-81.588273, 41.161003], [-81.588434, 41.161043], [-81.588587, 41.161088], [-81.589097, 41.16124], [-81.589647, 41.161416], [-81.589849, 41.161485], [-81.58992, 41.16151], [-81.590046, 41.161562], [-81.590168, 41.161618], [-81.590406, 41.161749], [-81.590632, 41.161876], [-81.59085, 41.161981], [-81.590904, 41.162002], [-81.591018, 41.162037], [-81.591135, 41.162067], [-81.591297, 41.162097], [-81.591399, 41.162111], [-81.591503, 41.162119], [-81.591608, 41.162122], [-81.591832, 41.162121], [-81.592096, 41.162107], [-81.592317, 41.16209], [-81.592642, 41.162065], [-81.593592, 41.162006], [-81.593832, 41.161978], [-81.594099, 41.161931], [-81.59423, 41.161893], [-81.594359, 41.161847], [-81.594509, 41.161781], [-81.594977, 41.161569], [-81.595104, 41.161516], [-81.595235, 41.161469], [-81.595437, 41.161407], [-81.595848, 41.161316], [-81.596332, 41.161215], [-81.596493, 41.161173], [-81.596587, 41.161149], [-81.596841, 41.161073], [-81.596962, 41.169362], [-81.596963, 41.169445], [-81.596968, 41.169745], [-81.596973, 41.170135], [-81.59698, 41.170606], [-81.597015, 41.173044], [-81.597014, 41.173177], [-81.597013, 41.173213]]]}}]}
