{"type": "FeatureCollection", "licence": "Data \u00a9 OpenStreetMap contributors, ODbL 1.0. http://osm.org/copyright", "features": [{"type": "Feature", "properties": {"name": "Ohio & Erie Canal Reservation", "boundary_type": "park", "boundary_color": "#9ACD32", "osm_id": "relations/3956408,11259162", "operator": "Cleveland Metroparks"}, "geometry": {"type": "MultiPolygon", "coordinates": [[[[-81.686985, 41.492672], [-81.686943, 41.492698], [-81.68689, 41.492686], [-81.686678, 41.492448], [-81.686703, 41.49228], [-81.686757, 41.492292], [-81.687088, 41.492326], [-81.687215, 41.4923], [-81.687342, 41.492348], [-81.687271, 41.492515], [-81.6874, 41.49279], [-81.687522, 41.492873], [-81.687536, 41.492999], [-81.687371, 41.492804], [-81.687326, 41.492767], [-81.687185, 41.492348], [-81.686985, 41.492672]]], [[[-81.6663, 41.433745], [-81.666358, 41.433591], [-81.666468, 41.433612], [-81.667625, 41.433461], [-81.668215, 41.433346], [-81.66848, 41.433236], [-81.668788, 41.43294], [-81.668845, 41.432809], [-81.669863, 41.43279], [-81.669841, 41.432814], [-81.669821, 41.432836], [-81.669158, 41.433544], [-81.669039, 41.43343], [-81.668548, 41.43327], [-81.668247, 41.433396], [-81.668023, 41.433462], [-81.6663, 41.433745]]], [[[-81.667896, 41.437844], [-81.667426, 41.437794], [-81.666952, 41.437854], [-81.666496, 41.437829], [-81.665979, 41.437751], [-81.665322, 41.437686], [-81.66498, 41.437567], [-81.664259, 41.437212], [-81.664008, 41.437066], [-81.663826, 41.436604], [-81.663845, 41.435916], [-81.663697, 41.435091], [-81.663757, 41.43477], [-81.663804, 41.434772], [-81.663797, 41.434893], [-81.664035, 41.435807], [-81.664037, 41.436719], [-81.664233, 41.437064], [-81.665076, 41.437457], [-81.66584, 41.437571], [-81.667796, 41.437709], [-81.667631, 41.437282], [-81.667977, 41.437284], [-81.668245, 41.437396], [-81.668851, 41.437578], [-81.669279, 41.43766], [-81.669638, 41.437722], [-81.670502, 41.437894], [-81.67214, 41.43832], [-81.671707, 41.438425], [-81.671578, 41.43859], [-81.67114, 41.439098], [-81.671007, 41.439218], [-81.670952, 41.43951], [-81.670906, 41.439734], [-81.670771, 41.439768], [-81.670599, 41.439697], [-81.670423, 41.43942], [-81.670136, 41.439134], [-81.669818, 41.438676], [-81.669577, 41.438314], [-81.669394, 41.438188], [-81.669243, 41.438083], [-81.668894, 41.43798], [-81.668545, 41.437901], [-81.667896, 41.437844]]], [[[-81.66814, 41.431776], [-81.668266, 41.43169], [-81.668376, 41.432265], [-81.668426, 41.432724], [-81.668363, 41.432819], [-81.668163, 41.43312], [-81.667487, 41.43323], [-81.66658, 41.433171], [-81.666641, 41.433081], [-81.666706, 41.432992], [-81.666775, 41.432905], [-81.666848, 41.43282], [-81.666924, 41.432736], [-81.667005, 41.432655], [-81.667088, 41.432575], [-81.667175, 41.432498], [-81.667427, 41.432303], [-81.66814, 41.431776]]], [[[-81.669297, 41.430595], [-81.671631, 41.430565], [-81.671138, 41.431109], [-81.670563, 41.431442], [-81.67062, 41.431726], [-81.671158, 41.431716], [-81.673127, 41.431681], [-81.672993, 41.432185], [-81.66857, 41.432275], [-81.668486, 41.431768], [-81.668423, 41.431555], [-81.668521, 41.431478], [-81.668615, 41.431399], [-81.668706, 41.431318], [-81.668794, 41.431234], [-81.668877, 41.431148], [-81.668957, 41.43106], [-81.669033, 41.430971], [-81.669105, 41.430879], [-81.669173, 41.430786], [-81.669237, 41.430691], [-81.669297, 41.430595]]], [[[-81.633293, 41.429485], [-81.633292, 41.429302], [-81.633321, 41.429302], [-81.633323, 41.429476], [-81.633317, 41.42965], [-81.633304, 41.429824], [-81.633283, 41.429997], [-81.633255, 41.43017], [-81.633201, 41.430433], [-81.633178, 41.430396], [-81.633217, 41.430215], [-81.633249, 41.430033], [-81.633272, 41.429851], [-81.633287, 41.429668], [-81.633293, 41.429485]]], [[[-81.701157, 41.48732], [-81.701107, 41.48732], [-81.701107, 41.487289], [-81.701118, 41.487289], [-81.701117, 41.487221], [-81.700923, 41.487221], [-81.700921, 41.48593], [-81.700993, 41.485681], [-81.700957, 41.485378], [-81.70094, 41.485076], [-81.700857, 41.485112], [-81.700667, 41.485198], [-81.700628, 41.485215], [-81.700575, 41.485227], [-81.700559, 41.48523], [-81.700559, 41.485194], [-81.700559, 41.48519], [-81.700558, 41.485187], [-81.700558, 41.485183], [-81.700557, 41.48518], [-81.700556, 41.485177], [-81.700555, 41.485173], [-81.700554, 41.48517], [-81.700553, 41.485166], [-81.700551, 41.485163], [-81.700549, 41.48516], [-81.700548, 41.485157], [-81.700546, 41.485154], [-81.700544, 41.48515], [-81.700542, 41.485147], [-81.70054, 41.485144], [-81.700539, 41.485141], [-81.700538, 41.485138], [-81.700536, 41.485135], [-81.700535, 41.485131], [-81.700535, 41.485128], [-81.700534, 41.485125], [-81.700533, 41.485121], [-81.700533, 41.485118], [-81.700532, 41.485115], [-81.700532, 41.485112], [-81.700532, 41.485108], [-81.700532, 41.485105], [-81.700532, 41.485101], [-81.70053, 41.48448], [-81.700545, 41.48447], [-81.700561, 41.48447], [-81.7006, 41.48448], [-81.700624, 41.48448], [-81.700913, 41.484479], [-81.70091, 41.484298], [-81.700906, 41.48233], [-81.700881, 41.482155], [-81.700825, 41.481999], [-81.700628, 41.481429], [-81.700594, 41.481429], [-81.700593, 41.481383], [-81.700593, 41.481337], [-81.700593, 41.481084], [-81.70069, 41.481068], [-81.700784, 41.481184], [-81.700839, 41.480785], [-81.700845, 41.480744], [-81.7009, 41.48051], [-81.701036, 41.480233], [-81.701087, 41.480149], [-81.701106, 41.480118], [-81.701004, 41.480074], [-81.70104, 41.480027], [-81.701138, 41.480068], [-81.701161, 41.480033], [-81.701207, 41.47972], [-81.701739, 41.4791], [-81.70188, 41.479101], [-81.702018, 41.479079], [-81.702146, 41.479036], [-81.70226, 41.478973], [-81.702676, 41.47853], [-81.702734, 41.478566], [-81.703173, 41.47814], [-81.703318, 41.478044], [-81.703501, 41.477866], [-81.703828, 41.477703], [-81.704, 41.477538], [-81.704057, 41.477517], [-81.704295, 41.477297], [-81.704388, 41.477211], [-81.704325, 41.477231], [-81.704287, 41.477266], [-81.704252, 41.477202], [-81.704363, 41.477101], [-81.704478, 41.477003], [-81.704597, 41.476907], [-81.704452, 41.4768], [-81.704503, 41.476761], [-81.704648, 41.476868], [-81.70477, 41.476779], [-81.704896, 41.476694], [-81.705026, 41.476611], [-81.705159, 41.476532], [-81.705296, 41.476456], [-81.705436, 41.476384], [-81.705727, 41.476265], [-81.706022, 41.476151], [-81.706141, 41.476109], [-81.706116, 41.476062], [-81.706184, 41.476041], [-81.706208, 41.476087], [-81.706349, 41.476044], [-81.706491, 41.476003], [-81.706635, 41.475967], [-81.706781, 41.475933], [-81.706928, 41.475903], [-81.707076, 41.475877], [-81.707224, 41.475854], [-81.707331, 41.475835], [-81.707485, 41.475804], [-81.70795, 41.4757], [-81.708, 41.475689], [-81.70799, 41.475683], [-81.708034, 41.47564], [-81.708086, 41.47567], [-81.70815, 41.475656], [-81.708249, 41.475638], [-81.708387, 41.47562], [-81.70891, 41.475575], [-81.70907, 41.475565], [-81.70923, 41.475561], [-81.709391, 41.475563], [-81.709829, 41.475586], [-81.710228, 41.475597], [-81.710742, 41.475611], [-81.710841, 41.475604], [-81.711213, 41.475607], [-81.711333, 41.475594], [-81.712292, 41.475615], [-81.712292, 41.475603], [-81.712474, 41.475604], [-81.712474, 41.475616], [-81.712864, 41.475612], [-81.712864, 41.475585], [-81.713305, 41.475483], [-81.713307, 41.475484], [-81.713309, 41.475485], [-81.713312, 41.475487], [-81.713314, 41.475488], [-81.713316, 41.47549], [-81.713318, 41.475491], [-81.71332, 41.475493], [-81.713321, 41.475495], [-81.713323, 41.475497], [-81.713325, 41.475498], [-81.713326, 41.4755], [-81.713328, 41.475502], [-81.71333, 41.475504], [-81.713331, 41.475506], [-81.713524, 41.475529], [-81.714047, 41.475592], [-81.714308, 41.475616], [-81.714822, 41.475634], [-81.715351, 41.475678], [-81.715688, 41.475679], [-81.715806, 41.475683], [-81.716019, 41.47567], [-81.716364, 41.475668], [-81.716364, 41.47568], [-81.716583, 41.475679], [-81.716583, 41.475683], [-81.716956, 41.475681], [-81.717107, 41.475689], [-81.717594, 41.475686], [-81.71809, 41.475683], [-81.718706, 41.475562], [-81.719135, 41.475554], [-81.719489, 41.475546], [-81.719615, 41.475547], [-81.719743, 41.475555], [-81.719897, 41.475568], [-81.720081, 41.475577], [-81.720265, 41.475572], [-81.722291, 41.475436], [-81.722751, 41.475252], [-81.722751, 41.47529], [-81.722765, 41.47529], [-81.722766, 41.475318], [-81.722971, 41.475316], [-81.722971, 41.475302], [-81.723092, 41.475189], [-81.723326, 41.475159], [-81.723424, 41.47522], [-81.723471, 41.475249], [-81.723563, 41.475383], [-81.723506, 41.475453], [-81.723418, 41.475383], [-81.723342, 41.475272], [-81.723264, 41.475263], [-81.723192, 41.475275], [-81.723196, 41.475288], [-81.723195, 41.475294], [-81.723189, 41.475298], [-81.723127, 41.475307], [-81.723062, 41.475376], [-81.722972, 41.475384], [-81.722972, 41.475371], [-81.722753, 41.475373], [-81.722759, 41.475698], [-81.722246, 41.475704], [-81.722246, 41.475696], [-81.721698, 41.475702], [-81.721698, 41.475661], [-81.720149, 41.475677], [-81.719931, 41.475679], [-81.718497, 41.475693], [-81.718266, 41.475747], [-81.716607, 41.475758], [-81.716584, 41.475758], [-81.716584, 41.475741], [-81.716365, 41.475738], [-81.715597, 41.475744], [-81.715214, 41.475736], [-81.714948, 41.475703], [-81.714856, 41.475696], [-81.714383, 41.475677], [-81.713527, 41.475676], [-81.713525, 41.475585], [-81.713341, 41.475563], [-81.713341, 41.475583], [-81.713341, 41.475586], [-81.713341, 41.475588], [-81.713341, 41.47559], [-81.713341, 41.475593], [-81.71334, 41.475595], [-81.71334, 41.475597], [-81.713339, 41.4756], [-81.713338, 41.475602], [-81.713337, 41.475604], [-81.713336, 41.475606], [-81.713335, 41.475609], [-81.713334, 41.475611], [-81.713333, 41.475613], [-81.713331, 41.475615], [-81.71333, 41.475617], [-81.713328, 41.475619], [-81.713327, 41.475621], [-81.713325, 41.475623], [-81.713323, 41.475625], [-81.713321, 41.475627], [-81.713319, 41.475629], [-81.713317, 41.47563], [-81.713315, 41.475632], [-81.713313, 41.475634], [-81.71331, 41.475635], [-81.713308, 41.475637], [-81.713305, 41.475638], [-81.713303, 41.475639], [-81.7133, 41.475641], [-81.713298, 41.475642], [-81.713295, 41.475643], [-81.713292, 41.475644], [-81.713289, 41.475645], [-81.713286, 41.475646], [-81.713284, 41.475647], [-81.713281, 41.475648], [-81.713278, 41.475649], [-81.713275, 41.475649], [-81.713272, 41.47565], [-81.713269, 41.47565], [-81.713266, 41.475651], [-81.713262, 41.475651], [-81.713259, 41.475651], [-81.713256, 41.475651], [-81.713253, 41.475651], [-81.712483, 41.475659], [-81.712276, 41.475656], [-81.711352, 41.47566], [-81.711321, 41.475662], [-81.711209, 41.475669], [-81.711176, 41.475674], [-81.710826, 41.475675], [-81.71071, 41.475677], [-81.710462, 41.47567], [-81.710337, 41.475672], [-81.709883, 41.475669], [-81.709612, 41.475666], [-81.709292, 41.475689], [-81.709283, 41.475631], [-81.708387, 41.475708], [-81.708228, 41.475727], [-81.708071, 41.475756], [-81.707518, 41.475879], [-81.707357, 41.475913], [-81.70694, 41.475983], [-81.706565, 41.476093], [-81.706193, 41.476211], [-81.705827, 41.476337], [-81.705723, 41.476376], [-81.705619, 41.476417], [-81.705518, 41.476461], [-81.705417, 41.476506], [-81.705166, 41.476647], [-81.704877, 41.476833], [-81.704608, 41.477033], [-81.704655, 41.477066], [-81.70454, 41.477163], [-81.70452, 41.477169], [-81.704498, 41.477189], [-81.704437, 41.477226], [-81.704165, 41.477478], [-81.704201, 41.477465], [-81.703952, 41.477696], [-81.703681, 41.477901], [-81.703618, 41.477956], [-81.70357, 41.477926], [-81.703395, 41.478087], [-81.70314, 41.478294], [-81.702038, 41.479315], [-81.701764, 41.479595], [-81.701524, 41.479891], [-81.701321, 41.480203], [-81.701155, 41.480527], [-81.701076, 41.480742], [-81.701026, 41.480963], [-81.701016, 41.481034], [-81.700963, 41.481406], [-81.70094, 41.481603], [-81.700933, 41.481764], [-81.700944, 41.481968], [-81.700978, 41.482207], [-81.700989, 41.482322], [-81.700989, 41.482415], [-81.700995, 41.482914], [-81.700999, 41.483058], [-81.701014, 41.483393], [-81.701061, 41.483393], [-81.701015, 41.483412], [-81.701056, 41.484298], [-81.701064, 41.484479], [-81.701088, 41.485], [-81.701088, 41.485009], [-81.701102, 41.485313], [-81.701126, 41.485842], [-81.701192, 41.485841], [-81.701246, 41.487021], [-81.701376, 41.487017], [-81.701372, 41.486679], [-81.701558, 41.486679], [-81.701658, 41.486966], [-81.701661, 41.487275], [-81.701755, 41.487339], [-81.701755, 41.487453], [-81.701402, 41.487454], [-81.701249, 41.487454], [-81.701313, 41.488838], [-81.70123, 41.488839], [-81.701176, 41.487716], [-81.701168, 41.48745], [-81.700693, 41.48745], [-81.700616, 41.487464], [-81.700612, 41.4875], [-81.70057, 41.4875], [-81.700567, 41.487448], [-81.700591, 41.487431], [-81.70062, 41.487424], [-81.700755, 41.487409], [-81.701161, 41.487398], [-81.70116, 41.487382], [-81.701157, 41.48732]]], [[[-81.639629, 41.418064], [-81.639652, 41.418082], [-81.639615, 41.418251], [-81.639591, 41.418264], [-81.639571, 41.418248], [-81.639608, 41.418077], [-81.639629, 41.418064]]], [[[-81.63558, 41.42066], [-81.635937, 41.42038], [-81.635962, 41.420311], [-81.635938, 41.420128], [-81.63597, 41.420035], [-81.636157, 41.41983], [-81.636314, 41.419725], [-81.636434, 41.419601], [-81.636551, 41.419536], [-81.636774, 41.419473], [-81.636966, 41.419356], [-81.63706, 41.419329], [-81.637188, 41.419316], [-81.637259, 41.419299], [-81.637332, 41.419265], [-81.637389, 41.419217], [-81.637437, 41.41913], [-81.637472, 41.418925], [-81.637439, 41.418653], [-81.637442, 41.418588], [-81.637473, 41.418504], [-81.637533, 41.418433], [-81.637618, 41.418381], [-81.63772, 41.41835], [-81.637805, 41.418343], [-81.638002, 41.418352], [-81.638071, 41.418338], [-81.638284, 41.418269], [-81.638291, 41.418282], [-81.638384, 41.418261], [-81.638494, 41.418259], [-81.637993, 41.418087], [-81.638468, 41.41795], [-81.638558, 41.41787], [-81.638614, 41.417798], [-81.638656, 41.417743], [-81.639549, 41.417988], [-81.639571, 41.418031], [-81.639482, 41.418446], [-81.639419, 41.418505], [-81.639253, 41.418572], [-81.639166, 41.41858], [-81.639071, 41.418562], [-81.638808, 41.418409], [-81.638563, 41.418326], [-81.638479, 41.418312], [-81.638403, 41.418313], [-81.63834, 41.418326], [-81.63832, 41.418332], [-81.638328, 41.418345], [-81.638059, 41.418427], [-81.637962, 41.418437], [-81.637769, 41.418427], [-81.637711, 41.418438], [-81.637652, 41.418462], [-81.637586, 41.418519], [-81.637552, 41.418591], [-81.637548, 41.418647], [-81.63758, 41.41894], [-81.63754, 41.419162], [-81.637514, 41.419216], [-81.637471, 41.419272], [-81.637413, 41.419321], [-81.63733, 41.419364], [-81.637236, 41.419392], [-81.637108, 41.419405], [-81.637036, 41.419422], [-81.636972, 41.419451], [-81.63682, 41.419548], [-81.63662, 41.419602], [-81.636563, 41.419626], [-81.6365, 41.41967], [-81.636395, 41.419781], [-81.636245, 41.419879], [-81.636201, 41.419939], [-81.636192, 41.41999], [-81.636205, 41.420041], [-81.636237, 41.420087], [-81.636293, 41.420126], [-81.636356, 41.420146], [-81.636775, 41.420223], [-81.637151, 41.42035], [-81.637288, 41.420396], [-81.637515, 41.420534], [-81.637784, 41.420608], [-81.638184, 41.42077], [-81.638288, 41.420846], [-81.638351, 41.42094], [-81.638247, 41.420965], [-81.638201, 41.420895], [-81.638123, 41.420839], [-81.637726, 41.420679], [-81.637461, 41.420606], [-81.637237, 41.420469], [-81.636737, 41.4203], [-81.636285, 41.420215], [-81.63619, 41.42017], [-81.636127, 41.42011], [-81.63612, 41.420154], [-81.636145, 41.420311], [-81.636123, 41.420404], [-81.636053, 41.420493], [-81.635857, 41.420643], [-81.636757, 41.420588], [-81.636786, 41.420861], [-81.634752, 41.420986], [-81.634094, 41.422388], [-81.633986, 41.422686], [-81.633898, 41.422668], [-81.634007, 41.422368], [-81.634786, 41.420709], [-81.63558, 41.42066]], [[-81.639195, 41.418524], [-81.638953, 41.418424], [-81.639079, 41.418503], [-81.639143, 41.418524], [-81.639195, 41.418524]]], [[[-81.629118, 41.409673], [-81.62923, 41.410045], [-81.629596, 41.410448], [-81.630729, 41.411784], [-81.630793, 41.411859], [-81.630704, 41.411902], [-81.63074, 41.411946], [-81.631548, 41.41286], [-81.631668, 41.413007], [-81.631731, 41.412985], [-81.632604, 41.414002], [-81.632518, 41.414003], [-81.632728, 41.414247], [-81.632808, 41.414246], [-81.633315, 41.414855], [-81.633417, 41.414978], [-81.634002, 41.415627], [-81.634157, 41.415781], [-81.634331, 41.415923], [-81.634523, 41.41605], [-81.63466, 41.416127], [-81.634878, 41.416229], [-81.635187, 41.416338], [-81.636223, 41.416613], [-81.63621, 41.416645], [-81.636554, 41.416736], [-81.636734, 41.416777], [-81.636878, 41.416812], [-81.637606, 41.416982], [-81.638018, 41.41709], [-81.638012, 41.417103], [-81.638518, 41.417243], [-81.638513, 41.416709], [-81.638753, 41.416708], [-81.638969, 41.416367], [-81.639104, 41.416527], [-81.640053, 41.417651], [-81.640488, 41.417744], [-81.640864, 41.417766], [-81.641534, 41.417949], [-81.642615, 41.418076], [-81.642801, 41.41807], [-81.642968, 41.418154], [-81.643092, 41.41819], [-81.643101, 41.418174], [-81.643152, 41.418173], [-81.64312, 41.417954], [-81.643632, 41.417646], [-81.643666, 41.417849], [-81.643713, 41.418136], [-81.644054, 41.418092], [-81.644511, 41.418075], [-81.644952, 41.41791], [-81.64513, 41.41772], [-81.645302, 41.417269], [-81.645373, 41.417128], [-81.646086, 41.417326], [-81.646238, 41.417179], [-81.646257, 41.417195], [-81.646186, 41.417338], [-81.646138, 41.417619], [-81.646234, 41.417788], [-81.646394, 41.417923], [-81.646575, 41.418048], [-81.646792, 41.418132], [-81.647175, 41.418186], [-81.648081, 41.418551], [-81.648164, 41.418584], [-81.64952, 41.418911], [-81.650593, 41.41922], [-81.651554, 41.419365], [-81.651933, 41.419474], [-81.652322, 41.41965], [-81.652716, 41.419736], [-81.653099, 41.4198], [-81.653449, 41.419814], [-81.653645, 41.419764], [-81.653755, 41.419599], [-81.653963, 41.419559], [-81.654298, 41.419636], [-81.654563, 41.419803], [-81.654417, 41.419877], [-81.65439, 41.420465], [-81.653982, 41.420974], [-81.653317, 41.421038], [-81.653221, 41.421155], [-81.652714, 41.421208], [-81.652727, 41.421132], [-81.652722, 41.420909], [-81.652175, 41.420919], [-81.65218, 41.421108], [-81.652145, 41.421298], [-81.652335, 41.421317], [-81.652346, 41.421627], [-81.6525, 41.42164], [-81.652842, 41.421528], [-81.653199, 41.421473], [-81.653564, 41.421445], [-81.653908, 41.421391], [-81.653912, 41.421346], [-81.654283, 41.421363], [-81.654637, 41.421325], [-81.655707, 41.421159], [-81.657144, 41.420955], [-81.657531, 41.420937], [-81.657892, 41.420998], [-81.65831, 41.421031], [-81.658304, 41.421072], [-81.658568, 41.421289], [-81.659495, 41.421726], [-81.659811, 41.421864], [-81.660138, 41.421977], [-81.660177, 41.421951], [-81.660426, 41.422159], [-81.66073, 41.422305], [-81.661014, 41.422481], [-81.661195, 41.42257], [-81.661278, 41.422683], [-81.661483, 41.422912], [-81.661664, 41.423154], [-81.662457, 41.424391], [-81.662625, 41.424632], [-81.662808, 41.424855], [-81.663022, 41.42507], [-81.663191, 41.425189], [-81.663154, 41.425219], [-81.663385, 41.425194], [-81.663528, 41.425466], [-81.663763, 41.425686], [-81.664517, 41.426324], [-81.665279, 41.426853], [-81.664797, 41.427067], [-81.664991, 41.427378], [-81.665128, 41.427555], [-81.665967, 41.427182], [-81.666095, 41.427253], [-81.667039, 41.427572], [-81.667805, 41.427765], [-81.668509, 41.42805], [-81.66907, 41.429218], [-81.668739, 41.430491], [-81.668675, 41.430568], [-81.665589, 41.433111], [-81.665526, 41.433182], [-81.664255, 41.433831], [-81.663726, 41.433838], [-81.663563, 41.434153], [-81.663462, 41.434417], [-81.663387, 41.434689], [-81.663299, 41.434935], [-81.663157, 41.435192], [-81.663115, 41.435466], [-81.662948, 41.435604], [-81.663378, 41.435618], [-81.663331, 41.436605], [-81.663352, 41.436838], [-81.663378, 41.436902], [-81.663395, 41.43691], [-81.663574, 41.437142], [-81.664432, 41.437754], [-81.665015, 41.438078], [-81.665645, 41.438237], [-81.66651, 41.438251], [-81.668288, 41.438317], [-81.668586, 41.438628], [-81.668694, 41.43894], [-81.668663, 41.439458], [-81.668772, 41.439885], [-81.669229, 41.440017], [-81.669974, 41.440244], [-81.670067, 41.440293], [-81.670195, 41.440288], [-81.670529, 41.440273], [-81.670844, 41.440184], [-81.67104, 41.440083], [-81.671375, 41.43984], [-81.671512, 41.43962], [-81.671507, 41.43952], [-81.671394, 41.439542], [-81.671428, 41.439295], [-81.671537, 41.439185], [-81.67206, 41.438764], [-81.672429, 41.438598], [-81.673287, 41.438972], [-81.673691, 41.439077], [-81.674605, 41.439516], [-81.675589, 41.440218], [-81.676538, 41.440866], [-81.676825, 41.440948], [-81.677469, 41.441538], [-81.677669, 41.441769], [-81.677756, 41.442223], [-81.677611, 41.442574], [-81.677249, 41.442925], [-81.67691, 41.443418], [-81.676775, 41.443645], [-81.676822, 41.444012], [-81.677616, 41.444289], [-81.67777, 41.444371], [-81.678116, 41.444507], [-81.67822, 41.444507], [-81.678729, 41.444807], [-81.679043, 41.444947], [-81.679229, 41.445024], [-81.679682, 41.445212], [-81.68, 41.445299], [-81.680335, 41.445338], [-81.681062, 41.445298], [-81.681789, 41.445242], [-81.682518, 41.445221], [-81.68292, 41.445225], [-81.683088, 41.44528], [-81.683281, 41.445883], [-81.683254, 41.446082], [-81.683157, 41.446261], [-81.682982, 41.446504], [-81.682785, 41.446735], [-81.682619, 41.44688], [-81.682619, 41.447287], [-81.68221, 41.447297], [-81.682169, 41.44735], [-81.681873, 41.447358], [-81.682491, 41.446638], [-81.682783, 41.44618], [-81.682745, 41.445845], [-81.6811, 41.445901], [-81.680388, 41.445903], [-81.679968, 41.445923], [-81.679588, 41.445896], [-81.67903, 41.445791], [-81.678881, 41.445707], [-81.678908, 41.445526], [-81.678818, 41.445358], [-81.678632, 41.445222], [-81.678364, 41.445135], [-81.677887, 41.445046], [-81.677565, 41.444946], [-81.676869, 41.444643], [-81.676611, 41.444569], [-81.676598, 41.444164], [-81.676577, 41.444108], [-81.676488, 41.443986], [-81.67656, 41.443736], [-81.676566, 41.443656], [-81.676501, 41.443331], [-81.676437, 41.443112], [-81.676206, 41.442521], [-81.675774, 41.441961], [-81.675741, 41.441706], [-81.675359, 41.441247], [-81.674795, 41.441004], [-81.674403, 41.441075], [-81.674154, 41.441029], [-81.674024, 41.440814], [-81.674075, 41.440515], [-81.673884, 41.440461], [-81.673609, 41.440142], [-81.673494, 41.440079], [-81.673371, 41.440053], [-81.673342, 41.439995], [-81.673071, 41.43979], [-81.673165, 41.439608], [-81.673114, 41.439537], [-81.67285, 41.439445], [-81.672557, 41.439391], [-81.672443, 41.43934], [-81.672383, 41.439339], [-81.672165, 41.439223], [-81.67211, 41.439153], [-81.671856, 41.439482], [-81.671947, 41.439805], [-81.671856, 41.440169], [-81.671438, 41.440202], [-81.67151, 41.442196], [-81.671096, 41.442163], [-81.670851, 41.44213], [-81.670861, 41.442399], [-81.670653, 41.442368], [-81.670251, 41.442252], [-81.669917, 41.442136], [-81.669319, 41.44175], [-81.668798, 41.441366], [-81.668529, 41.44118], [-81.668279, 41.44098], [-81.668018, 41.440788], [-81.667728, 41.440619], [-81.667479, 41.440418], [-81.667219, 41.440225], [-81.666938, 41.440049], [-81.666672, 41.439862], [-81.666393, 41.439684], [-81.666022, 41.439374], [-81.665561, 41.439349], [-81.66504, 41.438966], [-81.664873, 41.438816], [-81.664608, 41.438617], [-81.664401, 41.438441], [-81.663834, 41.438027], [-81.663787, 41.437917], [-81.663414, 41.43765], [-81.663196, 41.437327], [-81.662971, 41.437166], [-81.662796, 41.436923], [-81.662606, 41.436591], [-81.662513, 41.436243], [-81.662536, 41.435915], [-81.66214, 41.435888], [-81.662102, 41.436697], [-81.661226, 41.436458], [-81.66114, 41.437676], [-81.660674, 41.437918], [-81.659664, 41.438196], [-81.657219, 41.438368], [-81.657235, 41.439119], [-81.657065, 41.439145], [-81.65698, 41.439422], [-81.656994, 41.43979], [-81.656831, 41.440542], [-81.656307, 41.440504], [-81.656805, 41.439741], [-81.656711, 41.435155], [-81.657385, 41.435148], [-81.657339, 41.432742], [-81.657531, 41.43274], [-81.657959, 41.432736], [-81.661043, 41.432704], [-81.661668, 41.432189], [-81.661643, 41.4306], [-81.661096, 41.430605], [-81.659838, 41.430444], [-81.659825, 41.43005], [-81.660644, 41.42987], [-81.661321, 41.42933], [-81.663222, 41.428483], [-81.663176, 41.428424], [-81.664842, 41.427683], [-81.664693, 41.427486], [-81.664545, 41.427235], [-81.664508, 41.427196], [-81.663192, 41.427781], [-81.663066, 41.427507], [-81.663049, 41.427149], [-81.662821, 41.426663], [-81.661666, 41.425851], [-81.661263, 41.425668], [-81.660946, 41.425577], [-81.662768, 41.425559], [-81.662614, 41.425331], [-81.662494, 41.42505], [-81.662335, 41.424971], [-81.662164, 41.424955], [-81.661528, 41.423706], [-81.660937, 41.423348], [-81.660987, 41.423292], [-81.661213, 41.423151], [-81.661155, 41.423044], [-81.660942, 41.422818], [-81.660814, 41.422728], [-81.660529, 41.422553], [-81.660216, 41.422412], [-81.659918, 41.422253], [-81.658381, 41.421515], [-81.658069, 41.421373], [-81.657829, 41.421282], [-81.657474, 41.421221], [-81.657224, 41.421238], [-81.655792, 41.421444], [-81.655441, 41.421523], [-81.654953, 41.421581], [-81.65472, 41.421609], [-81.654364, 41.421671], [-81.65293, 41.421869], [-81.651856, 41.422027], [-81.651501, 41.422089], [-81.65078, 41.422175], [-81.650068, 41.422295], [-81.64971, 41.422346], [-81.64931, 41.422379], [-81.648949, 41.422421], [-81.648583, 41.422419], [-81.64813, 41.422384], [-81.647772, 41.42233], [-81.647363, 41.422202], [-81.647039, 41.422075], [-81.646737, 41.421921], [-81.646391, 41.421692], [-81.646153, 41.421484], [-81.645717, 41.421044], [-81.645095, 41.420366], [-81.644768, 41.420207], [-81.64475, 41.42023], [-81.644895, 41.420409], [-81.645323, 41.420846], [-81.643915, 41.419647], [-81.643299, 41.419019], [-81.642357, 41.418462], [-81.642314, 41.418394], [-81.643245, 41.418765], [-81.643201, 41.418532], [-81.642915, 41.418418], [-81.642563, 41.418337], [-81.64184, 41.418262], [-81.641476, 41.418241], [-81.640708, 41.4181], [-81.640011, 41.417936], [-81.636927, 41.417093], [-81.636233, 41.416923], [-81.634502, 41.416408], [-81.633888, 41.416019], [-81.633246, 41.415303], [-81.630452, 41.412087], [-81.629824, 41.411413], [-81.62957, 41.411209], [-81.629033, 41.410818], [-81.628602, 41.410047], [-81.628167, 41.409231], [-81.627755, 41.407863], [-81.627395, 41.406518], [-81.626425, 41.403025], [-81.626321, 41.402164], [-81.626539, 41.400777], [-81.626873, 41.398319], [-81.62702, 41.397503], [-81.627138, 41.396408], [-81.627358, 41.39477], [-81.627383, 41.394657], [-81.627392, 41.394616], [-81.627454, 41.394613], [-81.627472, 41.394534], [-81.62766, 41.393728], [-81.627613, 41.393725], [-81.627685, 41.39351], [-81.628054, 41.393534], [-81.627915, 41.393996], [-81.627804, 41.394533], [-81.627463, 41.396988], [-81.627075, 41.399442], [-81.626878, 41.400806], [-81.626804, 41.401271], [-81.626795, 41.40127], [-81.626782, 41.40135], [-81.626769, 41.401432], [-81.626781, 41.401433], [-81.626756, 41.40159], [-81.626883, 41.401601], [-81.626855, 41.401902], [-81.626804, 41.401902], [-81.626864, 41.402524], [-81.626892, 41.402645], [-81.62682, 41.402655], [-81.627173, 41.404032], [-81.627158, 41.404144], [-81.627201, 41.404137], [-81.627864, 41.406976], [-81.628076, 41.407815], [-81.628316, 41.408678], [-81.628381, 41.408694], [-81.628485, 41.408775], [-81.628344, 41.408758], [-81.628362, 41.40885], [-81.628416, 41.408971], [-81.628437, 41.409004], [-81.631554, 41.408461], [-81.631556, 41.408476], [-81.634444, 41.407954], [-81.634668, 41.408236], [-81.635018, 41.408644], [-81.634056, 41.408811], [-81.633486, 41.408911], [-81.629118, 41.409673]], [[-81.651377, 41.421369], [-81.651521, 41.420856], [-81.651522, 41.420855], [-81.651523, 41.420851], [-81.652172, 41.420809], [-81.652686, 41.4208], [-81.653245, 41.420746], [-81.653478, 41.420456], [-81.653504, 41.4199], [-81.652953, 41.419802], [-81.65228, 41.419845], [-81.652003, 41.419811], [-81.651692, 41.419772], [-81.650584, 41.419636], [-81.650502, 41.419441], [-81.650134, 41.419223], [-81.648987, 41.418936], [-81.648663, 41.418889], [-81.648047, 41.418896], [-81.647602, 41.418563], [-81.647034, 41.418482], [-81.646661, 41.418471], [-81.646098, 41.418488], [-81.645744, 41.418645], [-81.645391, 41.418867], [-81.645177, 41.419519], [-81.64664, 41.421463], [-81.646779, 41.421557], [-81.64698, 41.42164], [-81.647349, 41.421735], [-81.647427, 41.421755], [-81.647866, 41.421994], [-81.649017, 41.422024], [-81.649532, 41.421961], [-81.650106, 41.421751], [-81.650631, 41.421728], [-81.65096, 41.421713], [-81.651377, 41.421369]]], [[[-81.666466, 41.427043], [-81.668279, 41.427009], [-81.668735, 41.427498], [-81.668385, 41.427373], [-81.667423, 41.427318], [-81.666466, 41.427043]]], [[[-81.668543, 41.427004], [-81.6703, 41.426971], [-81.670333, 41.427926], [-81.670916, 41.427915], [-81.670944, 41.428391], [-81.671426, 41.428849], [-81.66964, 41.428877], [-81.669521, 41.4284], [-81.669435, 41.428172], [-81.669295, 41.427946], [-81.669235, 41.427844], [-81.669171, 41.427744], [-81.669103, 41.427645], [-81.669031, 41.427548], [-81.668955, 41.427453], [-81.668876, 41.427359], [-81.668543, 41.427004]]], [[[-81.634656, 41.426882], [-81.633779, 41.426533], [-81.633468, 41.426756], [-81.633434, 41.426723], [-81.633308, 41.42673], [-81.633068, 41.426163], [-81.633067, 41.426153], [-81.633055, 41.425916], [-81.633052, 41.425678], [-81.633059, 41.42544], [-81.633076, 41.425202], [-81.633102, 41.424965], [-81.633138, 41.424729], [-81.633417, 41.423992], [-81.633426, 41.423969], [-81.633462, 41.423968], [-81.633463, 41.423969], [-81.633463, 41.42397], [-81.63473, 41.426668], [-81.634702, 41.426747], [-81.635041, 41.426772], [-81.635098, 41.42693], [-81.634922, 41.426966], [-81.634898, 41.4269], [-81.634656, 41.426882]]], [[[-81.689777, 41.485923], [-81.690015, 41.485362], [-81.690033, 41.48532], [-81.690138, 41.485069], [-81.690257, 41.48508], [-81.690294, 41.485158], [-81.690489, 41.485141], [-81.690529, 41.485106], [-81.690519, 41.485034], [-81.690399, 41.484946], [-81.690406, 41.484929], [-81.69041, 41.484912], [-81.690384, 41.484725], [-81.690381, 41.48451], [-81.690393, 41.484481], [-81.690418, 41.484463], [-81.690638, 41.484455], [-81.693529, 41.484456], [-81.693517, 41.484475], [-81.693182, 41.484983], [-81.692804, 41.485226], [-81.692741, 41.485316], [-81.692832, 41.485355], [-81.69252, 41.48575], [-81.69258, 41.48596], [-81.692756, 41.486047], [-81.694476, 41.487024], [-81.694464, 41.48723], [-81.694459, 41.487315], [-81.694461, 41.487664], [-81.694461, 41.487856], [-81.694513, 41.489168], [-81.694413, 41.489167], [-81.694086, 41.489388], [-81.693997, 41.488944], [-81.694094, 41.488818], [-81.694193, 41.488615], [-81.694219, 41.488464], [-81.694189, 41.48828], [-81.694137, 41.488012], [-81.69409, 41.487906], [-81.694085, 41.487898], [-81.694047, 41.487846], [-81.693977, 41.487785], [-81.693911, 41.48774], [-81.693854, 41.487665], [-81.693822, 41.48759], [-81.693753, 41.487514], [-81.693686, 41.487448], [-81.69356, 41.487388], [-81.693422, 41.487359], [-81.69323, 41.487344], [-81.693156, 41.487284], [-81.693075, 41.487155], [-81.69298, 41.487031], [-81.692905, 41.48693], [-81.692835, 41.486922], [-81.69274, 41.486804], [-81.692707, 41.486778], [-81.692395, 41.486626], [-81.692137, 41.486481], [-81.691975, 41.486417], [-81.691014, 41.486144], [-81.690783, 41.486088], [-81.690377, 41.485964], [-81.690145, 41.485932], [-81.689777, 41.485923]], [[-81.69081, 41.48606], [-81.691562, 41.486199], [-81.69202, 41.486236], [-81.692189, 41.486114], [-81.692353, 41.48605], [-81.692314, 41.485939], [-81.692036, 41.485993], [-81.691747, 41.485955], [-81.690986, 41.485702], [-81.69081, 41.48606]]], [[[-81.685954, 41.493975], [-81.685903, 41.49397], [-81.685856, 41.493954], [-81.685796, 41.493828], [-81.685769, 41.493664], [-81.685884, 41.493499], [-81.686211, 41.493221], [-81.686138, 41.493147], [-81.685439, 41.492758], [-81.68574, 41.492594], [-81.686048, 41.492399], [-81.686179, 41.492302], [-81.686204, 41.492294], [-81.68647, 41.492498], [-81.686561, 41.492607], [-81.686757, 41.492766], [-81.686782, 41.492712], [-81.686841, 41.492778], [-81.686862, 41.492846], [-81.686854, 41.492882], [-81.686701, 41.49314], [-81.686671, 41.493147], [-81.686594, 41.493269], [-81.686613, 41.493314], [-81.686509, 41.493482], [-81.686491, 41.493528], [-81.686489, 41.493585], [-81.68651, 41.493696], [-81.686497, 41.493739], [-81.686471, 41.493759], [-81.686057, 41.493944], [-81.685954, 41.493975]]], [[[-81.685341, 41.494203], [-81.685254, 41.494183], [-81.684898, 41.494028], [-81.684869, 41.493963], [-81.685536, 41.493559], [-81.685643, 41.493609], [-81.685617, 41.493703], [-81.685608, 41.49381], [-81.685618, 41.493935], [-81.685647, 41.494083], [-81.685642, 41.494114], [-81.685614, 41.49414], [-81.685507, 41.494185], [-81.685421, 41.494202], [-81.685341, 41.494203]]], [[[-81.687332, 41.495065], [-81.686459, 41.494675], [-81.685997, 41.494415], [-81.685948, 41.494369], [-81.685931, 41.494318], [-81.685945, 41.494281], [-81.685999, 41.494235], [-81.686468, 41.494028], [-81.686504, 41.494072], [-81.687332, 41.495065]]], [[[-81.69047, 41.484343], [-81.690405, 41.484346], [-81.690397, 41.483815], [-81.690447, 41.483814], [-81.690547, 41.483664], [-81.690709, 41.483419], [-81.691065, 41.482881], [-81.691214, 41.482597], [-81.691252, 41.482549], [-81.691242, 41.48242], [-81.691276, 41.482417], [-81.69146, 41.483087], [-81.691488, 41.483293], [-81.69149, 41.48347], [-81.691473, 41.483638], [-81.691435, 41.483792], [-81.691306, 41.484172], [-81.691327, 41.484221], [-81.691728, 41.484269], [-81.692061, 41.483283], [-81.692199, 41.483382], [-81.692313, 41.48348], [-81.692395, 41.48357], [-81.692445, 41.483649], [-81.692472, 41.483832], [-81.692483, 41.484238], [-81.692441, 41.484321], [-81.69241, 41.484344], [-81.692373, 41.484354], [-81.691436, 41.484362], [-81.69047, 41.484343]]]]}}]}
