{"type": "FeatureCollection", "licence": "Data \u00a9 OpenStreetMap contributors, ODbL 1.0. http://osm.org/copyright", "features": [{"type": "Feature", "properties": {"name": "Rivergate Park", "boundary_type": "park", "boundary_color": "#6FAF8F", "osm_id": "way/1011021052", "operator": "Cleveland Metroparks"}, "geometry": {"type": "Polygon", "coordinates": [[[-81.70039, 41.488962], [-81.700587, 41.488965], [-81.700638, 41.488966], [-81.70123, 41.488966], [-81.701348, 41.488966], [-81.701602, 41.489056], [-81.701834, 41.489226], [-81.702266, 41.489539], [-81.702275, 41.489965], [-81.702319, 41.489993], [-81.702763, 41.489627], [-81.703877, 41.490457], [-81.704021, 41.4904], [-81.704012, 41.490325], [-81.703303, 41.489741], [-81.703187, 41.489815], [-81.703145, 41.48978], [-81.703254, 41.489705], [-81.70302, 41.489516], [-81.702777, 41.489312], [-81.702484, 41.489072], [-81.701635, 41.488731], [-81.70121, 41.488636], [-81.70061, 41.488639], [-81.700581, 41.48864], [-81.700365, 41.488641], [-81.700268, 41.488703], [-81.699968, 41.489008], [-81.699977, 41.489011], [-81.700337, 41.489134], [-81.700381, 41.489135], [-81.700397, 41.489133], [-81.70039, 41.488962]]]}}]}
