{"type": "FeatureCollection", "licence": "Data \u00a9 OpenStreetMap contributors, ODbL 1.0. http://osm.org/copyright", "features": [{"type": "Feature", "properties": {"name": "Rocky River Reservation", "boundary_type": "park", "boundary_color": "#5F9EA0", "osm_id": "relation/2292887", "operator": "Cleveland Metroparks"}, "geometry": {"type": "MultiPolygon", "coordinates": [[[[-81.82275, 41.449097], [-81.822441, 41.44921], [-81.822479, 41.449171], [-81.82251, 41.44913], [-81.82275, 41.449097]]], [[[-81.893604, 41.404066], [-81.893114, 41.404679], [-81.893179, 41.404731], [-81.893733, 41.405175], [-81.894865, 41.405777], [-81.895133, 41.405822], [-81.894996, 41.406372], [-81.894913, 41.406494], [-81.894832, 41.406492], [-81.894213, 41.40739], [-81.894694, 41.407772], [-81.894829, 41.407913], [-81.895051, 41.408552], [-81.895011, 41.409287], [-81.895073, 41.409988], [-81.895533, 41.410086], [-81.894965, 41.411597], [-81.894956, 41.411613], [-81.894443, 41.412523], [-81.894141, 41.412979], [-81.892719, 41.413879], [-81.891783, 41.414214], [-81.891753, 41.414133], [-81.892016, 41.414039], [-81.891996, 41.413986], [-81.891733, 41.41408], [-81.891733, 41.414055], [-81.891469, 41.414149], [-81.891473, 41.414055], [-81.889634, 41.414457], [-81.88961, 41.414463], [-81.888288, 41.414409], [-81.887558, 41.414208], [-81.886594, 41.413685], [-81.885439, 41.414571], [-81.885316, 41.416527], [-81.884466, 41.416649], [-81.884457, 41.416616], [-81.884355, 41.416213], [-81.884413, 41.415937], [-81.884374, 41.415942], [-81.884691, 41.414409], [-81.884832, 41.414103], [-81.884891, 41.41405], [-81.884946, 41.414029], [-81.885037, 41.414027], [-81.885119, 41.414059], [-81.885157, 41.414095], [-81.885177, 41.414139], [-81.885164, 41.414217], [-81.885197, 41.414229], [-81.885422, 41.413853], [-81.885389, 41.413842], [-81.885329, 41.413897], [-81.885272, 41.413918], [-81.885209, 41.413922], [-81.885094, 41.413896], [-81.88498, 41.413887], [-81.884868, 41.413904], [-81.884769, 41.413947], [-81.884727, 41.413976], [-81.884665, 41.414048], [-81.884566, 41.414311], [-81.884149, 41.414381], [-81.883787, 41.414413], [-81.882808, 41.414502], [-81.882255, 41.414497], [-81.88196, 41.415463], [-81.881481, 41.416576], [-81.881397, 41.416573], [-81.879596, 41.415046], [-81.878594, 41.414876], [-81.878187, 41.414955], [-81.877772, 41.415235], [-81.877532, 41.415786], [-81.877036, 41.416539], [-81.876048, 41.417474], [-81.875806, 41.417662], [-81.874661, 41.418291], [-81.873859, 41.418803], [-81.873799, 41.418803], [-81.873378, 41.419147], [-81.872737, 41.41948], [-81.872152, 41.41972], [-81.871838, 41.419722], [-81.871354, 41.419908], [-81.870788, 41.42002], [-81.868817, 41.420162], [-81.867745, 41.420297], [-81.866815, 41.420141], [-81.866812, 41.420223], [-81.866448, 41.420162], [-81.866445, 41.420226], [-81.865689, 41.420167], [-81.865303, 41.420115], [-81.864118, 41.419928], [-81.863692, 41.419885], [-81.863405, 41.419882], [-81.863119, 41.419902], [-81.862869, 41.41994], [-81.862627, 41.420002], [-81.862397, 41.420087], [-81.862165, 41.420202], [-81.861932, 41.420346], [-81.861608, 41.420591], [-81.860985, 41.421111], [-81.860243, 41.421789], [-81.859883, 41.422135], [-81.859532, 41.422498], [-81.859366, 41.422685], [-81.859054, 41.423069], [-81.858647, 41.423647], [-81.858379, 41.424113], [-81.857958, 41.424089], [-81.857375, 41.424208], [-81.857369, 41.424255], [-81.857279, 41.424248], [-81.857231, 41.424631], [-81.857322, 41.424637], [-81.857278, 41.424993], [-81.857298, 41.424994], [-81.857022, 41.425433], [-81.856592, 41.42685], [-81.856669, 41.4274], [-81.85645, 41.428314], [-81.856165, 41.428913], [-81.855961, 41.429177], [-81.855711, 41.429501], [-81.855561, 41.429636], [-81.855822, 41.429857], [-81.855018, 41.430359], [-81.854485, 41.430692], [-81.85406, 41.430958], [-81.853458, 41.431334], [-81.85347, 41.43089], [-81.852515, 41.431417], [-81.851304, 41.432918], [-81.851651, 41.433322], [-81.851595, 41.433392], [-81.849729, 41.434545], [-81.84887, 41.434904], [-81.848685, 41.43495], [-81.848094, 41.435272], [-81.84677, 41.435752], [-81.847241, 41.437212], [-81.848005, 41.437224], [-81.848202, 41.437318], [-81.848362, 41.437687], [-81.8478, 41.438479], [-81.848001, 41.438832], [-81.848109, 41.439044], [-81.847917, 41.439256], [-81.847764, 41.439876], [-81.847747, 41.440423], [-81.84779, 41.440701], [-81.84766, 41.441044], [-81.8476, 41.441716], [-81.847048, 41.442374], [-81.846379, 41.442311], [-81.845362, 41.443402], [-81.845359, 41.444184], [-81.844541, 41.444263], [-81.842153, 41.445872], [-81.843116, 41.447369], [-81.84123, 41.448096], [-81.83999, 41.448078], [-81.840162, 41.447836], [-81.840039, 41.447834], [-81.839503, 41.448589], [-81.839501, 41.449146], [-81.839832, 41.450573], [-81.838637, 41.451319], [-81.837266, 41.451454], [-81.837256, 41.451398], [-81.837247, 41.451345], [-81.837227, 41.451233], [-81.836554, 41.451059], [-81.83646, 41.451067], [-81.835635, 41.450461], [-81.834573, 41.449596], [-81.834581, 41.449268], [-81.834066, 41.449261], [-81.834177, 41.449644], [-81.834226, 41.449816], [-81.834158, 41.450557], [-81.834015, 41.45097], [-81.833473, 41.451613], [-81.832724, 41.452434], [-81.832723, 41.452475], [-81.832721, 41.452572], [-81.83272, 41.452648], [-81.831857, 41.453008], [-81.831524, 41.453034], [-81.8305, 41.453111], [-81.830487, 41.453008], [-81.829867, 41.452824], [-81.829871, 41.452688], [-81.8297, 41.452607], [-81.829695, 41.452798], [-81.829511, 41.452708], [-81.829523, 41.452328], [-81.829131, 41.452322], [-81.828453, 41.452311], [-81.827934, 41.452303], [-81.827765, 41.452615], [-81.827639, 41.452772], [-81.824399, 41.451302], [-81.8247, 41.451307], [-81.825524, 41.450647], [-81.826638, 41.450187], [-81.82677, 41.449973], [-81.826064, 41.449911], [-81.825848, 41.449749], [-81.826229, 41.449847], [-81.827192, 41.449899], [-81.827201, 41.449955], [-81.827304, 41.449912], [-81.827291, 41.449822], [-81.826251, 41.449766], [-81.825603, 41.449599], [-81.825271, 41.449258], [-81.825227, 41.449263], [-81.824232, 41.449378], [-81.823819, 41.449394], [-81.82348, 41.449305], [-81.823484, 41.449221], [-81.82275, 41.449097], [-81.823122, 41.449127], [-81.823487, 41.449156], [-81.823743, 41.449213], [-81.824054, 41.449196], [-81.824303, 41.449181], [-81.824457, 41.449172], [-81.824702, 41.44808], [-81.824729, 41.447639], [-81.824956, 41.44768], [-81.824964, 41.447541], [-81.824758, 41.44708], [-81.824583, 41.446625], [-81.8245, 41.44661], [-81.824392, 41.446591], [-81.824416, 41.445963], [-81.824199, 41.445925], [-81.824452, 41.445039], [-81.824463, 41.444167], [-81.824506, 41.443641], [-81.824626, 41.439804], [-81.825855, 41.439823], [-81.826266, 41.43983], [-81.826285, 41.439231], [-81.826341, 41.437486], [-81.827287, 41.437503], [-81.827303, 41.436997], [-81.82738, 41.436916], [-81.827414, 41.436835], [-81.82741, 41.436651], [-81.827373, 41.436512], [-81.827028, 41.435782], [-81.826973, 41.435624], [-81.826953, 41.435461], [-81.826971, 41.435298], [-81.827025, 41.43514], [-81.827078, 41.435049], [-81.827133, 41.435032], [-81.827186, 41.435051], [-81.82734, 41.43527], [-81.827864, 41.435799], [-81.828003, 41.435962], [-81.82806, 41.436049], [-81.828148, 41.436231], [-81.828178, 41.436326], [-81.82821, 41.436518], [-81.828186, 41.43754], [-81.827857, 41.437535], [-81.827776, 41.437644], [-81.827706, 41.437739], [-81.827642, 41.438067], [-81.827432, 41.438393], [-81.827709, 41.438892], [-81.827702, 41.439138], [-81.827524, 41.439383], [-81.82732, 41.439764], [-81.827317, 41.439846], [-81.829126, 41.439875], [-81.829268, 41.439877], [-81.829498, 41.439773], [-81.829822, 41.439627], [-81.831168, 41.439071], [-81.831361, 41.439005], [-81.831566, 41.438963], [-81.83229, 41.43886], [-81.832891, 41.438711], [-81.833034, 41.438696], [-81.833934, 41.438605], [-81.834655, 41.438627], [-81.835269, 41.438726], [-81.835464, 41.438742], [-81.836536, 41.438827], [-81.839804, 41.440103], [-81.840229, 41.440062], [-81.840631, 41.43991], [-81.840825, 41.439644], [-81.840715, 41.439247], [-81.840305, 41.439057], [-81.840358, 41.438657], [-81.839577, 41.438309], [-81.83924, 41.438315], [-81.83871, 41.438137], [-81.83888, 41.437877], [-81.839281, 41.438018], [-81.839649, 41.437691], [-81.840163, 41.437369], [-81.840291, 41.437367], [-81.840924, 41.437469], [-81.841244, 41.437331], [-81.841285, 41.437115], [-81.841182, 41.436741], [-81.841737, 41.436754], [-81.841793, 41.436755], [-81.841766, 41.436242], [-81.841297, 41.435777], [-81.84056, 41.435381], [-81.839816, 41.4348], [-81.83933, 41.434278], [-81.840886, 41.434301], [-81.840785, 41.434072], [-81.839279, 41.434053], [-81.839323, 41.433874], [-81.839427, 41.433444], [-81.839641, 41.431915], [-81.839208, 41.431912], [-81.838826, 41.43191], [-81.83953, 41.430938], [-81.839949, 41.43054], [-81.840277, 41.430549], [-81.840618, 41.430467], [-81.841014, 41.430342], [-81.841463, 41.43027], [-81.841634, 41.43012], [-81.842051, 41.430064], [-81.842619, 41.430005], [-81.843132, 41.429928], [-81.843481, 41.43008], [-81.844811, 41.4302], [-81.845402, 41.43012], [-81.845652, 41.430071], [-81.845647, 41.430278], [-81.846251, 41.430138], [-81.846652, 41.429905], [-81.846775, 41.429813], [-81.846785, 41.429499], [-81.847153, 41.429648], [-81.847566, 41.429529], [-81.847982, 41.42935], [-81.848145, 41.429096], [-81.848642, 41.429078], [-81.849348, 41.42864], [-81.849462, 41.428258], [-81.849875, 41.427784], [-81.85054, 41.426459], [-81.851212, 41.426142], [-81.851404, 41.425906], [-81.851455, 41.425602], [-81.851896, 41.425163], [-81.852486, 41.424796], [-81.852395, 41.42457], [-81.852494, 41.424575], [-81.852526, 41.424315], [-81.852575, 41.423926], [-81.852583, 41.423859], [-81.852149, 41.423409], [-81.852187, 41.423178], [-81.851996, 41.422833], [-81.852013, 41.422175], [-81.852018, 41.422004], [-81.852023, 41.421791], [-81.853062, 41.420281], [-81.853326, 41.420355], [-81.853574, 41.420425], [-81.854357, 41.419596], [-81.85441, 41.419575], [-81.854518, 41.419531], [-81.854932, 41.419363], [-81.854616, 41.41915], [-81.855351, 41.418962], [-81.855534, 41.418916], [-81.855602, 41.418861], [-81.855887, 41.418633], [-81.856523, 41.418207], [-81.856827, 41.418152], [-81.857023, 41.41802], [-81.857337, 41.417763], [-81.857698, 41.417659], [-81.858223, 41.417499], [-81.858298, 41.417248], [-81.858342, 41.417226], [-81.858578, 41.417108], [-81.858682, 41.416911], [-81.858907, 41.416761], [-81.859589, 41.416832], [-81.8601, 41.416745], [-81.860328, 41.41678], [-81.860878, 41.416801], [-81.861109, 41.416787], [-81.861232, 41.416878], [-81.861404, 41.416801], [-81.861666, 41.416799], [-81.861683, 41.416862], [-81.861851, 41.416861], [-81.861958, 41.416719], [-81.86203, 41.416774], [-81.862208, 41.416631], [-81.8624, 41.416587], [-81.862438, 41.41659], [-81.862444, 41.416537], [-81.862589, 41.416508], [-81.86258, 41.416559], [-81.862576, 41.416616], [-81.862644, 41.416619], [-81.862648, 41.416678], [-81.862683, 41.416677], [-81.862688, 41.416624], [-81.862762, 41.416631], [-81.862848, 41.416672], [-81.863032, 41.416587], [-81.863132, 41.416611], [-81.863244, 41.416842], [-81.863358, 41.416819], [-81.863508, 41.416861], [-81.863716, 41.416846], [-81.865066, 41.416751], [-81.866176, 41.416405], [-81.866781, 41.416151], [-81.866763, 41.416132], [-81.866873, 41.416036], [-81.867007, 41.416046], [-81.867081, 41.416016], [-81.867124, 41.416028], [-81.867182, 41.416006], [-81.867266, 41.416], [-81.867356, 41.416057], [-81.867418, 41.41602], [-81.86759, 41.415989], [-81.867805, 41.415784], [-81.867869, 41.415611], [-81.868016, 41.415286], [-81.868588, 41.415264], [-81.869503, 41.415149], [-81.870381, 41.414905], [-81.871103, 41.414715], [-81.871811, 41.414356], [-81.872096, 41.413984], [-81.872262, 41.413558], [-81.872515, 41.413004], [-81.872515, 41.412876], [-81.873029, 41.412642], [-81.873564, 41.412685], [-81.873215, 41.413326], [-81.872912, 41.413904], [-81.872934, 41.414264], [-81.872869, 41.414461], [-81.872689, 41.414464], [-81.872633, 41.414924], [-81.872093, 41.415346], [-81.873337, 41.415337], [-81.873597, 41.414086], [-81.87384, 41.41357], [-81.874307, 41.412965], [-81.874422, 41.412702], [-81.874849, 41.412376], [-81.875278, 41.411992], [-81.875574, 41.411602], [-81.875609, 41.411557], [-81.876296, 41.410987], [-81.876793, 41.41061], [-81.87791, 41.410178], [-81.879078, 41.409636], [-81.879255, 41.409497], [-81.879445, 41.408784], [-81.879643, 41.408269], [-81.879595, 41.408098], [-81.879898, 41.40758], [-81.881033, 41.406864], [-81.881034, 41.406761], [-81.881035, 41.406724], [-81.882496, 41.406587], [-81.883293, 41.405917], [-81.883145, 41.405862], [-81.882562, 41.406352], [-81.882651, 41.406183], [-81.882661, 41.406165], [-81.882709, 41.405992], [-81.882146, 41.405791], [-81.881828, 41.405612], [-81.881571, 41.405425], [-81.881236, 41.405237], [-81.881035, 41.405125], [-81.880845, 41.40512], [-81.880742, 41.405118], [-81.880723, 41.405011], [-81.880677, 41.40491], [-81.88024, 41.404333], [-81.880185, 41.40421], [-81.880163, 41.404082], [-81.880176, 41.403953], [-81.880195, 41.403889], [-81.880522, 41.403019], [-81.880732, 41.403064], [-81.880769, 41.403072], [-81.881579, 41.402266], [-81.88192, 41.40209], [-81.882398, 41.401955], [-81.882827, 41.40189], [-81.883251, 41.401757], [-81.883088, 41.401075], [-81.883081, 41.400823], [-81.883038, 41.400523], [-81.882303, 41.40083], [-81.881988, 41.400895], [-81.880708, 41.400789], [-81.880088, 41.400676], [-81.87959, 41.400299], [-81.879243, 41.39989], [-81.879013, 41.399232], [-81.878931, 41.399035], [-81.878895, 41.398905], [-81.879079, 41.397841], [-81.879095, 41.397775], [-81.879151, 41.397649], [-81.879191, 41.39759], [-81.879293, 41.397481], [-81.879708, 41.397114], [-81.879782, 41.397018], [-81.879831, 41.396914], [-81.8801, 41.39696], [-81.880264, 41.396817], [-81.880379, 41.396594], [-81.880446, 41.39627], [-81.880651, 41.39544], [-81.881085, 41.395014], [-81.880677, 41.394485], [-81.880442, 41.394551], [-81.880046, 41.394613], [-81.879264, 41.39437], [-81.879271, 41.394615], [-81.87799, 41.393619], [-81.87785, 41.393505], [-81.877609, 41.393277], [-81.877364, 41.393003], [-81.877169, 41.392729], [-81.876872, 41.392262], [-81.876638, 41.391894], [-81.876691, 41.391887], [-81.876803, 41.391873], [-81.876621, 41.391488], [-81.87629, 41.391342], [-81.876171, 41.391341], [-81.875838, 41.391008], [-81.875429, 41.390497], [-81.875247, 41.390177], [-81.874925, 41.389987], [-81.874424, 41.38998], [-81.874477, 41.390081], [-81.874882, 41.390475], [-81.874869, 41.391098], [-81.874582, 41.391573], [-81.874267, 41.392023], [-81.873836, 41.392387], [-81.873874, 41.392467], [-81.872053, 41.392955], [-81.870882, 41.392823], [-81.870154, 41.392781], [-81.86998, 41.39275], [-81.869351, 41.392638], [-81.868889, 41.392429], [-81.868994, 41.392296], [-81.868683, 41.392039], [-81.868565, 41.392091], [-81.868411, 41.392213], [-81.868365, 41.392192], [-81.868232, 41.391912], [-81.868359, 41.391914], [-81.868508, 41.391823], [-81.868543, 41.391651], [-81.868237, 41.391241], [-81.867911, 41.391236], [-81.867709, 41.390807], [-81.868053, 41.390715], [-81.868012, 41.389891], [-81.868146, 41.389334], [-81.86802, 41.388888], [-81.867744, 41.388519], [-81.867325, 41.388441], [-81.866752, 41.388471], [-81.866194, 41.388721], [-81.866028, 41.388998], [-81.865694, 41.388911], [-81.86515, 41.388709], [-81.864174, 41.388217], [-81.864067, 41.388158], [-81.863869, 41.388024], [-81.863781, 41.387949], [-81.863626, 41.387787], [-81.863035, 41.386939], [-81.862946, 41.386783], [-81.862889, 41.386618], [-81.862989, 41.38662], [-81.863027, 41.385985], [-81.862881, 41.385979], [-81.862842, 41.38558], [-81.862842, 41.385523], [-81.862673, 41.384954], [-81.862061, 41.383407], [-81.862938, 41.383389], [-81.863015, 41.383145], [-81.862946, 41.382931], [-81.86244, 41.382554], [-81.862343, 41.382343], [-81.862718, 41.382334], [-81.862728, 41.382202], [-81.862926, 41.382007], [-81.863255, 41.381891], [-81.863261, 41.38176], [-81.862637, 41.381773], [-81.862894, 41.381646], [-81.86329, 41.381127], [-81.863306, 41.380776], [-81.86356, 41.380479], [-81.863675, 41.380325], [-81.863781, 41.380168], [-81.863969, 41.379845], [-81.864122, 41.379511], [-81.864395, 41.378734], [-81.864542, 41.378464], [-81.864672, 41.378296], [-81.864915, 41.378017], [-81.865345, 41.378019], [-81.865506, 41.377457], [-81.865165, 41.377455], [-81.865223, 41.377301], [-81.864899, 41.37686], [-81.863919, 41.376816], [-81.863761, 41.376809], [-81.863688, 41.376677], [-81.865091, 41.376159], [-81.865231, 41.376108], [-81.865317, 41.376204], [-81.865423, 41.376308], [-81.865551, 41.376413], [-81.86569, 41.376495], [-81.865882, 41.376576], [-81.866286, 41.376725], [-81.866278, 41.376787], [-81.866252, 41.37698], [-81.866321, 41.377229], [-81.866535, 41.377485], [-81.86661, 41.377569], [-81.866923, 41.377957], [-81.868843, 41.381845], [-81.865662, 41.381827], [-81.86497, 41.383656], [-81.864829, 41.384173], [-81.864961, 41.384833], [-81.865456, 41.385253], [-81.865903, 41.385179], [-81.866881, 41.385257], [-81.867835, 41.385248], [-81.868721, 41.385284], [-81.869182, 41.38542], [-81.869832, 41.385633], [-81.870307, 41.385875], [-81.871083, 41.386315], [-81.871372, 41.387127], [-81.871079, 41.388059], [-81.87174, 41.387697], [-81.872119, 41.387424], [-81.872555, 41.387262], [-81.873809, 41.387493], [-81.874262, 41.387478], [-81.874609, 41.386857], [-81.875143, 41.387165], [-81.875242, 41.387222], [-81.875311, 41.387262], [-81.874643, 41.387654], [-81.875108, 41.387868], [-81.876244, 41.388341], [-81.877009, 41.389018], [-81.878184, 41.389568], [-81.878623, 41.390409], [-81.878789, 41.390432], [-81.879101, 41.389059], [-81.879777, 41.389338], [-81.879506, 41.390531], [-81.882055, 41.391934], [-81.882508, 41.391836], [-81.883704, 41.391929], [-81.884233, 41.392266], [-81.884861, 41.392559], [-81.88594, 41.393727], [-81.886167, 41.394635], [-81.886211, 41.396212], [-81.886259, 41.396213], [-81.887405, 41.396236], [-81.888979, 41.396267], [-81.888973, 41.395725], [-81.887755, 41.395703], [-81.887762, 41.394745], [-81.887763, 41.394726], [-81.887764, 41.39463], [-81.88803, 41.394629], [-81.889011, 41.394626], [-81.891847, 41.394599], [-81.892026, 41.395941], [-81.889866, 41.395974], [-81.889851, 41.396742], [-81.888969, 41.396756], [-81.88896, 41.397198], [-81.888921, 41.398771], [-81.890041, 41.398716], [-81.890009, 41.400044], [-81.890935, 41.399755], [-81.891947, 41.399439], [-81.892156, 41.399819], [-81.892467, 41.399722], [-81.892548, 41.399696], [-81.893166, 41.399503], [-81.89436, 41.401667], [-81.894266, 41.402133], [-81.893531, 41.402796], [-81.893604, 41.404066]], [[-81.853219, 41.424338], [-81.853265, 41.423966], [-81.853174, 41.42396], [-81.853127, 41.424342], [-81.853217, 41.424349], [-81.853219, 41.424338]], [[-81.853861, 41.424394], [-81.853909, 41.424011], [-81.853818, 41.424005], [-81.853771, 41.424387], [-81.853804, 41.42439], [-81.853861, 41.424394]], [[-81.852654, 41.424309], [-81.852702, 41.423926], [-81.852611, 41.42392], [-81.852563, 41.424303], [-81.852654, 41.424309]], [[-81.854586, 41.424445], [-81.854633, 41.424062], [-81.854542, 41.424056], [-81.854495, 41.424438], [-81.854586, 41.424445]], [[-81.85531, 41.424496], [-81.855357, 41.424113], [-81.855267, 41.424107], [-81.855219, 41.424489], [-81.85531, 41.424496]], [[-81.856034, 41.424547], [-81.856082, 41.424164], [-81.855991, 41.424158], [-81.855943, 41.42454], [-81.856034, 41.424547]], [[-81.856678, 41.424592], [-81.856725, 41.42421], [-81.856635, 41.424203], [-81.856587, 41.424586], [-81.856678, 41.424592]], [[-81.841634, 41.444961], [-81.841604, 41.444357], [-81.840997, 41.444461], [-81.840153, 41.444607], [-81.840075, 41.44462], [-81.840272, 41.44522], [-81.840332, 41.445208], [-81.841125, 41.445058], [-81.841634, 41.444961]]], [[[-81.863453, 41.374613], [-81.863649, 41.374734], [-81.864755, 41.375416], [-81.864593, 41.37551], [-81.86447, 41.375578], [-81.864207, 41.37572], [-81.863346, 41.376159], [-81.863132, 41.375841], [-81.862651, 41.3751], [-81.862742, 41.375053], [-81.861846, 41.3737], [-81.861643, 41.373384], [-81.86172, 41.373365], [-81.8618, 41.373345], [-81.861574, 41.372988], [-81.862262, 41.372918], [-81.862409, 41.373097], [-81.862631, 41.373024], [-81.862654, 41.373126], [-81.862684, 41.373228], [-81.862721, 41.373328], [-81.862765, 41.373427], [-81.862815, 41.373523], [-81.863052, 41.373942], [-81.863, 41.373962], [-81.862955, 41.37398], [-81.863012, 41.374082], [-81.863057, 41.374064], [-81.863109, 41.374043], [-81.863155, 41.37412], [-81.863205, 41.374195], [-81.863167, 41.37421], [-81.863109, 41.374234], [-81.863184, 41.374334], [-81.863266, 41.374431], [-81.863356, 41.374524], [-81.863453, 41.374613]]], [[[-81.863056, 41.373519], [-81.862972, 41.373271], [-81.862932, 41.372948], [-81.862992, 41.372888], [-81.863195, 41.37287], [-81.863327, 41.373427], [-81.863056, 41.373519]]], [[[-81.814382, 41.463158], [-81.814745, 41.462789], [-81.815087, 41.462746], [-81.815255, 41.462683], [-81.815628, 41.462447], [-81.815724, 41.462501], [-81.815889, 41.462378], [-81.816126, 41.462362], [-81.816358, 41.462278], [-81.816517, 41.462323], [-81.81677, 41.462297], [-81.817348, 41.462608], [-81.817577, 41.462228], [-81.817561, 41.462059], [-81.817831, 41.461669], [-81.818559, 41.461532], [-81.818921, 41.461567], [-81.819299, 41.461822], [-81.819343, 41.462195], [-81.819522, 41.46244], [-81.819774, 41.462395], [-81.820228, 41.46206], [-81.820831, 41.460735], [-81.820939, 41.460415], [-81.820946, 41.459859], [-81.820486, 41.459265], [-81.820584, 41.459085], [-81.820864, 41.458576], [-81.820163, 41.458206], [-81.819479, 41.457698], [-81.819083, 41.457254], [-81.819068, 41.457083], [-81.819276, 41.456762], [-81.818852, 41.456527], [-81.818669, 41.456426], [-81.818954, 41.454695], [-81.81959, 41.454299], [-81.819869, 41.4539], [-81.82031, 41.453611], [-81.819825, 41.453603], [-81.819769, 41.453378], [-81.81999, 41.45321], [-81.821254, 41.452954], [-81.822278, 41.452892], [-81.822549, 41.452791], [-81.822978, 41.452675], [-81.823872, 41.45154], [-81.823993, 41.451387], [-81.824037, 41.45133], [-81.827563, 41.452829], [-81.82753, 41.452875], [-81.827307, 41.453186], [-81.827298, 41.453529], [-81.827049, 41.453692], [-81.826692, 41.453838], [-81.825857, 41.45427], [-81.825147, 41.454509], [-81.824315, 41.454631], [-81.824099, 41.454639], [-81.82371, 41.454655], [-81.82349, 41.455061], [-81.823112, 41.455662], [-81.822979, 41.456179], [-81.822877, 41.456638], [-81.823295, 41.456671], [-81.823606, 41.457505], [-81.823955, 41.457768], [-81.824301, 41.45835], [-81.824386, 41.458473], [-81.824565, 41.458478], [-81.824557, 41.458722], [-81.824632, 41.458818], [-81.824855, 41.459343], [-81.825046, 41.460161], [-81.825225, 41.460841], [-81.825143, 41.461458], [-81.824948, 41.461944], [-81.824691, 41.462297], [-81.824663, 41.462645], [-81.824608, 41.462954], [-81.824617, 41.463147], [-81.824353, 41.463623], [-81.824038, 41.463896], [-81.823816, 41.464088], [-81.823469, 41.46429], [-81.822964, 41.464494], [-81.822624, 41.464583], [-81.822611, 41.465035], [-81.823456, 41.464945], [-81.824176, 41.464818], [-81.824567, 41.464698], [-81.825258, 41.464583], [-81.826255, 41.46456], [-81.829369, 41.464003], [-81.831522, 41.464025], [-81.831539, 41.463448], [-81.832694, 41.463458], [-81.832681, 41.463899], [-81.832989, 41.464039], [-81.834053, 41.46452], [-81.834419, 41.464127], [-81.834443, 41.463473], [-81.834927, 41.463477], [-81.835337, 41.46348], [-81.835354, 41.463069], [-81.836339, 41.463077], [-81.836956, 41.463144], [-81.83834, 41.463296], [-81.838512, 41.463716], [-81.838719, 41.463871], [-81.838716, 41.464031], [-81.838853, 41.464096], [-81.839052, 41.464173], [-81.839142, 41.464171], [-81.839199, 41.464143], [-81.839225, 41.464115], [-81.839324, 41.46415], [-81.83912, 41.464472], [-81.838994, 41.464427], [-81.838889, 41.46439], [-81.838581, 41.464244], [-81.838138, 41.464059], [-81.838025, 41.464002], [-81.837835, 41.463906], [-81.837506, 41.463904], [-81.837198, 41.464183], [-81.836659, 41.464397], [-81.835178, 41.465306], [-81.836603, 41.466274], [-81.837008, 41.466845], [-81.837081, 41.466949], [-81.837125, 41.467265], [-81.837286, 41.467289], [-81.837547, 41.467328], [-81.837695, 41.46735], [-81.837174, 41.468891], [-81.837038, 41.469359], [-81.836979, 41.469358], [-81.836888, 41.469356], [-81.836644, 41.469352], [-81.836535, 41.469661], [-81.835994, 41.470128], [-81.835594, 41.470253], [-81.835335, 41.470413], [-81.835115, 41.470466], [-81.835104, 41.470612], [-81.833741, 41.470583], [-81.833612, 41.470571], [-81.833359, 41.470528], [-81.833343, 41.470569], [-81.833308, 41.47066], [-81.832573, 41.470645], [-81.832369, 41.470717], [-81.832204, 41.470899], [-81.832022, 41.470985], [-81.831784, 41.471037], [-81.831587, 41.471022], [-81.831444, 41.470928], [-81.831323, 41.470974], [-81.831321, 41.471059], [-81.828553, 41.471016], [-81.828255, 41.470772], [-81.827671, 41.470765], [-81.827228, 41.470574], [-81.82658, 41.470151], [-81.82631, 41.470632], [-81.826242, 41.47098], [-81.825985, 41.471322], [-81.825597, 41.471503], [-81.825974, 41.471882], [-81.825968, 41.472175], [-81.826044, 41.472176], [-81.826087, 41.472388], [-81.826097, 41.472441], [-81.825904, 41.473451], [-81.825746, 41.473928], [-81.825504, 41.474375], [-81.825424, 41.474662], [-81.82503, 41.475067], [-81.824802, 41.475275], [-81.824347, 41.475688], [-81.824157, 41.476023], [-81.824047, 41.476218], [-81.823999, 41.476303], [-81.824486, 41.476379], [-81.824889, 41.476441], [-81.825435, 41.476526], [-81.826761, 41.476732], [-81.827279, 41.476841], [-81.827745, 41.476909], [-81.828206, 41.476873], [-81.829368, 41.476428], [-81.829933, 41.476333], [-81.830123, 41.476558], [-81.830818, 41.476468], [-81.831443, 41.476494], [-81.831714, 41.476536], [-81.832671, 41.476682], [-81.832961, 41.476889], [-81.833502, 41.477275], [-81.833754, 41.477455], [-81.83386, 41.477709], [-81.833932, 41.477881], [-81.834117, 41.478324], [-81.834128, 41.478683], [-81.834175, 41.47869], [-81.834289, 41.478709], [-81.834328, 41.478716], [-81.83406, 41.479647], [-81.833359, 41.481308], [-81.83332, 41.48126], [-81.833195, 41.481111], [-81.833031, 41.480915], [-81.833005, 41.480885], [-81.832949, 41.480977], [-81.832727, 41.481248], [-81.83265, 41.481306], [-81.832533, 41.481343], [-81.832501, 41.481362], [-81.83236, 41.481445], [-81.83226, 41.481507], [-81.832112, 41.481637], [-81.832114, 41.48166], [-81.832132, 41.481699], [-81.832133, 41.481727], [-81.83191, 41.482041], [-81.831826, 41.482254], [-81.831789, 41.482348], [-81.831732, 41.482469], [-81.83168, 41.482582], [-81.831055, 41.482409], [-81.830996, 41.482392], [-81.830981, 41.482449], [-81.830303, 41.482261], [-81.830156, 41.48222], [-81.830203, 41.482149], [-81.830141, 41.482058], [-81.829926, 41.481998], [-81.829993, 41.481862], [-81.829961, 41.481586], [-81.829873, 41.481077], [-81.8299, 41.480816], [-81.829712, 41.480371], [-81.829687, 41.480324], [-81.829616, 41.480238], [-81.829518, 41.48017], [-81.829461, 41.480143], [-81.829401, 41.480121], [-81.829271, 41.480097], [-81.829204, 41.480094], [-81.829071, 41.480108], [-81.829442, 41.479743], [-81.829244, 41.479578], [-81.828944, 41.479376], [-81.828803, 41.479177], [-81.82841, 41.478869], [-81.828291, 41.478775], [-81.828119, 41.478641], [-81.828343, 41.478465], [-81.828169, 41.478326], [-81.827842, 41.478065], [-81.827765, 41.47802], [-81.827331, 41.477767], [-81.823232, 41.477683], [-81.822902, 41.477676], [-81.822094, 41.47766], [-81.822226, 41.477553], [-81.820362, 41.477513], [-81.820282, 41.477513], [-81.820341, 41.476969], [-81.8204, 41.476731], [-81.820473, 41.476579], [-81.820895, 41.475855], [-81.820954, 41.475581], [-81.821375, 41.47559], [-81.822201, 41.475607], [-81.822208, 41.475482], [-81.822245, 41.475232], [-81.821518, 41.475217], [-81.821603, 41.475077], [-81.821124, 41.474913], [-81.821209, 41.474804], [-81.821357, 41.47465], [-81.821431, 41.474536], [-81.822418, 41.472676], [-81.822478, 41.472554], [-81.822573, 41.472304], [-81.822591, 41.472231], [-81.822635, 41.472048], [-81.822664, 41.471788], [-81.822657, 41.471528], [-81.822625, 41.471321], [-81.822617, 41.471269], [-81.822543, 41.471015], [-81.822493, 41.470891], [-81.822369, 41.470647], [-81.82192, 41.469881], [-81.821861, 41.468929], [-81.821967, 41.468377], [-81.822027, 41.468068], [-81.822467, 41.467421], [-81.822543, 41.467377], [-81.822741, 41.467232], [-81.822553, 41.467062], [-81.822567, 41.466538], [-81.821253, 41.467241], [-81.818881, 41.467942], [-81.818901, 41.468075], [-81.818908, 41.468116], [-81.818677, 41.468128], [-81.818157, 41.468125], [-81.817921, 41.468105], [-81.817689, 41.468066], [-81.817598, 41.468043], [-81.816349, 41.467728], [-81.815968, 41.467602], [-81.815783, 41.46753], [-81.815429, 41.467367], [-81.815095, 41.46718], [-81.814785, 41.466972], [-81.814502, 41.466743], [-81.814247, 41.466496], [-81.814023, 41.466233], [-81.813831, 41.465955], [-81.813755, 41.465825], [-81.813748, 41.465812], [-81.813694, 41.465681], [-81.813672, 41.465545], [-81.813664, 41.465326], [-81.813634, 41.46458], [-81.813633, 41.464553], [-81.813667, 41.464552], [-81.81379, 41.464549], [-81.814507, 41.464533], [-81.814638, 41.464254], [-81.814937, 41.463979], [-81.81566, 41.463566], [-81.815113, 41.463253], [-81.814962, 41.463167], [-81.815121, 41.463179], [-81.815187, 41.46317], [-81.815248, 41.463147], [-81.815467, 41.462986], [-81.815418, 41.462949], [-81.815219, 41.463095], [-81.815149, 41.463121], [-81.815101, 41.463125], [-81.814904, 41.463106], [-81.813684, 41.463292], [-81.813694, 41.463234], [-81.813791, 41.463248], [-81.814382, 41.463158]], [[-81.823086, 41.472155], [-81.823098, 41.471563], [-81.823393, 41.471568], [-81.823298, 41.471237], [-81.822797, 41.471227], [-81.822735, 41.471205], [-81.822701, 41.47116], [-81.822728, 41.471297], [-81.822759, 41.471451], [-81.822777, 41.471745], [-81.822753, 41.472039], [-81.822715, 41.472233], [-81.822659, 41.472425], [-81.823086, 41.472155]]]]}}]}
