{"type": "FeatureCollection", "licence": "Data \u00a9 OpenStreetMap contributors, ODbL 1.0. http://osm.org/copyright", "features": [{"type": "Feature", "properties": {"name": "Sand Run Metro Park", "boundary_type": "park", "boundary_color": "#388E5C", "osm_id": "way/323083638", "operator": "Summit Metro Parks"}, "geometry": {"type": "Polygon", "coordinates": [[[-81.597282, 41.133849], [-81.597279, 41.134347], [-81.597248, 41.134385], [-81.596875, 41.134386], [-81.596683, 41.134359], [-81.596509, 41.134313], [-81.596159, 41.134173], [-81.596061, 41.134116], [-81.595938, 41.134044], [-81.596165, 41.133844], [-81.596245, 41.133773], [-81.595814, 41.133419], [-81.595276, 41.132961], [-81.594731, 41.132621], [-81.594209, 41.132454], [-81.593663, 41.132472], [-81.593394, 41.132663], [-81.593228, 41.132841], [-81.59307, 41.133157], [-81.593054, 41.135987], [-81.591269, 41.135987], [-81.587961, 41.135987], [-81.588222, 41.136737], [-81.588538, 41.13716], [-81.588902, 41.137482], [-81.58914, 41.13766], [-81.589132, 41.137797], [-81.58895, 41.138071], [-81.588768, 41.138268], [-81.588768, 41.138411], [-81.589219, 41.138673], [-81.589369, 41.138709], [-81.589551, 41.138899], [-81.5894, 41.139125], [-81.589179, 41.139453], [-81.588918, 41.140013], [-81.588799, 41.140352], [-81.588627, 41.140554], [-81.588154, 41.140496], [-81.587776, 41.140441], [-81.587418, 41.140408], [-81.587426, 41.140274], [-81.587419, 41.139766], [-81.587419, 41.139215], [-81.587418, 41.138904], [-81.587418, 41.138615], [-81.587418, 41.138342], [-81.587416, 41.137193], [-81.586221, 41.137023], [-81.585794, 41.136439], [-81.585636, 41.136076], [-81.584771, 41.136009], [-81.583635, 41.135921], [-81.58373, 41.134087], [-81.57889, 41.133729], [-81.576256, 41.133437], [-81.576296, 41.134598], [-81.572484, 41.135025], [-81.571822, 41.135099], [-81.571914, 41.141149], [-81.571915, 41.141172], [-81.570538, 41.141214], [-81.569244, 41.14123], [-81.568584, 41.141213], [-81.568228, 41.141176], [-81.568065, 41.141149], [-81.567894, 41.141104], [-81.567651, 41.141042], [-81.567438, 41.140999], [-81.567213, 41.140967], [-81.566634, 41.14093], [-81.566385, 41.140914], [-81.566044, 41.140897], [-81.565675, 41.140879], [-81.565366, 41.140859], [-81.565042, 41.14081], [-81.564946, 41.140611], [-81.564792, 41.140342], [-81.564618, 41.140077], [-81.564376, 41.139753], [-81.564132, 41.139467], [-81.563825, 41.139546], [-81.562912, 41.139781], [-81.562855, 41.139795], [-81.562591, 41.139567], [-81.561543, 41.138675], [-81.561333, 41.138525], [-81.561102, 41.138376], [-81.560934, 41.138283], [-81.560176, 41.137888], [-81.559872, 41.137732], [-81.559493, 41.137536], [-81.559438, 41.137066], [-81.559332, 41.136171], [-81.559324, 41.136106], [-81.558889, 41.135981], [-81.558731, 41.135796], [-81.558644, 41.13557], [-81.558681, 41.134476], [-81.558678, 41.134392], [-81.558663, 41.134009], [-81.558651, 41.133694], [-81.558644, 41.133521], [-81.558525, 41.132895], [-81.558359, 41.132532], [-81.557719, 41.131418], [-81.55722, 41.130924], [-81.556603, 41.130572], [-81.555686, 41.130089], [-81.55465, 41.129726], [-81.554357, 41.129678], [-81.553915, 41.129625], [-81.553353, 41.129649], [-81.552681, 41.129792], [-81.551305, 41.130036], [-81.55052, 41.130076], [-81.550507, 41.130154], [-81.550427, 41.130403], [-81.55032, 41.13073], [-81.550257, 41.130895], [-81.550169, 41.131037], [-81.55006, 41.131173], [-81.549891, 41.131365], [-81.549655, 41.131603], [-81.549375, 41.131895], [-81.549317, 41.131864], [-81.54889, 41.131631], [-81.547846, 41.132675], [-81.54738, 41.132962], [-81.54726, 41.133036], [-81.547043, 41.13317], [-81.546681, 41.133409], [-81.546333, 41.13364], [-81.546, 41.133881], [-81.545674, 41.134084], [-81.54535, 41.134259], [-81.544825, 41.134456], [-81.544286, 41.134692], [-81.54393, 41.134881], [-81.54377, 41.134994], [-81.543637, 41.135123], [-81.543346, 41.135412], [-81.543137, 41.135517], [-81.542899, 41.135593], [-81.542563, 41.135624], [-81.542297, 41.135616], [-81.542098, 41.1356], [-81.541885, 41.135539], [-81.541769, 41.135472], [-81.541694, 41.135347], [-81.541614, 41.135053], [-81.541533, 41.134713], [-81.54141, 41.134439], [-81.54122, 41.134206], [-81.541084, 41.134025], [-81.540915, 41.133865], [-81.540569, 41.133695], [-81.540316, 41.133638], [-81.540018, 41.133634], [-81.53979, 41.133628], [-81.539571, 41.133593], [-81.539398, 41.13354], [-81.539245, 41.133457], [-81.539154, 41.133322], [-81.53909, 41.133186], [-81.538995, 41.132983], [-81.538988, 41.132739], [-81.539063, 41.132481], [-81.539141, 41.132227], [-81.539129, 41.132137], [-81.539042, 41.132002], [-81.539024, 41.13197], [-81.53882, 41.13161], [-81.538675, 41.131157], [-81.538583, 41.130908], [-81.538524, 41.130668], [-81.538396, 41.130274], [-81.53824, 41.130056], [-81.538069, 41.12985], [-81.537991, 41.129617], [-81.538004, 41.129377], [-81.53802, 41.129218], [-81.538055, 41.129051], [-81.538168, 41.128717], [-81.538167, 41.128585], [-81.53811, 41.128416], [-81.537835, 41.128047], [-81.537702, 41.127901], [-81.537546, 41.127703], [-81.5374, 41.127441], [-81.537207, 41.127187], [-81.537373, 41.127159], [-81.537797, 41.127063], [-81.537917, 41.126937], [-81.538161, 41.12668], [-81.538344, 41.126631], [-81.538453, 41.126545], [-81.53941, 41.126259], [-81.539528, 41.126194], [-81.539668, 41.126117], [-81.539726, 41.126067], [-81.539787, 41.125963], [-81.539839, 41.125769], [-81.539819, 41.125657], [-81.539363, 41.125293], [-81.539318, 41.125148], [-81.539419, 41.12505], [-81.539625, 41.125046], [-81.539955, 41.125652], [-81.539984, 41.1258], [-81.540114, 41.125907], [-81.540252, 41.126002], [-81.540298, 41.125988], [-81.540715, 41.125853], [-81.540763, 41.125817], [-81.540901, 41.125746], [-81.540976, 41.12575], [-81.541079, 41.125773], [-81.541067, 41.126069], [-81.541064, 41.126162], [-81.541214, 41.126175], [-81.541251, 41.126179], [-81.541419, 41.126194], [-81.541463, 41.126288], [-81.541592, 41.126567], [-81.54164, 41.12667], [-81.541662, 41.126697], [-81.541735, 41.126789], [-81.542966, 41.126789], [-81.543744, 41.126789], [-81.543806, 41.126788], [-81.543862, 41.126788], [-81.543884, 41.126787], [-81.544394, 41.12678], [-81.544598, 41.126777], [-81.544825, 41.126765], [-81.544914, 41.12676], [-81.544954, 41.126757], [-81.545658, 41.126718], [-81.545946, 41.126718], [-81.54656, 41.126718], [-81.547005, 41.126718], [-81.547034, 41.126718], [-81.547086, 41.126718], [-81.547803, 41.126718], [-81.547843, 41.126718], [-81.547943, 41.126718], [-81.548157, 41.126718], [-81.548874, 41.126718], [-81.549122, 41.126718], [-81.549368, 41.126688], [-81.549711, 41.126647], [-81.549865, 41.126629], [-81.550077, 41.126622], [-81.550277, 41.126615], [-81.550765, 41.126527], [-81.550972, 41.126505], [-81.551257, 41.126465], [-81.551424, 41.12645], [-81.551573, 41.126447], [-81.551723, 41.126448], [-81.551874, 41.12645], [-81.55189, 41.125497], [-81.552222, 41.124472], [-81.552902, 41.124013], [-81.553416, 41.125032], [-81.553337, 41.126956], [-81.554033, 41.125854], [-81.554547, 41.125455], [-81.555647, 41.125288], [-81.555892, 41.124859], [-81.555971, 41.123906], [-81.556319, 41.123269], [-81.556912, 41.122822], [-81.557987, 41.122131], [-81.559174, 41.122339], [-81.559126, 41.122822], [-81.558067, 41.12306], [-81.557157, 41.123554], [-81.557015, 41.124359], [-81.557031, 41.125074], [-81.556683, 41.125509], [-81.555583, 41.125926], [-81.554729, 41.126819], [-81.554721, 41.127123], [-81.554919, 41.127367], [-81.555639, 41.127611], [-81.555457, 41.127766], [-81.554713, 41.127927], [-81.554373, 41.128046], [-81.554294, 41.128451], [-81.554887, 41.128767], [-81.556944, 41.128844], [-81.558082, 41.128505], [-81.55896, 41.128112], [-81.560226, 41.127355], [-81.560352, 41.126748], [-81.560755, 41.126092], [-81.561135, 41.125604], [-81.560866, 41.126426], [-81.560669, 41.127093], [-81.560803, 41.127391], [-81.561088, 41.127534], [-81.56191, 41.127278], [-81.562321, 41.12698], [-81.562476, 41.126533], [-81.562511, 41.126432], [-81.562899, 41.125675], [-81.56384, 41.125145], [-81.564093, 41.124841], [-81.564291, 41.124311], [-81.564196, 41.123823], [-81.565137, 41.123185], [-81.565224, 41.122744], [-81.565999, 41.121755], [-81.566481, 41.121177], [-81.566877, 41.121029], [-81.567035, 41.121594], [-81.566782, 41.122214], [-81.566932, 41.122887], [-81.567146, 41.122907], [-81.567976, 41.122983], [-81.568648, 41.122852], [-81.568704, 41.123322], [-81.567027, 41.123578], [-81.566007, 41.124287], [-81.565153, 41.125395], [-81.564868, 41.126223], [-81.564267, 41.126897], [-81.563318, 41.127629], [-81.562369, 41.12841], [-81.561303, 41.128963], [-81.560936, 41.129351], [-81.56086, 41.129516], [-81.560439, 41.130429], [-81.559878, 41.130882], [-81.559767, 41.131221], [-81.559925, 41.131436], [-81.560319, 41.131571], [-81.560566, 41.131656], [-81.561523, 41.131656], [-81.563024, 41.131175], [-81.563502, 41.130845], [-81.564139, 41.130447], [-81.564591, 41.12981], [-81.564915, 41.129166], [-81.565295, 41.128868], [-81.56622, 41.129357], [-81.566695, 41.12972], [-81.56694, 41.12971], [-81.567441, 41.12969], [-81.567581, 41.129684], [-81.568221, 41.12947], [-81.56898, 41.129672], [-81.569621, 41.128993], [-81.569985, 41.128445], [-81.569969, 41.127564], [-81.569993, 41.127099], [-81.570467, 41.127075], [-81.570799, 41.127188], [-81.570815, 41.127939], [-81.570989, 41.128475], [-81.571187, 41.128898], [-81.571574, 41.129142], [-81.572215, 41.129136], [-81.572547, 41.128815], [-81.572769, 41.127939], [-81.572927, 41.127093], [-81.572951, 41.125943], [-81.572903, 41.12496], [-81.572801, 41.124364], [-81.572852, 41.123772], [-81.573058, 41.122902], [-81.573893, 41.122937], [-81.573731, 41.12351], [-81.573604, 41.123867], [-81.573587, 41.124432], [-81.574171, 41.124662], [-81.574276, 41.125408], [-81.574559, 41.125762], [-81.574785, 41.126089], [-81.574294, 41.126574], [-81.574216, 41.127135], [-81.574539, 41.127327], [-81.575153, 41.127369], [-81.575924, 41.126831], [-81.576683, 41.126563], [-81.577371, 41.126825], [-81.57768, 41.127171], [-81.575956, 41.127754], [-81.574888, 41.128392], [-81.574374, 41.128779], [-81.574216, 41.129154], [-81.574683, 41.129577], [-81.5756, 41.129553], [-81.576802, 41.129053], [-81.5773, 41.129291], [-81.576596, 41.129744], [-81.576573, 41.130012], [-81.577055, 41.130203], [-81.577625, 41.130256], [-81.577941, 41.129976], [-81.578376, 41.129988], [-81.579088, 41.130268], [-81.579072, 41.130655], [-81.578115, 41.130947], [-81.578178, 41.131364], [-81.579111, 41.13171], [-81.580084, 41.131728], [-81.580503, 41.130995], [-81.58082, 41.130393], [-81.58112, 41.12969], [-81.581951, 41.129696], [-81.58233, 41.130078], [-81.581571, 41.131078], [-81.581413, 41.13146], [-81.581927, 41.131817], [-81.582694, 41.131775], [-81.583208, 41.131632], [-81.583975, 41.131984], [-81.584545, 41.131757], [-81.584995, 41.131245], [-81.585106, 41.131078], [-81.585454, 41.131686], [-81.585683, 41.132264], [-81.586356, 41.132538], [-81.587637, 41.132478], [-81.588871, 41.132031], [-81.589709, 41.132085], [-81.590705, 41.132526], [-81.591844, 41.132734], [-81.592422, 41.132365], [-81.593212, 41.131871], [-81.5939, 41.131591], [-81.594913, 41.131674], [-81.595822, 41.131894], [-81.596513, 41.132673], [-81.596518, 41.133086], [-81.597317, 41.133116], [-81.597311, 41.133555], [-81.59729, 41.133616], [-81.59725, 41.133646], [-81.597241, 41.133803], [-81.597273, 41.133822], [-81.597282, 41.133849]]]}}]}
