{"type": "FeatureCollection", "licence": "Data \u00a9 OpenStreetMap contributors, ODbL 1.0. http://osm.org/copyright", "features": [{"type": "Feature", "properties": {"name": "Schneider Park", "boundary_type": "park", "boundary_color": "#A0786B", "osm_id": "way/633129749", "operator": "City of Akron"}, "geometry": {"type": "Polygon", "coordinates": [[[-81.564516, 41.099147], [-81.56451, 41.099205], [-81.564469, 41.099248], [-81.564407, 41.099257], [-81.563165, 41.099305], [-81.563099, 41.099301], [-81.563042, 41.099278], [-81.563012, 41.09924], [-81.562823, 41.098989], [-81.5628, 41.098935], [-81.562788, 41.098846], [-81.562759, 41.09841], [-81.562747, 41.097769], [-81.562733, 41.097689], [-81.562706, 41.097632], [-81.562674, 41.097587], [-81.562623, 41.097566], [-81.562525, 41.097542], [-81.562446, 41.097537], [-81.56152, 41.097357], [-81.561465, 41.097345], [-81.561442, 41.097321], [-81.56144, 41.097289], [-81.561467, 41.097249], [-81.561805, 41.096748], [-81.562008, 41.096416], [-81.562163, 41.096159], [-81.562402, 41.0957], [-81.562562, 41.095332], [-81.562596, 41.095305], [-81.562654, 41.095291], [-81.562781, 41.095288], [-81.564478, 41.095315], [-81.564524, 41.095319], [-81.564553, 41.095337], [-81.564564, 41.095369], [-81.564516, 41.099147]]]}}]}
