{"type": "FeatureCollection", "licence": "Data \u00a9 OpenStreetMap contributors, ODbL 1.0. http://osm.org/copyright", "features": [{"type": "Feature", "properties": {"name": "Silver Creek Metro Park", "boundary_type": "park", "boundary_color": "#4F7942", "osm_id": "way/279929012", "operator": "Summit Metro Parks"}, "geometry": {"type": "Polygon", "coordinates": [[[-81.674621, 40.994166], [-81.674632, 40.995016], [-81.672873, 40.994952], [-81.672819, 40.996895], [-81.669623, 40.996852], [-81.668944, 40.996842], [-81.668315, 40.996834], [-81.668066, 40.99683], [-81.668045, 40.999146], [-81.670029, 40.999162], [-81.670019, 40.999559], [-81.674493, 40.999632], [-81.674847, 41.000547], [-81.67975, 41.000669], [-81.682056, 41.000774], [-81.682099, 41.003316], [-81.683451, 41.003316], [-81.683462, 41.003996], [-81.688032, 41.004037], [-81.68814, 41.000669], [-81.68976, 41.000685], [-81.689738, 41.004199], [-81.690318, 41.004166], [-81.690382, 41.004717], [-81.692549, 41.004798], [-81.692485, 41.003745], [-81.694802, 41.003875], [-81.694824, 41.005769], [-81.69624, 41.005948], [-81.696133, 41.004701], [-81.697012, 41.005575], [-81.698042, 41.005559], [-81.697935, 41.003243], [-81.69491, 41.003065], [-81.694888, 41.00096], [-81.691863, 41.000928], [-81.69182, 41.000717], [-81.6908, 41.000272], [-81.689481, 40.999681], [-81.68883, 40.999305], [-81.688751, 40.99926], [-81.688419, 40.999081], [-81.688197, 40.998956], [-81.688161, 40.998936], [-81.688161, 40.998898], [-81.688162, 40.998832], [-81.688183, 40.996595], [-81.688221, 40.994953], [-81.688236, 40.99432], [-81.688297, 40.99432], [-81.689198, 40.994316], [-81.696261, 40.994288], [-81.696347, 40.9887], [-81.691657, 40.988658], [-81.689784, 40.988641], [-81.689116, 40.988635], [-81.689116, 40.989032], [-81.688425, 40.98904], [-81.68844, 40.988607], [-81.685156, 40.988612], [-81.683161, 40.988615], [-81.681665, 40.988623], [-81.681053, 40.988676], [-81.680345, 40.988813], [-81.679761, 40.988935], [-81.679632, 40.991486], [-81.677658, 40.991429], [-81.677518, 40.994174], [-81.674621, 40.994166]]]}}]}
