{"type": "FeatureCollection", "licence": "Data \u00a9 OpenStreetMap contributors, ODbL 1.0. http://osm.org/copyright", "features": [{"type": "Feature", "properties": {"name": "South Chagrin Reservation", "boundary_type": "park", "boundary_color": "#48A860", "osm_id": "relation/3956204", "operator": "Cleveland Metroparks"}, "geometry": {"type": "MultiPolygon", "coordinates": [[[[-81.472147, 41.411269], [-81.472173, 41.410246], [-81.472191, 41.409509], [-81.472196, 41.409306], [-81.472216, 41.408536], [-81.472223, 41.408394], [-81.47224, 41.408251], [-81.472265, 41.40811], [-81.472298, 41.407969], [-81.47234, 41.40783], [-81.47239, 41.407692], [-81.472448, 41.407556], [-81.472515, 41.407423], [-81.472589, 41.407291], [-81.472671, 41.407163], [-81.472761, 41.407037], [-81.474163, 41.405177], [-81.474174, 41.405162], [-81.474649, 41.405366], [-81.475126, 41.405567], [-81.475115, 41.405582], [-81.473712, 41.407443], [-81.473633, 41.407558], [-81.473563, 41.407675], [-81.4735, 41.407795], [-81.473447, 41.407917], [-81.473401, 41.408042], [-81.473365, 41.408168], [-81.473337, 41.408295], [-81.473319, 41.408423], [-81.473309, 41.408552], [-81.473285, 41.409521], [-81.473241, 41.411336], [-81.473204, 41.412815], [-81.472399, 41.41156], [-81.472147, 41.411269]]], [[[-81.402182, 41.404738], [-81.402456, 41.404566], [-81.402439, 41.404457], [-81.402947, 41.403704], [-81.40326, 41.403241], [-81.403714, 41.402569], [-81.404112, 41.401979], [-81.404388, 41.40157], [-81.404344, 41.403715], [-81.404595, 41.403386], [-81.404615, 41.403387], [-81.404782, 41.4031], [-81.404871, 41.402903], [-81.404979, 41.402572], [-81.405044, 41.402236], [-81.405065, 41.401929], [-81.405046, 41.401621], [-81.405193, 41.401622], [-81.40521, 41.401935], [-81.405189, 41.402248], [-81.405122, 41.402593], [-81.40505, 41.402831], [-81.404931, 41.403114], [-81.404777, 41.403388], [-81.404799, 41.403388], [-81.404615, 41.403645], [-81.404339, 41.403968], [-81.404335, 41.404208], [-81.404302, 41.405929], [-81.40443, 41.405979], [-81.404583, 41.405991], [-81.404894, 41.405984], [-81.405069, 41.406011], [-81.40527, 41.406082], [-81.4055, 41.406214], [-81.40556, 41.406261], [-81.405622, 41.406309], [-81.405772, 41.406358], [-81.406193, 41.406318], [-81.406489, 41.406271], [-81.406914, 41.406247], [-81.407348, 41.406278], [-81.40761, 41.406363], [-81.408361, 41.406992], [-81.408531, 41.407177], [-81.408642, 41.407446], [-81.408651, 41.407723], [-81.408317, 41.408137], [-81.408272, 41.408327], [-81.408282, 41.408521], [-81.408326, 41.408661], [-81.408157, 41.408659], [-81.408289, 41.408827], [-81.408317, 41.408862], [-81.408569, 41.408946], [-81.408744, 41.408914], [-81.408982, 41.408853], [-81.40923, 41.408873], [-81.409301, 41.408985], [-81.409276, 41.409061], [-81.409179, 41.40914], [-81.409147, 41.409332], [-81.409211, 41.409528], [-81.409304, 41.409622], [-81.409547, 41.409625], [-81.409697, 41.409729], [-81.409731, 41.409814], [-81.409737, 41.409895], [-81.40908, 41.410247], [-81.40913, 41.410534], [-81.409256, 41.41085], [-81.409495, 41.411127], [-81.409938, 41.411527], [-81.41046, 41.411912], [-81.410868, 41.412067], [-81.411232, 41.412087], [-81.41148, 41.41199], [-81.411797, 41.411704], [-81.412136, 41.411441], [-81.412049, 41.410904], [-81.412067, 41.410717], [-81.41212, 41.410565], [-81.412344, 41.410172], [-81.412549, 41.409698], [-81.412644, 41.409531], [-81.412832, 41.4093], [-81.413458, 41.408664], [-81.416763, 41.408699], [-81.418533, 41.408726], [-81.419519, 41.408741], [-81.424133, 41.408813], [-81.426226, 41.408845], [-81.42919, 41.408891], [-81.429163, 41.409586], [-81.429127, 41.410487], [-81.429056, 41.412286], [-81.429042, 41.412722], [-81.429033, 41.413002], [-81.428993, 41.414266], [-81.428976, 41.414787], [-81.428956, 41.415412], [-81.430061, 41.415003], [-81.430067, 41.414811], [-81.430525, 41.414585], [-81.431299, 41.414338], [-81.432585, 41.41393], [-81.433946, 41.41395], [-81.434159, 41.413954], [-81.43471, 41.413962], [-81.436382, 41.413987], [-81.441154, 41.41406], [-81.441947, 41.414307], [-81.442007, 41.414588], [-81.444003, 41.414609], [-81.445099, 41.41462], [-81.44512, 41.413914], [-81.448053, 41.413944], [-81.448069, 41.413554], [-81.448084, 41.413202], [-81.448107, 41.412637], [-81.448335, 41.41264], [-81.453416, 41.412704], [-81.453565, 41.412706], [-81.453555, 41.413273], [-81.453549, 41.413561], [-81.453548, 41.413626], [-81.453529, 41.414707], [-81.45414, 41.414713], [-81.454144, 41.414576], [-81.454212, 41.414577], [-81.45482, 41.41458], [-81.455113, 41.414573], [-81.455698, 41.41454], [-81.456279, 41.41448], [-81.456567, 41.41444], [-81.457139, 41.414342], [-81.457187, 41.41274], [-81.457207, 41.412037], [-81.458956, 41.412061], [-81.460251, 41.412078], [-81.460422, 41.41208], [-81.460408, 41.412599], [-81.460638, 41.412603], [-81.463207, 41.412641], [-81.465079, 41.412668], [-81.465636, 41.412676], [-81.465771, 41.412678], [-81.466102, 41.412683], [-81.466603, 41.41269], [-81.466591, 41.413141], [-81.467353, 41.413147], [-81.469836, 41.413164], [-81.469888, 41.410946], [-81.469144, 41.410485], [-81.469154, 41.409987], [-81.469162, 41.409558], [-81.469446, 41.409561], [-81.469633, 41.409805], [-81.469908, 41.410047], [-81.469898, 41.410507], [-81.470324, 41.410511], [-81.471114, 41.411419], [-81.47156, 41.412111], [-81.471543, 41.412807], [-81.471702, 41.412683], [-81.471838, 41.412545], [-81.47239, 41.413404], [-81.472407, 41.413502], [-81.472562, 41.413631], [-81.473448, 41.414992], [-81.474598, 41.41685], [-81.475322, 41.417912], [-81.475009, 41.41791], [-81.473688, 41.417902], [-81.473152, 41.417898], [-81.472283, 41.417893], [-81.470568, 41.417883], [-81.468646, 41.417871], [-81.468015, 41.417867], [-81.467614, 41.417865], [-81.466469, 41.417858], [-81.466471, 41.417776], [-81.471503, 41.417806], [-81.471576, 41.414979], [-81.470919, 41.414974], [-81.470937, 41.414303], [-81.467641, 41.414278], [-81.466562, 41.41427], [-81.466565, 41.414143], [-81.466062, 41.41414], [-81.46565, 41.414138], [-81.465283, 41.414135], [-81.464789, 41.414132], [-81.463473, 41.414124], [-81.463158, 41.414132], [-81.463074, 41.414137], [-81.462531, 41.414169], [-81.462002, 41.414223], [-81.461908, 41.414232], [-81.461744, 41.414256], [-81.46129, 41.414322], [-81.46092, 41.414396], [-81.460714, 41.414438], [-81.460357, 41.414509], [-81.460356, 41.414544], [-81.460341, 41.415113], [-81.460317, 41.416021], [-81.460297, 41.416755], [-81.458603, 41.416732], [-81.457422, 41.416716], [-81.45717, 41.416713], [-81.457069, 41.416712], [-81.457101, 41.415627], [-81.457114, 41.415194], [-81.456543, 41.415281], [-81.455966, 41.415345], [-81.45542, 41.415384], [-81.455386, 41.415386], [-81.455095, 41.415398], [-81.454512, 41.415403], [-81.45412, 41.415399], [-81.454124, 41.415262], [-81.449926, 41.415219], [-81.44896, 41.415209], [-81.442123, 41.415138], [-81.44209, 41.414983], [-81.441312, 41.414749], [-81.44097, 41.414743], [-81.440438, 41.414735], [-81.43433, 41.414643], [-81.433206, 41.414944], [-81.430889, 41.415419], [-81.43391, 41.415466], [-81.437484, 41.415521], [-81.43746, 41.416438], [-81.437684, 41.416442], [-81.438025, 41.416447], [-81.437991, 41.417597], [-81.438469, 41.417599], [-81.438619, 41.417585], [-81.438716, 41.417626], [-81.438774, 41.417519], [-81.439454, 41.417529], [-81.439438, 41.418132], [-81.439434, 41.418256], [-81.439472, 41.418278], [-81.439546, 41.418296], [-81.439598, 41.418295], [-81.439582, 41.418878], [-81.439577, 41.419073], [-81.434498, 41.418995], [-81.430912, 41.41894], [-81.430926, 41.418335], [-81.429422, 41.418325], [-81.428856, 41.418036], [-81.428843, 41.418353], [-81.428828, 41.418733], [-81.42881, 41.419159], [-81.428674, 41.422476], [-81.428597, 41.424357], [-81.428591, 41.424487], [-81.42786, 41.424476], [-81.427855, 41.424608], [-81.42783, 41.425337], [-81.424464, 41.42541], [-81.423517, 41.425042], [-81.423436, 41.424938], [-81.42278, 41.424706], [-81.422786, 41.424501], [-81.423093, 41.424499], [-81.423064, 41.424464], [-81.421182, 41.424458], [-81.419222, 41.423777], [-81.418999, 41.424452], [-81.418881, 41.424452], [-81.418549, 41.425089], [-81.418325, 41.425318], [-81.418413, 41.425367], [-81.418328, 41.425459], [-81.418252, 41.425581], [-81.418209, 41.425712], [-81.4182, 41.425846], [-81.418226, 41.425979], [-81.418286, 41.426107], [-81.4189, 41.427087], [-81.419289, 41.428265], [-81.419441, 41.428727], [-81.419753, 41.429625], [-81.419084, 41.430806], [-81.418971, 41.431463], [-81.418046, 41.433626], [-81.417889, 41.433993], [-81.416664, 41.436859], [-81.416008, 41.43724], [-81.415174, 41.437203], [-81.414665, 41.437028], [-81.413917, 41.436868], [-81.413335, 41.437277], [-81.412091, 41.437972], [-81.411159, 41.438493], [-81.410859, 41.440376], [-81.41034, 41.442638], [-81.409908, 41.444595], [-81.409849, 41.444864], [-81.409316, 41.44883], [-81.409168, 41.450614], [-81.409124, 41.451394], [-81.409074, 41.452056], [-81.40905, 41.452384], [-81.409098, 41.453414], [-81.409175, 41.455037], [-81.409176, 41.455056], [-81.409192, 41.455358], [-81.409395, 41.459149], [-81.407111, 41.458891], [-81.406773, 41.458837], [-81.406537, 41.458775], [-81.406189, 41.458672], [-81.405627, 41.458504], [-81.405488, 41.458516], [-81.405383, 41.45845], [-81.405406, 41.457698], [-81.40542, 41.457255], [-81.404263, 41.456212], [-81.404118, 41.456081], [-81.404359, 41.45585], [-81.405086, 41.455719], [-81.405474, 41.455491], [-81.405488, 41.455024], [-81.40597, 41.455029], [-81.406017, 41.454967], [-81.406052, 41.454832], [-81.405967, 41.45458], [-81.405891, 41.454481], [-81.405731, 41.454373], [-81.405592, 41.45425], [-81.405513, 41.454197], [-81.405457, 41.454174], [-81.405291, 41.454144], [-81.405168, 41.454153], [-81.405024, 41.45415], [-81.404857, 41.454176], [-81.404509, 41.454169], [-81.404292, 41.454149], [-81.40415, 41.45411], [-81.404029, 41.454033], [-81.403946, 41.453816], [-81.403916, 41.453585], [-81.404185, 41.453207], [-81.40428, 41.453008], [-81.404346, 41.45292], [-81.404356, 41.452885], [-81.404347, 41.452764], [-81.404356, 41.452674], [-81.404437, 41.452482], [-81.404607, 41.452239], [-81.404835, 41.452008], [-81.404925, 41.451832], [-81.404974, 41.451773], [-81.405053, 41.451726], [-81.405119, 41.451721], [-81.40531, 41.451682], [-81.405594, 41.451676], [-81.405739, 41.451696], [-81.405839, 41.451699], [-81.406175, 41.45166], [-81.406362, 41.451621], [-81.406485, 41.451581], [-81.406607, 41.45152], [-81.406665, 41.451474], [-81.406773, 41.451298], [-81.406859, 41.451209], [-81.406885, 41.451147], [-81.4069, 41.451065], [-81.406932, 41.451004], [-81.406933, 41.450955], [-81.406866, 41.450512], [-81.406867, 41.450237], [-81.406897, 41.450126], [-81.406909, 41.45], [-81.407009, 41.449804], [-81.407054, 41.449755], [-81.407117, 41.449743], [-81.407325, 41.449664], [-81.407416, 41.449645], [-81.407496, 41.449643], [-81.407594, 41.44962], [-81.407674, 41.449568], [-81.407752, 41.449537], [-81.407989, 41.449379], [-81.408027, 41.449328], [-81.408047, 41.449246], [-81.408056, 41.449023], [-81.408036, 41.448862], [-81.408002, 41.448811], [-81.407809, 41.448637], [-81.407663, 41.4486], [-81.40755, 41.448604], [-81.407441, 41.448624], [-81.407222, 41.448642], [-81.407089, 41.448644], [-81.406859, 41.448612], [-81.406636, 41.448563], [-81.406533, 41.448521], [-81.406458, 41.448476], [-81.406104, 41.448204], [-81.40601, 41.448156], [-81.405939, 41.448105], [-81.405867, 41.447995], [-81.405839, 41.447792], [-81.405886, 41.447713], [-81.405972, 41.44763], [-81.406065, 41.44757], [-81.406183, 41.447538], [-81.406318, 41.447526], [-81.406632, 41.447604], [-81.406723, 41.447586], [-81.407021, 41.447574], [-81.407166, 41.447552], [-81.407296, 41.447505], [-81.407399, 41.447447], [-81.407528, 41.447294], [-81.40758, 41.447198], [-81.407616, 41.447063], [-81.407615, 41.447012], [-81.407573, 41.446846], [-81.407516, 41.446747], [-81.407247, 41.446435], [-81.406818, 41.445896], [-81.406642, 41.445752], [-81.406567, 41.445712], [-81.406524, 41.445667], [-81.406435, 41.445522], [-81.40639, 41.445403], [-81.406388, 41.445214], [-81.406417, 41.445103], [-81.406481, 41.445045], [-81.406552, 41.445046], [-81.406688, 41.445068], [-81.406812, 41.444978], [-81.406874, 41.4449], [-81.40689, 41.444852], [-81.406997, 41.444758], [-81.407028, 41.444707], [-81.407065, 41.444574], [-81.407061, 41.444461], [-81.407024, 41.444391], [-81.406837, 41.444386], [-81.406717, 41.444382], [-81.403353, 41.444362], [-81.403264, 41.444157], [-81.403143, 41.444033], [-81.403077, 41.443686], [-81.403004, 41.443698], [-81.402541, 41.443965], [-81.402325, 41.444243], [-81.402325, 41.444356], [-81.401618, 41.444351], [-81.401691, 41.439801], [-81.40101, 41.439984], [-81.400809, 41.439825], [-81.399347, 41.439878], [-81.399659, 41.439492], [-81.39965, 41.439149], [-81.399269, 41.438834], [-81.398919, 41.438852], [-81.398309, 41.43812], [-81.398319, 41.436831], [-81.398953, 41.436834], [-81.398966, 41.436246], [-81.401878, 41.436265], [-81.401963, 41.43695], [-81.402082, 41.437395], [-81.40219, 41.437548], [-81.402296, 41.437687], [-81.402554, 41.43788], [-81.40233, 41.438232], [-81.402273, 41.438535], [-81.402532, 41.438877], [-81.402625, 41.439], [-81.404055, 41.438826], [-81.403812, 41.438805], [-81.405878, 41.43893], [-81.407018, 41.439261], [-81.407052, 41.439182], [-81.407, 41.438751], [-81.406874, 41.438734], [-81.406949, 41.43847], [-81.407012, 41.43825], [-81.407758, 41.43825], [-81.407764, 41.438151], [-81.407721, 41.437825], [-81.407709, 41.437789], [-81.407627, 41.437706], [-81.407585, 41.437641], [-81.407522, 41.437479], [-81.407516, 41.437428], [-81.407487, 41.437376], [-81.407474, 41.437295], [-81.407428, 41.437161], [-81.407381, 41.437079], [-81.40736, 41.437015], [-81.407357, 41.436945], [-81.407372, 41.436894], [-81.40746, 41.436721], [-81.40749, 41.436698], [-81.407901, 41.436731], [-81.407988, 41.436758], [-81.408089, 41.436809], [-81.408226, 41.436839], [-81.408397, 41.436931], [-81.408639, 41.437021], [-81.408843, 41.437044], [-81.408984, 41.437037], [-81.409206, 41.436979], [-81.40933, 41.436926], [-81.409492, 41.436821], [-81.409543, 41.436759], [-81.40952, 41.436639], [-81.409505, 41.43645], [-81.409436, 41.436227], [-81.409427, 41.436132], [-81.409371, 41.436008], [-81.409364, 41.435896], [-81.409385, 41.435663], [-81.409422, 41.435575], [-81.409483, 41.435352], [-81.409494, 41.435333], [-81.409598, 41.435289], [-81.409732, 41.435193], [-81.409862, 41.435126], [-81.410048, 41.434964], [-81.410099, 41.43488], [-81.410126, 41.434792], [-81.410093, 41.434712], [-81.410155, 41.434596], [-81.41024, 41.434511], [-81.410499, 41.434345], [-81.410626, 41.434232], [-81.410901, 41.434043], [-81.411169, 41.433969], [-81.411359, 41.433945], [-81.411589, 41.433958], [-81.411816, 41.434032], [-81.411906, 41.434094], [-81.411988, 41.434193], [-81.412042, 41.434223], [-81.412174, 41.434327], [-81.412255, 41.434422], [-81.412359, 41.434516], [-81.412443, 41.434565], [-81.412594, 41.434683], [-81.412737, 41.434835], [-81.412829, 41.434879], [-81.412926, 41.434969], [-81.413, 41.435026], [-81.413109, 41.435086], [-81.413156, 41.435131], [-81.413284, 41.435182], [-81.413336, 41.435213], [-81.413471, 41.435225], [-81.413689, 41.435215], [-81.413806, 41.435167], [-81.41392, 41.435163], [-81.414022, 41.435108], [-81.414121, 41.43503], [-81.414221, 41.434913], [-81.414307, 41.434734], [-81.41429, 41.434684], [-81.414276, 41.434548], [-81.414226, 41.434491], [-81.414165, 41.434347], [-81.414068, 41.434166], [-81.41392, 41.43399], [-81.413822, 41.433899], [-81.41378, 41.433802], [-81.413756, 41.433693], [-81.413765, 41.43363], [-81.41379, 41.43357], [-81.413871, 41.433453], [-81.413873, 41.433357], [-81.413911, 41.433275], [-81.413868, 41.433028], [-81.413818, 41.432896], [-81.41381, 41.432803], [-81.413811, 41.432811], [-81.413592, 41.43275], [-81.412209, 41.432364], [-81.411982, 41.431845], [-81.414265, 41.43128], [-81.414387, 41.431107], [-81.414981, 41.43119], [-81.415506, 41.431179], [-81.415959, 41.431026], [-81.41621, 41.430805], [-81.41633, 41.430805], [-81.416398, 41.43075], [-81.416506, 41.430683], [-81.416652, 41.430548], [-81.416702, 41.430465], [-81.416765, 41.430206], [-81.416767, 41.430105], [-81.416809, 41.429937], [-81.41685, 41.429831], [-81.416903, 41.429748], [-81.416963, 41.429684], [-81.415515, 41.429215], [-81.414788, 41.429046], [-81.414278, 41.429116], [-81.414349, 41.4276], [-81.414378, 41.426257], [-81.414394, 41.425501], [-81.416031, 41.42545], [-81.415312, 41.423721], [-81.41539, 41.423684], [-81.415526, 41.424014], [-81.41561, 41.424013], [-81.416059, 41.424155], [-81.416125, 41.424198], [-81.416181, 41.424199], [-81.41602, 41.424358], [-81.415701, 41.424433], [-81.416122, 41.425447], [-81.416747, 41.425428], [-81.417071, 41.42547], [-81.417383, 41.425511], [-81.417496, 41.425519], [-81.417674, 41.42553], [-81.417765, 41.425234], [-81.417804, 41.425053], [-81.417751, 41.424449], [-81.417351, 41.424448], [-81.417144, 41.423732], [-81.416533, 41.423729], [-81.416515, 41.423699], [-81.416298, 41.423478], [-81.416104, 41.423445], [-81.416526, 41.423247], [-81.416251, 41.423063], [-81.416264, 41.422702], [-81.414402, 41.420884], [-81.414067, 41.420556], [-81.413334, 41.41984], [-81.412863, 41.418909], [-81.412764, 41.418852], [-81.41269, 41.41881], [-81.41262, 41.418929], [-81.412469, 41.418836], [-81.412325, 41.418748], [-81.412151, 41.418642], [-81.412548, 41.417741], [-81.41296, 41.417205], [-81.413545, 41.416084], [-81.414165, 41.414897], [-81.413646, 41.414513], [-81.413112, 41.414118], [-81.412478, 41.413763], [-81.411202, 41.413089], [-81.410483, 41.412755], [-81.409013, 41.41181], [-81.408926, 41.411754], [-81.40816, 41.410741], [-81.408671, 41.410467], [-81.408694, 41.410454], [-81.408561, 41.410105], [-81.408428, 41.409965], [-81.408298, 41.410035], [-81.407763, 41.410322], [-81.406311, 41.408789], [-81.40634, 41.408775], [-81.406642, 41.408625], [-81.40676, 41.408567], [-81.406542, 41.408316], [-81.40645, 41.408211], [-81.406068, 41.407773], [-81.40576, 41.40742], [-81.405364, 41.407615], [-81.405303, 41.407645], [-81.40492, 41.407206], [-81.404724, 41.407029], [-81.403503, 41.40593], [-81.403325, 41.40587], [-81.403185, 41.405837], [-81.403041, 41.405816], [-81.402847, 41.405805], [-81.402652, 41.405814], [-81.40246, 41.405845], [-81.402277, 41.405894], [-81.402063, 41.405983], [-81.402012, 41.405926], [-81.401695, 41.406175], [-81.401734, 41.406204], [-81.401482, 41.406402], [-81.401442, 41.406374], [-81.401198, 41.406566], [-81.401217, 41.40706], [-81.401276, 41.408563], [-81.401093, 41.408561], [-81.399243, 41.408085], [-81.398759, 41.408406], [-81.398265, 41.408698], [-81.398, 41.408841], [-81.397451, 41.409105], [-81.396879, 41.40934], [-81.396419, 41.409505], [-81.395909, 41.409655], [-81.395559, 41.409734], [-81.394604, 41.409907], [-81.393849, 41.410081], [-81.393429, 41.410235], [-81.393016, 41.410437], [-81.39275, 41.41061], [-81.391862, 41.411268], [-81.391862, 41.411249], [-81.39183, 41.411273], [-81.391488, 41.411533], [-81.391501, 41.411542], [-81.390491, 41.41231], [-81.390511, 41.41231], [-81.390124, 41.412595], [-81.38947, 41.413107], [-81.389256, 41.413286], [-81.389081, 41.413432], [-81.388573, 41.413907], [-81.388519, 41.413969], [-81.38847, 41.414024], [-81.388443, 41.414055], [-81.388272, 41.414252], [-81.388027, 41.414576], [-81.387814, 41.41491], [-81.387676, 41.415139], [-81.387489, 41.415549], [-81.387315, 41.416049], [-81.387391, 41.416062], [-81.38737, 41.416131], [-81.38727, 41.41647], [-81.386774, 41.416593], [-81.386353, 41.417696], [-81.386355, 41.41776], [-81.386481, 41.418247], [-81.386529, 41.418322], [-81.38655, 41.418338], [-81.386908, 41.418293], [-81.387083, 41.41834], [-81.386947, 41.42039], [-81.386903, 41.421061], [-81.387012, 41.421062], [-81.386904, 41.422665], [-81.386895, 41.422796], [-81.386868, 41.423197], [-81.386846, 41.42352], [-81.386839, 41.423627], [-81.386656, 41.423627], [-81.386544, 41.423491], [-81.38654, 41.422928], [-81.386537, 41.422538], [-81.386571, 41.422539], [-81.386744, 41.420111], [-81.385406, 41.420326], [-81.384821, 41.420619], [-81.384434, 41.420814], [-81.384138, 41.420632], [-81.384355, 41.420523], [-81.385262, 41.420068], [-81.386417, 41.419507], [-81.386486, 41.419114], [-81.386506, 41.418994], [-81.386206, 41.418776], [-81.386047, 41.418495], [-81.386015, 41.418255], [-81.38576, 41.418059], [-81.38571, 41.417899], [-81.385922, 41.41785], [-81.385928, 41.417755], [-81.385943, 41.417513], [-81.385647, 41.417118], [-81.385781, 41.416569], [-81.385652, 41.415891], [-81.385643, 41.415843], [-81.38569, 41.415844], [-81.385954, 41.415848], [-81.386217, 41.41587], [-81.38718, 41.416027], [-81.387361, 41.415518], [-81.387551, 41.415102], [-81.387894, 41.414525], [-81.388135, 41.414192], [-81.388438, 41.413837], [-81.388749, 41.413517], [-81.388942, 41.413342], [-81.389169, 41.413158], [-81.389351, 41.413017], [-81.390009, 41.412509], [-81.390285, 41.41231], [-81.390434, 41.412197], [-81.391398, 41.411465], [-81.391411, 41.411475], [-81.391823, 41.411159], [-81.392549, 41.410604], [-81.392866, 41.410394], [-81.393093, 41.410268], [-81.393453, 41.410103], [-81.393705, 41.410008], [-81.394021, 41.409907], [-81.394409, 41.409817], [-81.395195, 41.409718], [-81.395425, 41.409674], [-81.395877, 41.409569], [-81.39632, 41.409441], [-81.396537, 41.409369], [-81.397162, 41.409125], [-81.397467, 41.408992], [-81.398058, 41.408703], [-81.398602, 41.408396], [-81.399126, 41.408055], [-81.397955, 41.407753], [-81.397693, 41.408546], [-81.394101, 41.40853], [-81.392009, 41.408521], [-81.392031, 41.406228], [-81.391956, 41.40153], [-81.394171, 41.401544], [-81.394669, 41.401547], [-81.39809, 41.401569], [-81.398043, 41.40526], [-81.401145, 41.406488], [-81.401362, 41.406318], [-81.401323, 41.406289], [-81.401575, 41.406091], [-81.401614, 41.406119], [-81.402736, 41.405237], [-81.40224, 41.40479], [-81.402182, 41.404738]], [[-81.403261, 41.40571], [-81.402818, 41.405312], [-81.402818, 41.405312], [-81.402806, 41.405301], [-81.402218, 41.405764], [-81.402269, 41.405748], [-81.40232, 41.405734], [-81.402372, 41.405721], [-81.402424, 41.40571], [-81.402477, 41.405699], [-81.402531, 41.405691], [-81.402585, 41.405683], [-81.402639, 41.405677], [-81.402693, 41.405673], [-81.402748, 41.40567], [-81.402802, 41.405668], [-81.402857, 41.405667], [-81.402912, 41.405669], [-81.402966, 41.405671], [-81.40302, 41.405675], [-81.403075, 41.405681], [-81.403129, 41.405687], [-81.403182, 41.405695], [-81.403235, 41.405705], [-81.403261, 41.40571]], [[-81.395089, 41.407015], [-81.39302, 41.406482], [-81.392516, 41.407594], [-81.394597, 41.408118], [-81.395089, 41.407015]]], [[[-81.488915, 41.379557], [-81.488915, 41.379578], [-81.488933, 41.379582], [-81.488915, 41.379871], [-81.488914, 41.380262], [-81.488922, 41.380513], [-81.487409, 41.380507], [-81.487403, 41.381762], [-81.487402, 41.381974], [-81.4874, 41.382476], [-81.487397, 41.383069], [-81.485527, 41.383046], [-81.483883, 41.383026], [-81.483876, 41.384526], [-81.483869, 41.385879], [-81.483666, 41.385912], [-81.483465, 41.385952], [-81.483266, 41.385997], [-81.48307, 41.386048], [-81.482877, 41.386105], [-81.482686, 41.386167], [-81.481615, 41.38654], [-81.481568, 41.391177], [-81.483953, 41.390972], [-81.484668, 41.390976], [-81.48468, 41.392937], [-81.48549, 41.393529], [-81.486714, 41.393539], [-81.487363, 41.393545], [-81.487368, 41.393967], [-81.48708, 41.393969], [-81.485854, 41.393977], [-81.486611, 41.394567], [-81.486045, 41.395068], [-81.484698, 41.394442], [-81.484312, 41.39486], [-81.486001, 41.395786], [-81.485987, 41.39728], [-81.48759, 41.397963], [-81.488222, 41.398232], [-81.488867, 41.398237], [-81.48886, 41.399255], [-81.487685, 41.39926], [-81.487677, 41.399673], [-81.485575, 41.399669], [-81.485576, 41.40005], [-81.485585, 41.402393], [-81.487587, 41.402425], [-81.487611, 41.403646], [-81.488825, 41.403897], [-81.488819, 41.404667], [-81.487524, 41.404401], [-81.487043, 41.404303], [-81.486647, 41.40422], [-81.486354, 41.404155], [-81.485875, 41.404049], [-81.485381, 41.403508], [-81.485026, 41.403119], [-81.484971, 41.403058], [-81.484297, 41.402907], [-81.482803, 41.402572], [-81.480622, 41.401254], [-81.479517, 41.400544], [-81.479163, 41.400401], [-81.478958, 41.400355], [-81.477936, 41.400127], [-81.477817, 41.400989], [-81.477555, 41.400907], [-81.477546, 41.401259], [-81.477533, 41.401817], [-81.47743, 41.406184], [-81.477093, 41.406053], [-81.476757, 41.405921], [-81.476086, 41.405652], [-81.475505, 41.405413], [-81.474927, 41.40517], [-81.474352, 41.404924], [-81.474935, 41.404151], [-81.47518, 41.403826], [-81.476171, 41.40205], [-81.476189, 41.401309], [-81.476208, 41.400486], [-81.476273, 41.397401], [-81.476307, 41.395786], [-81.474763, 41.395772], [-81.474096, 41.395766], [-81.474132, 41.393834], [-81.474156, 41.392578], [-81.474179, 41.391345], [-81.474472, 41.391345], [-81.474476, 41.391099], [-81.474505, 41.389506], [-81.47566, 41.389518], [-81.476046, 41.389134], [-81.476366, 41.388567], [-81.476713, 41.387952], [-81.477392, 41.387886], [-81.477801, 41.387847], [-81.477802, 41.387157], [-81.478303, 41.387158], [-81.478324, 41.387158], [-81.478535, 41.387155], [-81.478746, 41.387147], [-81.478956, 41.387135], [-81.479007, 41.384956], [-81.479041, 41.383561], [-81.479055, 41.382984], [-81.479126, 41.37993], [-81.479148, 41.378979], [-81.48167, 41.378987], [-81.482809, 41.378716], [-81.488832, 41.378734], [-81.488919, 41.378733], [-81.488915, 41.379557]]]]}}]}
