{"type": "FeatureCollection", "licence": "Data \u00a9 OpenStreetMap contributors, ODbL 1.0. http://osm.org/copyright", "features": [{"type": "Feature", "properties": {"name": "Springfield Bog Metro Park", "boundary_type": "park", "boundary_color": "#7BA05B", "osm_id": "way/279927827", "operator": "Summit Metro Parks"}, "geometry": {"type": "Polygon", "coordinates": [[[-81.393462, 41.006344], [-81.393462, 41.012918], [-81.395736, 41.012951], [-81.395791, 41.0141], [-81.395824, 41.014784], [-81.39586, 41.015524], [-81.395881, 41.015956], [-81.395886, 41.016075], [-81.405649, 41.01593], [-81.405649, 41.012341], [-81.405649, 41.009883], [-81.405649, 41.007769], [-81.404834, 41.007769], [-81.404848, 41.00709], [-81.404896, 41.004872], [-81.404898, 41.004741], [-81.404534, 41.004612], [-81.404276, 41.004401], [-81.404101, 41.00434], [-81.403804, 41.004174], [-81.403372, 41.004044], [-81.402714, 41.004133], [-81.402002, 41.003737], [-81.401508, 41.00377], [-81.401512, 41.004148], [-81.400017, 41.004183], [-81.400018, 41.004334], [-81.400022, 41.005128], [-81.400027, 41.006166], [-81.399182, 41.006189], [-81.393462, 41.006344]]]}}]}
