{"type": "FeatureCollection", "licence": "Data \u00a9 OpenStreetMap contributors, ODbL 1.0. http://osm.org/copyright", "features": [{"type": "Feature", "properties": {"name": "Summit Lake Park", "boundary_type": "park", "boundary_color": "#5FA0C0", "osm_id": "way/472101121", "operator": "City of Akron"}, "geometry": {"type": "Polygon", "coordinates": [[[-81.541443, 41.057478], [-81.542898, 41.057466], [-81.542838, 41.057728], [-81.542874, 41.058033], [-81.542888, 41.05815], [-81.543029, 41.058613], [-81.543243, 41.058827], [-81.543338, 41.058922], [-81.543412, 41.058996], [-81.543458, 41.059238], [-81.543477, 41.059338], [-81.543447, 41.05971], [-81.542934, 41.060382], [-81.54246, 41.060936], [-81.542163, 41.061156], [-81.542118, 41.061236], [-81.542138, 41.06132], [-81.542012, 41.061468], [-81.540765, 41.061496], [-81.540591, 41.061375], [-81.540577, 41.060845], [-81.540552, 41.060143], [-81.540653, 41.059653], [-81.540698, 41.059459], [-81.540864, 41.059103], [-81.541071, 41.058719], [-81.541237, 41.058389], [-81.541313, 41.058169], [-81.541393, 41.057864], [-81.541398, 41.057846], [-81.541443, 41.057478]]]}}]}
