{"type": "FeatureCollection", "licence": "Data \u00a9 OpenStreetMap contributors, ODbL 1.0. http://osm.org/copyright", "features": [{"type": "Feature", "properties": {"name": "Valley View Woods", "boundary_type": "park", "boundary_color": "#8FAF5F", "osm_id": "relation/18057126", "operator": "Village of Valley View"}, "geometry": {"type": "MultiPolygon", "coordinates": [[[[-81.591241, 41.389077], [-81.590871, 41.388839], [-81.590434, 41.38845], [-81.590643, 41.388063], [-81.590947, 41.387723], [-81.591223, 41.387798], [-81.591347, 41.387574], [-81.59195, 41.387667], [-81.591983, 41.387405], [-81.592029, 41.387411], [-81.592039, 41.387369], [-81.592071, 41.38683], [-81.592201, 41.386834], [-81.592418, 41.386499], [-81.59243, 41.386075], [-81.592513, 41.386092], [-81.592246, 41.385773], [-81.592141, 41.385689], [-81.591744, 41.385596], [-81.591423, 41.385458], [-81.591354, 41.385192], [-81.591453, 41.384966], [-81.592028, 41.384912], [-81.592372, 41.38514], [-81.592379, 41.385542], [-81.592911, 41.385591], [-81.59354, 41.385666], [-81.593672, 41.385867], [-81.593407, 41.386026], [-81.593337, 41.386289], [-81.593388, 41.386556], [-81.59426, 41.38646], [-81.594275, 41.386629], [-81.594491, 41.386631], [-81.595028, 41.386677], [-81.595054, 41.386405], [-81.595231, 41.386429], [-81.595387, 41.386435], [-81.595527, 41.386614], [-81.596003, 41.38682], [-81.596099, 41.386914], [-81.595993, 41.387155], [-81.595732, 41.387256], [-81.594921, 41.387163], [-81.594501, 41.38721], [-81.59433, 41.387257], [-81.594139, 41.387317], [-81.593957, 41.387351], [-81.593737, 41.387375], [-81.593603, 41.387408], [-81.59348, 41.387454], [-81.593372, 41.387502], [-81.593265, 41.387534], [-81.593107, 41.387542], [-81.592954, 41.387542], [-81.592782, 41.387522], [-81.592648, 41.38752], [-81.592468, 41.387518], [-81.592294, 41.387518], [-81.592247, 41.387927], [-81.592241, 41.387978], [-81.59224, 41.38807], [-81.592432, 41.388147], [-81.592425, 41.388472], [-81.592342, 41.388658], [-81.592159, 41.388655], [-81.592196, 41.388565], [-81.592214, 41.388457], [-81.591835, 41.388366], [-81.591532, 41.388848], [-81.591528, 41.38886], [-81.591241, 41.389077]]], [[[-81.593093, 41.390157], [-81.593995, 41.389469], [-81.593749, 41.389288], [-81.593809, 41.389086], [-81.59408, 41.388802], [-81.594497, 41.388046], [-81.594033, 41.387893], [-81.593616, 41.388553], [-81.593278, 41.388812], [-81.593281, 41.388942], [-81.592379, 41.38963], [-81.592146, 41.389663], [-81.592153, 41.389827], [-81.592276, 41.389858], [-81.592557, 41.389761], [-81.593093, 41.390157]]]]}}]}
