{"type": "FeatureCollection", "licence": "Data \u00a9 OpenStreetMap contributors, ODbL 1.0. http://osm.org/copyright", "features": [{"type": "Feature", "properties": {"name": "Washington Reservation", "boundary_type": "park", "boundary_color": "#7BA05B", "osm_id": "relation/3956422", "operator": "Cleveland Metroparks"}, "geometry": {"type": "MultiPolygon", "coordinates": [[[[-81.660602, 41.453201], [-81.66061, 41.453174], [-81.660709, 41.453191], [-81.660808, 41.453211], [-81.660906, 41.453234], [-81.661002, 41.453259], [-81.66099, 41.453285], [-81.660894, 41.45326], [-81.660798, 41.453238], [-81.6607, 41.453218], [-81.660602, 41.453201]]], [[[-81.657417, 41.449079], [-81.657391, 41.448462], [-81.658112, 41.449889], [-81.658148, 41.449965], [-81.658181, 41.450041], [-81.658211, 41.450118], [-81.658237, 41.450196], [-81.658248, 41.450237], [-81.658259, 41.450275], [-81.658278, 41.450354], [-81.658293, 41.450433], [-81.658305, 41.450513], [-81.658313, 41.450593], [-81.658318, 41.450673], [-81.658319, 41.450754], [-81.658316, 41.450834], [-81.658309, 41.450919], [-81.658299, 41.451003], [-81.658285, 41.451087], [-81.658268, 41.451171], [-81.658254, 41.451233], [-81.658243, 41.451284], [-81.658235, 41.451335], [-81.658229, 41.451386], [-81.658225, 41.451437], [-81.658223, 41.451488], [-81.658223, 41.451546], [-81.658226, 41.451603], [-81.658231, 41.45166], [-81.658239, 41.451718], [-81.65825, 41.451774], [-81.658263, 41.451831], [-81.658279, 41.451887], [-81.658297, 41.451943], [-81.658318, 41.451999], [-81.658342, 41.452053], [-81.658368, 41.452107], [-81.658396, 41.452161], [-81.658428, 41.452213], [-81.658454, 41.452258], [-81.658478, 41.452303], [-81.6585, 41.452349], [-81.65852, 41.452395], [-81.658538, 41.452441], [-81.658554, 41.452489], [-81.658567, 41.452536], [-81.658579, 41.452584], [-81.658588, 41.452632], [-81.658595, 41.45268], [-81.6586, 41.452729], [-81.658603, 41.452777], [-81.658604, 41.452826], [-81.658602, 41.452875], [-81.658598, 41.452923], [-81.658592, 41.452971], [-81.658584, 41.45302], [-81.658574, 41.453068], [-81.658561, 41.453115], [-81.658547, 41.453163], [-81.65853, 41.45321], [-81.658511, 41.453256], [-81.65849, 41.453302], [-81.658467, 41.453347], [-81.658442, 41.453392], [-81.658415, 41.453436], [-81.658386, 41.45348], [-81.658355, 41.453522], [-81.658322, 41.453564], [-81.658288, 41.453605], [-81.658251, 41.453645], [-81.657583, 41.452639], [-81.657822, 41.451484], [-81.658123, 41.451213], [-81.658216, 41.450949], [-81.658209, 41.450754], [-81.657638, 41.450093], [-81.657417, 41.449079]]], [[[-81.658691, 41.453841], [-81.658936, 41.453711], [-81.659111, 41.453637], [-81.659203, 41.453483], [-81.659207, 41.453412], [-81.659057, 41.45332], [-81.659016, 41.453249], [-81.659048, 41.453235], [-81.659081, 41.453222], [-81.659117, 41.453286], [-81.659211, 41.453344], [-81.659214, 41.453291], [-81.659327, 41.453165], [-81.659379, 41.453156], [-81.65943, 41.453148], [-81.659286, 41.453309], [-81.659276, 41.453496], [-81.659256, 41.453528], [-81.659442, 41.453599], [-81.659399, 41.453645], [-81.659226, 41.453578], [-81.659167, 41.453676], [-81.658975, 41.453758], [-81.658744, 41.453881], [-81.659801, 41.454668], [-81.660304, 41.454776], [-81.661544, 41.453456], [-81.661585, 41.453475], [-81.66172, 41.45354], [-81.661767, 41.453561], [-81.661815, 41.453582], [-81.661864, 41.453601], [-81.661914, 41.453619], [-81.661965, 41.453636], [-81.662016, 41.453651], [-81.662068, 41.453665], [-81.66212, 41.453678], [-81.662173, 41.453689], [-81.662227, 41.453699], [-81.662281, 41.453708], [-81.662335, 41.453715], [-81.66239, 41.453721], [-81.662445, 41.453726], [-81.6625, 41.453729], [-81.662555, 41.45373], [-81.662611, 41.453731], [-81.662666, 41.453729], [-81.662721, 41.453727], [-81.662776, 41.453723], [-81.662831, 41.453717], [-81.662885, 41.453711], [-81.66294, 41.453702], [-81.662994, 41.453693], [-81.663048, 41.453682], [-81.663101, 41.453669], [-81.663153, 41.453655], [-81.663205, 41.45364], [-81.663257, 41.453623], [-81.663307, 41.453606], [-81.663357, 41.453587], [-81.663405, 41.453566], [-81.663453, 41.453544], [-81.6635, 41.453522], [-81.663545, 41.453498], [-81.66359, 41.453472], [-81.663633, 41.453446], [-81.663675, 41.453419], [-81.663716, 41.45339], [-81.663755, 41.453361], [-81.663794, 41.45333], [-81.66383, 41.453299], [-81.663866, 41.453266], [-81.663899, 41.453233], [-81.663932, 41.453199], [-81.663962, 41.453164], [-81.663991, 41.453128], [-81.664019, 41.453091], [-81.664045, 41.453054], [-81.664068, 41.453016], [-81.664091, 41.452978], [-81.664111, 41.452939], [-81.66413, 41.4529], [-81.664147, 41.45286], [-81.664162, 41.452819], [-81.664175, 41.452779], [-81.664187, 41.452738], [-81.664196, 41.452697], [-81.664204, 41.452655], [-81.66421, 41.452613], [-81.664282, 41.454056], [-81.664358, 41.455578], [-81.665076, 41.455564], [-81.665117, 41.456121], [-81.665345, 41.45922], [-81.664913, 41.459231], [-81.664204, 41.459247], [-81.663208, 41.458723], [-81.662957, 41.458993], [-81.662807, 41.458914], [-81.663059, 41.458644], [-81.663085, 41.458616], [-81.662788, 41.45846], [-81.662508, 41.45876], [-81.662404, 41.458705], [-81.662683, 41.458405], [-81.661644, 41.457857], [-81.66167, 41.457829], [-81.661236, 41.457601], [-81.66087, 41.457994], [-81.660419, 41.457757], [-81.660178, 41.458015], [-81.659116, 41.457482], [-81.658754, 41.457878], [-81.658615, 41.457806], [-81.65856, 41.457778], [-81.658972, 41.457335], [-81.659053, 41.457129], [-81.660567, 41.457361], [-81.660578, 41.457313], [-81.66203, 41.457474], [-81.662981, 41.457517], [-81.662996, 41.457021], [-81.663052, 41.456897], [-81.663073, 41.456807], [-81.662091, 41.456676], [-81.661755, 41.45639], [-81.661524, 41.456438], [-81.661448, 41.456382], [-81.661391, 41.456359], [-81.661357, 41.456347], [-81.661322, 41.456336], [-81.661286, 41.456327], [-81.66125, 41.456318], [-81.661214, 41.45631], [-81.661177, 41.456302], [-81.66114, 41.456296], [-81.661103, 41.456291], [-81.661065, 41.456286], [-81.661028, 41.456283], [-81.660746, 41.45626], [-81.660656, 41.456252], [-81.660566, 41.456241], [-81.660477, 41.456229], [-81.660388, 41.456214], [-81.6603, 41.456197], [-81.660213, 41.456178], [-81.660127, 41.456157], [-81.660245, 41.45584], [-81.660017, 41.455684], [-81.658976, 41.455709], [-81.657984, 41.455742], [-81.658679, 41.453832], [-81.658691, 41.453841]]], [[[-81.657008, 41.446905], [-81.656854, 41.446902], [-81.656713, 41.445917], [-81.656711, 41.445846], [-81.656315, 41.445096], [-81.656468, 41.445093], [-81.656574, 41.445282], [-81.656511, 41.445281], [-81.656515, 41.44546], [-81.656554, 41.445541], [-81.656701, 41.445544], [-81.656851, 41.44582], [-81.656991, 41.446787], [-81.657008, 41.446905]]], [[[-81.656226, 41.443812], [-81.656224, 41.443746], [-81.656132, 41.440959], [-81.656423, 41.440513], [-81.656578, 41.440524], [-81.656278, 41.440983], [-81.656346, 41.443029], [-81.656302, 41.44303], [-81.656314, 41.443395], [-81.656358, 41.443395], [-81.656359, 41.443422], [-81.65637, 41.443755], [-81.656242, 41.443747], [-81.656245, 41.443813], [-81.656373, 41.44382], [-81.656381, 41.444096], [-81.656394, 41.444464], [-81.656269, 41.444466], [-81.656273, 41.444578], [-81.656258, 41.444578], [-81.656261, 41.444643], [-81.656254, 41.444644], [-81.656245, 41.444364], [-81.656244, 41.444354], [-81.656235, 41.444087], [-81.656226, 41.443812]]]]}}]}
