{"type": "FeatureCollection", "licence": "Data \u00a9 OpenStreetMap contributors, ODbL 1.0. http://osm.org/copyright", "features": [{"type": "Feature", "properties": {"name": "West Creek Reservation", "boundary_type": "park", "boundary_color": "#66CDAA", "osm_id": "relation/11228395", "operator": "Cleveland Metroparks"}, "geometry": {"type": "MultiPolygon", "coordinates": [[[[-81.701328, 41.363681], [-81.700689, 41.363032], [-81.700685, 41.362762], [-81.70094, 41.36276], [-81.701575, 41.362522], [-81.701569, 41.362084], [-81.701562, 41.361534], [-81.701781, 41.361533], [-81.701788, 41.362084], [-81.701792, 41.362397], [-81.701881, 41.362488], [-81.702385, 41.363], [-81.701328, 41.363681]]], [[[-81.702568, 41.363792], [-81.702324, 41.363944], [-81.702085, 41.36373], [-81.702328, 41.363568], [-81.702568, 41.363792]]], [[[-81.689784, 41.3642], [-81.688885, 41.364206], [-81.688869, 41.362153], [-81.688865, 41.361652], [-81.688865, 41.361623], [-81.689593, 41.361617], [-81.689616, 41.363337], [-81.690346, 41.363332], [-81.690344, 41.364192], [-81.690343, 41.364428], [-81.690621, 41.364425], [-81.693548, 41.364399], [-81.693998, 41.364395], [-81.694005, 41.364862], [-81.697642, 41.36483], [-81.69764, 41.364091], [-81.699892, 41.364069], [-81.700668, 41.364061], [-81.701307, 41.364054], [-81.699109, 41.365464], [-81.698182, 41.365085], [-81.697643, 41.36509], [-81.697646, 41.365527], [-81.697427, 41.365529], [-81.697419, 41.365092], [-81.692242, 41.365138], [-81.692064, 41.36514], [-81.691646, 41.365143], [-81.690089, 41.365157], [-81.690082, 41.364698], [-81.689784, 41.3642]]], [[[-81.688937, 41.365486], [-81.688938, 41.36558], [-81.689152, 41.3657], [-81.688999, 41.366138], [-81.688931, 41.366138], [-81.688283, 41.366141], [-81.688283, 41.366196], [-81.685924, 41.366203], [-81.685924, 41.366227], [-81.685924, 41.366262], [-81.685924, 41.366351], [-81.685239, 41.366364], [-81.6852, 41.366388], [-81.684738, 41.366389], [-81.684726, 41.366389], [-81.684575, 41.366356], [-81.684575, 41.365418], [-81.686023, 41.365413], [-81.686348, 41.365385], [-81.688754, 41.365377], [-81.688937, 41.365486]]], [[[-81.697649, 41.365688], [-81.697652, 41.36692], [-81.69747, 41.366922], [-81.69747, 41.367085], [-81.697653, 41.367085], [-81.697659, 41.369411], [-81.696997, 41.36942], [-81.696997, 41.369447], [-81.696917, 41.369467], [-81.696868, 41.369518], [-81.696865, 41.369575], [-81.696907, 41.369627], [-81.69621, 41.369639], [-81.694699, 41.369664], [-81.694822, 41.371622], [-81.696134, 41.371345], [-81.696137, 41.371425], [-81.695749, 41.372801], [-81.695802, 41.372805], [-81.696169, 41.371504], [-81.696493, 41.371437], [-81.696508, 41.372796], [-81.697692, 41.37278], [-81.697697, 41.373026], [-81.697004, 41.373318], [-81.696229, 41.373445], [-81.695516, 41.37371], [-81.694273, 41.37478], [-81.694348, 41.375856], [-81.693724, 41.377249], [-81.693951, 41.377761], [-81.694431, 41.37794], [-81.695563, 41.377925], [-81.695551, 41.376859], [-81.696418, 41.377098], [-81.696346, 41.377124], [-81.696338, 41.378088], [-81.697315, 41.378076], [-81.697739, 41.377158], [-81.697741, 41.377293], [-81.697762, 41.378746], [-81.697909, 41.378815], [-81.697913, 41.379143], [-81.697917, 41.379387], [-81.698088, 41.379385], [-81.698706, 41.379677], [-81.698532, 41.379886], [-81.702547, 41.379857], [-81.702269, 41.380638], [-81.701423, 41.381321], [-81.701467, 41.381735], [-81.701631, 41.381903], [-81.700044, 41.382809], [-81.699374, 41.382865], [-81.699395, 41.383007], [-81.699982, 41.382958], [-81.699812, 41.38381], [-81.700104, 41.384676], [-81.697857, 41.384693], [-81.697969, 41.390163], [-81.696984, 41.390152], [-81.696997, 41.391759], [-81.695911, 41.39178], [-81.695904, 41.390821], [-81.694781, 41.390846], [-81.694761, 41.390149], [-81.695347, 41.390148], [-81.695346, 41.390061], [-81.694461, 41.390073], [-81.693827, 41.390081], [-81.693817, 41.389413], [-81.692996, 41.389241], [-81.693037, 41.391843], [-81.687576, 41.391959], [-81.687541, 41.391877], [-81.686749, 41.391893], [-81.686214, 41.391903], [-81.686154, 41.391882], [-81.686124, 41.391852], [-81.686698, 41.39184], [-81.687517, 41.391823], [-81.687258, 41.391225], [-81.686545, 41.391215], [-81.685684, 41.391204], [-81.685617, 41.39105], [-81.685567, 41.390927], [-81.685536, 41.390847], [-81.684862, 41.389202], [-81.684846, 41.388238], [-81.684837, 41.387716], [-81.685346, 41.387711], [-81.685357, 41.38837], [-81.687086, 41.388351], [-81.687084, 41.388273], [-81.687359, 41.388267], [-81.69123, 41.388185], [-81.691219, 41.387483], [-81.691551, 41.387167], [-81.691956, 41.386471], [-81.691941, 41.385518], [-81.691487, 41.384764], [-81.690976, 41.384769], [-81.690794, 41.38457], [-81.691817, 41.384136], [-81.691812, 41.382484], [-81.691566, 41.382488], [-81.691537, 41.381349], [-81.691578, 41.381349], [-81.692041, 41.38167], [-81.692189, 41.381609], [-81.692085, 41.381341], [-81.693147, 41.381323], [-81.693886, 41.380921], [-81.693892, 41.380109], [-81.69108, 41.380138], [-81.691106, 41.379663], [-81.691934, 41.379721], [-81.692753, 41.379604], [-81.692178, 41.378996], [-81.692477, 41.378993], [-81.691852, 41.378239], [-81.691174, 41.378438], [-81.691131, 41.378386], [-81.691058, 41.378348], [-81.691273, 41.377981], [-81.689953, 41.377995], [-81.68992, 41.376201], [-81.691883, 41.376177], [-81.69185, 41.373876], [-81.692657, 41.37387], [-81.692643, 41.372827], [-81.6943, 41.372814], [-81.693932, 41.370406], [-81.692849, 41.370813], [-81.692301, 41.370528], [-81.692041, 41.37006], [-81.691982, 41.369535], [-81.691199, 41.369543], [-81.691171, 41.369488], [-81.692071, 41.369479], [-81.692059, 41.368846], [-81.69094, 41.368859], [-81.690924, 41.368062], [-81.691455, 41.368056], [-81.691618, 41.368054], [-81.691551, 41.368384], [-81.692091, 41.368583], [-81.693081, 41.368571], [-81.693501, 41.369118], [-81.693508, 41.369461], [-81.694254, 41.369455], [-81.69425, 41.36923], [-81.694316, 41.369222], [-81.694376, 41.369199], [-81.694428, 41.369159], [-81.69448, 41.369088], [-81.694517, 41.369069], [-81.694557, 41.369063], [-81.694723, 41.369061], [-81.694729, 41.36945], [-81.695824, 41.369438], [-81.69647, 41.367651], [-81.69646, 41.366933], [-81.696557, 41.366124], [-81.696994, 41.36612], [-81.696989, 41.365693], [-81.697649, 41.365688]]]]}}]}
